{"type": "FeatureCollection", "features": [{"type": "Feature", "properties": {"identifier": "1329ad00-ca3a-49b4-b1cc-4a03a98e9549", "name": "Prosterei - Event- und Degustationsraum", "description": "Die Prosterei ist ein Ort f\u00fcr genussvolle Entschleunigung, gesellige Begegnung und k\u00f6stliche Erlebnisse im St\u00e4dtli Lichtensteig.\n\nAnnen Wein und der Mini.Bierladen sind eure Gastgeberinnen Wein und Bier auf Augenh\u00f6he in herzlicher Kooperation.\n\nDie Prosterei ist f\u00fcr gemeinsame Degustationen, private Ap\u00e9ros & Anl\u00e4sse sowie \u00f6ffentliche Events f\u00fcr euch und eure Lieben gedacht.", "url": "https://www.minibierladen.ch", "image": "https://ttpimtsoch.sos-ch-dk-2.exoscale-cdn.com/catalog/4/2/4/5/424564c7979034e26dda51190294f5386651383a_Feed_Prosterei_dein_Ap__ro.png", "openstreetmap_id": "way/387148900"}, "geometry": {"type": "Point", "coordinates": ["9.08725", "47.3228052"]}}]}