{"type": "FeatureCollection", "features": [{"type": "Feature", "properties": {"identifier": "00fe3962-9dfd-4bc7-acf4-20d33d7c0b85", "name": "Genossenschaft Stadtufer", "description": "Auf dem Areal befinden sich Werkst\u00e4tten, Ateliers, Musik- und Sportr\u00e4ume mit attraktiven Angeboten. Das Herzst\u00fcck des Geb\u00e4udes bildet das \u201eFoyer\u201c mit einem Veranstaltungsraum f\u00fcr bis zu 200 Personen. Zuk\u00fcnftig entsteht hier Wohnraum f\u00fcr eine diverse Mieterschaft. \n\nHier am Ufer der Thur wurde in diesem Geb\u00e4ude die erste mechanische Spinnerei des Toggenburgs gegr\u00fcndet. Der Kopfbau der Fabrik wurde 1819 erbaut und gilt als sch\u00fctzenswertes Kulturobjekt. 1863 wurde dieser Teil erstmals erweitert. 1955 entstand der heutige Mittel- und Nordbau. In den besten Zeiten der Textilfabrik arbeiteten hier 320 Menschen.\n\n2017 schloss die Fein-Elast Grabher AG in Lichtensteig ihre Tore. Die Gemeinde und der Kanton unterst\u00fctzten daraufhin die partizipative Entwicklung einer nachhaltigen L\u00f6sung. Aus diesem Prozess entstand die Genossenschaft Stadtufer. Zusammen mit vielen \u00f6ffentlichen und privaten Unterst\u00fctzer*innen konnte die Genossenschaft die Fabrik im Januar 2021 kaufen. Die Stiftung Edith Maryon, deren Ziel es ist, Bodenspekulation zu verhindern, \u00fcbergab der Genossenschaft das Baurecht f\u00fcr 90 Jahre.", "url": "https://www.stadtufer.ch/", "image": "https://ttpimtsoch.sos-ch-dk-2.exoscale-cdn.com/catalog/8/4/e/6/84e67f8950fbedf53036b320dc0612b6a6561b95_DJI_0371_Pano.jpg", "openstreetmap_id": "way/380594864"}, "geometry": {"type": "Point", "coordinates": ["9.085101", "47.323253"]}}, {"type": "Feature", "properties": {"identifier": "0bd34929-5259-4058-9e55-e8c57f44dc34", "name": "Dorftreff Dicken", "description": "Das ehemalige Schulhaus Dicken wird von Vereinen und Einzelpersonen rege genutzt. Es ist als Treffpunkt f\u00fcr Jung und Alt im Dorfleben nicht mehr wegzudenken.\n\nDie Dickler Vereine beleben den Dorftreff Dicken. Ob Bundesfeier,\nChilbi, Gugge-Maskenball, Auff\u00fchrungen anl\u00e4sslich verschiedener\nUnterhaltungen oder als Lokalit\u00e4t f\u00fcr private Feierlichkeiten \u2013 alle\nw\u00e4hlen den Dorftreff Dicken als Ort ihrer Veranstaltung.\nUnsere Genossenschaft \u00fcbernimmt die Liegenschaft und betreibt sie\nals Dorftreff Dicken.\n\nAuf der Aussenanlage wartet f\u00fcr die Kinder der im 2022 neu erstellte Spielplatz. \n\nWir freuen uns, wenn Ihr Anlass bei uns im Dorftreff Dicken stattfindet. ", "url": "https://www.dorftreffdicken.ch", "image": "https://ttpimtsoch.sos-ch-dk-2.exoscale-cdn.com/catalog/c/2/7/d/c27d4d69859acbd76c0017613671eaabae194f4e_DSC_0026.JPG", "openstreetmap_id": "way/176365516"}, "geometry": {"type": "Point", "coordinates": ["9.193758472867989", "47.33786574818278"]}}, {"type": "Feature", "properties": {"identifier": "0d93e052-2a03-4bac-bfa0-efe110d6f5e6", "name": "Grillplatz Rossegg", "image": "https://ttpimtsoch.sos-ch-dk-2.exoscale-cdn.com/catalog/7/1/8/b/718b7a8fb2edfd670800f3d71fed88bac0ee7580_IMG_3383.jpeg", "openstreetmap_id": "node/4560202101"}, "geometry": {"type": "Point", "coordinates": ["9.3408195", "47.2126822"]}}, {"type": "Feature", "properties": {"identifier": "145d3464-5585-4a04-af43-90e9944f3378", "name": "Circularity Trail Lichtensteig", "description": "<p><span style=\"background-color: rgb(255, 255, 255); color: rgb(54, 54, 54);\">Der Circularity Trail m\u00f6chte dazu inspirieren, wieder mehr in Einklang mit der Natur zu leben und das eigene Leben kreislaufbasierter auszurichten. Alles zu ihrer Zeit. Denn jede Zeit hat ihren ganz besonderen Wert, ihre eigene Kraft.</span></p><p></p><p><span style=\"background-color: rgb(255, 255, 255); color: rgb(54, 54, 54);\">Die verschiedenen Stationen des Trails sind im Stadtgebiet Lichtensteig verteilt. An den jeweiligen Orten findest du jeweils ein T\u00e4felchen mit QR-Code, welches den entsprechenden Audiofile f\u00fcr dich bereith\u00e4lt. Die Standorte kn\u00fcpfen dabei an bestehende Orte und\u00a0Projekte im Kontext von Mini.Stadt Lichtensteig an und sind thematisch darauf abgestimmt. </span></p><p></p><p><span style=\"background-color: rgb(255, 255, 255); color: rgb(54, 54, 54);\">Die einzelnen Audiofiles bieten unterschiedliche Zug\u00e4nge zu Circularity &amp; Kreislaufprinzip und zeichnen in ihrer Gesamtheit ein perspektivenreiches Bild zum Themenbereich Circular Society/Living.</span></p><p></p><p>Weitere Informationen zum Circularity Trail gibt es <a href=\"https://www.lichtensteig.ch/circularitytrail\" rel=\"noopener noreferrer\" target=\"_blank\">hier</a>. </p><p></p><p></p>", "url": "https://www.lichtensteig.ch/circularitytrail", "image": "https://ttpimtsoch.sos-ch-dk-2.exoscale-cdn.com/catalog/a/0/7/f/a07f13a072d614a7dcf6e1175c834184c62e6443_circularity_trail.webp", "openstreetmap_id": "undefined/undefined"}, "geometry": {"type": "Point", "coordinates": ["9.087045192718508", "47.32369757432914"]}}, {"type": "Feature", "properties": {"identifier": "150c658f-eea7-41fc-8da0-3ddf3c7905a4", "name": "Markthalle Toggenburg", "description": "In der Markthalle Toggenburg in Wattwil findet eine Vielzahl von verschiedenen Anl\u00e4sse statt \u2013 von w\u00f6chentlichen Viehm\u00e4rkten, Auktionen und Viehausstellungen \u00fcber Gewerbeausstellungen und grosse Generalversammlungen, bis zu Party- und Sportanl\u00e4ssen, Auto-Treffen und vieles mehr. \n\nDie Markthalle bietet eine grossz\u00fcgige Halle (25 x 45 m), ein Restaurant, eine Trib\u00fcne, eine moderne K\u00fcche und B\u00fcro-R\u00e4umlichkeiten. \n\nKapazit\u00e4t: bis 2000 Personen\n", "url": "https://www.markthalle-toggenburg.ch/", "image": "https://ttpimtsoch.sos-ch-dk-2.exoscale-cdn.com/catalog/1/b/4/5/1b4575b7c190da37bddc86f6cfbcb369e1c0b92e_markthalle_toggenburg_in_wattwil_04__2_.jpg", "openstreetmap_id": "1683962"}, "geometry": {"type": "Point", "coordinates": ["9.090671539306642", "47.29346425022494"]}}, {"type": "Feature", "properties": {"identifier": "1579bd33-9490-4625-bc5d-b2b8d3234158", "name": "Stall Morgenstern", "description": "Unser Stall bietet verschiedene Aktivit\u00e4ten rund ums Pferd an. Wanderungen mit unseren gut ausgebildeten Ponys f\u00fcr Erwachsene und Kinder. Ausritte und Bodenarbeit sowie individuelle Angebote f\u00fcr Kinder. Neu ab Februar 2026: Mondschein- und Vollmondwanderungen mit unseren Ponys mit Zwischenverpflegung.", "url": "https://www.stall-morgenstern.ch", "image": "https://ttpimtsoch.sos-ch-dk-2.exoscale-cdn.com/catalog/d/b/1/a/db1aa475a9153687c513b17edf455c3ac221958c_a4b2054f_509a_4231_b1e7_d5af9680bec2__2.jpg", "openstreetmap_id": "node/2814685805"}, "geometry": {"type": "Point", "coordinates": ["9.203985214135175", "47.20683978288342"]}}, {"type": "Feature", "properties": {"identifier": "1981eb84-086c-40df-855f-5eeec8f31f8e", "name": "Johanneum", "description": "Wir vermieten R\u00e4ume im ehemaligen Kloster Neu St. Johann und in unseren Nebengeb\u00e4uden f\u00fcr Seminare, Familienfeste oder sonstige Veranstaltungen. Unser Raumangebot bietet Platz f\u00fcr \u00f6ffentliche und private Anl\u00e4sse. F\u00fcr Ihren Anlass haben wir den idealen Raum. Alle R\u00e4ume k\u00f6nnen nach Ihren Bed\u00fcrfnissen bestuhlt und ausgestattet werden. Auch f\u00fcr das leibliche Wohl sorgen wir. Das Catering (Verpflegung und Getr\u00e4nke) \u00fcbernimmt gerne ganz nach ihrem Gusto unsere Gastronomie.\n\nKapazit\u00e4ten:\n\u00c4btestube: 40 Personen\nSitzungszimmer Klostergeb\u00e4ude: 20 Personen\nSpeisesaal: 50 Personen\nMehrzweckraum: 120 Personen\nSitzungszimmer Auhof: 35 Personen\nInnenhof Klostergeb\u00e4ude: 150 Personen\nInseli in der Thur: 200 Personen", "url": "https://www.johanneum.ch/", "image": "https://ttpimtsoch.sos-ch-dk-2.exoscale-cdn.com/catalog/d/0/1/7/d0171f5e180a59f9251fbc5a54e771447342cd75_johanneum_2988.jpg", "openstreetmap_id": "way/220775588"}, "geometry": {"type": "Point", "coordinates": ["9.192810058593752", "47.22916401695772"]}}, {"type": "Feature", "properties": {"identifier": "19d289f1-4b2e-4fcb-8e12-07d9cf329cf2", "name": "Grillplatz S\u00e4ntisw\u00e4ldli", "description": "Der Grillplatz S\u00e4ntisw\u00e4ldli befindet sich in Unterwasser direkt am Anfang der Schwendistrasse gegen\u00fcber der Berg und Bett S\u00e4ntis Lodge. Die Feuerstelle im kleinen lichten W\u00e4ldchen verf\u00fcgt \u00fcber einen rechteckigen Rost, der in der H\u00f6he verstellbar ist, einem Holzvorrat und Sitzgelegenheiten auf drei Holzb\u00e4nken. Dank des neu erbauten Spielplatzes k\u00f6nnen sich die Kinder im kleinen Seilgarten oder auf der Wippe vergn\u00fcgen, w\u00e4hrend die Erwachsenen dem fr\u00f6hlichen Lachen oder der vorbeipl\u00e4tschernden Thur zuh\u00f6ren. Ausserdem steht auch das \"Mitfahrb\u00e4nkli\" gleich nebenan, wo Sie sich hinsetzen k\u00f6nnen und warten, bis das n\u00e4chste vorbeifahrende Auto Sie zu den Schwendiseen mitnimmt.\nKinderwagentauglich: ja, Holz: ja, Trinkwasser: nein, WC: nein, Kapazit\u00e4t: ca. 12", "image": "https://ttpimtsoch.sos-ch-dk-2.exoscale-cdn.com/catalog/1/b/0/9/1b0951175d2b297cdbb36a87623b5dda1623445a_IMG_1262.jpg", "openstreetmap_id": "node/7368942740"}, "geometry": {"type": "Point", "coordinates": ["9.31269943714142", "47.19602178175681"]}}, {"type": "Feature", "properties": {"identifier": "205cbcc5-6579-4c08-a69e-b69eb4f6c981", "name": "H\u00e4ngematte Unterm\u00fchle", "description": "<p>Zwischen den B&auml;umen versteckt liegt diese Ruheoase nahe der Thur entlang des Thur- und Neckerwegs. An drei Punkten gespannt, schwebt das Netz leicht &uuml;ber dem Boden.<br><br>Sanft getragen zwischen den St&auml;mmen hebt sich der Blick ins Bl&auml;tterdach. Das Rauschen des Wassers mischt sich mit dem Rascheln der Bl&auml;tter. Ein Ort, um f&uuml;r einen Moment zur Ruhe zu kommen.</p>", "url": "https://thurundneckerweg.ch", "image": "https://ttpimtsoch.sos-ch-dk-2.exoscale-cdn.com/catalog/9/a/8/8/9a8843e5fedb60c06299bd7561ed4348820dfde8_H__ngematte_Unterm__hle__B__tschwil.jpeg", "openstreetmap_id": "node/13611484204"}, "geometry": {"type": "Point", "coordinates": ["9.08027", "47.361222"]}}, {"type": "Feature", "properties": {"identifier": "20945a5c-a6c9-4844-9fdb-b5c10719e8c9", "name": "Ch\u00e4s St\u00fcbli der Swiss Cheese Factory ", "description": "Das Ch\u00e4s St\u00fcbli der Swiss Cheese Factory in Ganterschwil ist voll ausgestattet mit einer grossen K\u00fcche, WC und Bildschirm f\u00fcr Pr\u00e4sentationen. Die kulinarische Verw\u00f6hnung umfasst k\u00f6stliche Spezialit\u00e4ten der lokalen Produzentin.\n\nDer Raum bietet Platz f\u00fcr bis zu 50 Personen.", "url": "https://www.swisscheesefactory.ch/chaes-stuebli/", "image": "https://ttpimtsoch.sos-ch-dk-2.exoscale-cdn.com/catalog/5/b/1/c/5b1cde3593eed11e2025a2a10392bebc24143233_Chaesi_Stuebli_6_1024x683.jpg", "openstreetmap_id": "way/199709803"}, "geometry": {"type": "Point", "coordinates": ["9.087849855422975", "47.381606913003175"]}}, {"type": "Feature", "properties": {"identifier": "24e0ccad-d1ea-4658-aafd-0c8d4b4b9c67", "name": "Foxtrail Wildhaus", "description": "Keine Zeit, die atemberaubende Aussicht auf den S\u00e4ntis und die Churfirsten zu geniessen, denn wer den Foxtrail in Wildhaus unter die F\u00fcsse nimmt, muss Augen und Ohren offen halten, um den Gold- und Silberschatz zu finden. Dabei spielt eine seltene Blume eine grosse Rolle.\n \nDie Verfolger begeben sich in luftige H\u00f6he, vernehmen den Klang historischer Kommunikationsanlagen und tauchen im Get\u00fcmmel der Ferieng\u00e4ste unbemerkt in einen engen Kanal ein. Auch Schleckm\u00e4uler kommen auf diesem Trail auf ihre Kosten.", "url": "https://foxtrail.ch/produkte/trails/ostschweiz/funi/", "image": "https://ttpimtsoch.sos-ch-dk-2.exoscale-cdn.com/catalog/2/c/c/9/2cc9d19ec175d0f3967546ccc057aea80c4cd69e_caw_210720_0069.jpg", "openstreetmap_id": "node/2327133067"}, "geometry": {"type": "Point", "coordinates": ["9.350459575653078", "47.20346689730784"]}}, {"type": "Feature", "properties": {"identifier": "251f2203-708b-4af8-9495-1a4cf3eca129", "name": "Klang Escape Room", "description": "<p>Vor einiger Zeit kam die ortsfremde Lena Jeger ins Toggenburg, um f&uuml;r die Klangwelt kostenlose Klangkurse anzubieten. Im Gegenzug erhielt sie eine Unterkunft in der Klangschmiede. Jetzt ist die Musiklehrerin verschwunden &ndash; und ihr Zimmer ist abgesperrt! Verschafft euch Zugang zum Wohnraum von Lena und findet heraus, warum das Tal gef&auml;hrdet ist! Ultimativer, interaktiver R&auml;tselspass f&uuml;r Gruppen und Familien. Meldet euch bei Interesse &uuml;ber info@klangwelt.ch f&uuml;r einen Besuch an. Bitte gebt uns eure vollst&auml;ndigen Kontaktdaten an (Name, Vorname, Adresse, Telefonnummer, Mailadresse). Vielen Dank.</p><p>&nbsp;</p><p>Auskunft zur Zug&auml;nglichkeit: <a href=\"https://www.ginto.guide/entries/619d64d8-c3dc-4526-80f8-18c96530e219?lnk_src=business\" target=\"_blank\" rel=\"noopener\">ginto</a></p>", "url": "https://klangwelt.ch/angebote/gruppenangebote/klang-escape-room", "image": "https://ttpimtsoch.sos-ch-dk-2.exoscale-cdn.com/catalog/d/0/1/6/d01648f4618b9d10ea6ae8883c3a246be363ce05_Klang_Escape_Room_Klangwelt_Toggenburg.jpg", "openstreetmap_id": "node/1083115186"}, "geometry": {"type": "Point", "coordinates": ["9.27897870540619", "47.193419883716835"]}}, {"type": "Feature", "properties": {"identifier": "25f195b1-d6d8-4179-a2db-5bf68ec9fcb6", "name": "Herrgottsbeton \u2013 Anna Maria Fink", "description": "<p><span style=\"font-size: 11.0pt; line-height: 107%; font-family: 'Aptos',sans-serif; mso-ascii-theme-font: minor-latin; mso-fareast-font-family: Aptos; mso-fareast-theme-font: minor-latin; mso-hansi-theme-font: minor-latin; mso-bidi-font-family: 'Times New Roman'; mso-bidi-theme-font: minor-bidi; mso-ansi-language: DE-CH; mso-fareast-language: EN-US; mso-bidi-language: AR-SA;\">Am T&uuml;fenbach bei St. Peterzell f&uuml;hrt ein schmaler Pfad &uuml;ber Sand, Fels und Nagelfluh zu einem grossen Findling im Flussbett. Hier macht Anna Maria Fink die Spuren von Zeit und Bewegung sichtbar: feine Markierungen im Sand, Spuren auf Stein und Einschnitte im Gel&auml;nde, die das Zusammenspiel von Wasser, Stein und Gehenden sp&uuml;rbar werden lassen.</span></p>", "url": "https://thurundneckerweg.ch", "image": "https://ttpimtsoch.sos-ch-dk-2.exoscale-cdn.com/catalog/2/2/0/e/220e78998a7e126e9d8bc6814aefa54bcf0b2639_Kunstwerk_R__tteli__St._Peterzell.jpg", "openstreetmap_id": "node/13614976063"}, "geometry": {"type": "Point", "coordinates": ["9.183111", "47.313111"]}}, {"type": "Feature", "properties": {"identifier": "36034253-37cc-4a0f-882b-8fc90fd6f290", "name": "Naturkino Ruine R\u00fcdberg", "description": "<p>Hergestellt aus heimischem Holz ist dieses Naturkino Teil der Thur- und Neckerweg-Ruheoasen.<br><br>Statt auf eine Leinwand &ouml;ffnet sich der Blick in die Tiefe des Waldes. Das Licht bricht in den Baumkronen, die sich zwischen Himmel und Erde spannen. Ein Rascheln in der N&auml;he, ein Zwitschern in der Ferne, das leise Knacken eines Astes im Hintergrund. Mit den Jahreszeiten ver&auml;ndert sich das Bild. Der Wald kennt Zeiten der Bewegung und des Innehaltens.</p>", "url": "https://thurundneckerweg.ch", "image": "https://ttpimtsoch.sos-ch-dk-2.exoscale-cdn.com/catalog/f/f/c/c/ffcc629b9d5628aa23cfc61404149e6e15ba38e7_Naturkino_Ruine_R__dberg__Oberhelfenschwiel.jpg", "openstreetmap_id": "node/13611472682"}, "geometry": {"type": "Point", "coordinates": ["9.088722", "47.349750"]}}, {"type": "Feature", "properties": {"identifier": "38a16017-d23e-425a-bb3d-8f85bbdbf6a2", "name": "Grillplatz Laui auf der Wolzenalp, Nesslau", "description": "Die Feuerstelle nach Schweizer-Familie-Standard ist eine von schweizweit \u00fcber 500, die sich bestens f\u00fcr die Wanderverpflegung aus dem Rucksack oder f\u00fcr einen Tagesausflug eignet. Sie ist mit zwei Grillrosten, verf\u00fcgbarem Brennholz, Tischen und B\u00e4nken sowie Ruheb\u00e4nken mit toller Bergsicht eingerichtet. Sie l\u00e4sst sich in 45 Minuten ab Bergstation Rietbach oder in knapp zwei Stunden ab Bahnhof Nesslau Neu St. Johann erreichen.\n\nDie Grillstelle liegt am Klimaerlebnisweg Toggenburg. Kinderwagentauglich: ja ab Nesslau via Schneit, Holz: ja, Trinkwasser: nein, WC: nein, Kapazit\u00e4t: ca. 20", "url": "https://www.nesslau-tourismus.ch", "image": "https://ttpimtsoch.sos-ch-dk-2.exoscale-cdn.com/catalog/6/b/1/5/6b1583fd696b30ca372f8ac5f5514ac037a749b8_Grillplatz_Laui_Nesslau.jpg", "openstreetmap_id": "node/5615045633"}, "geometry": {"type": "Point", "coordinates": ["9.169686", "47.217016"]}}, {"type": "Feature", "properties": {"identifier": "3e493c57-f41f-4584-a1bb-3462fd8b424b", "name": "topochoreographies - marce norbert h\u00f6rler", "description": "<p>Auf dem Weg zum Thurwasserfall begleiten sechs Bronzetafeln den Aufstieg durch das Ch&auml;mmerlitobel. Inspiriert vom Wasserfall greifen sie Bewegungen und nat&uuml;rliche Kreisl&auml;ufe auf. Zeichnungen und Texte im lokalen Dialekt erinnern an Formeln und Rituale und er&ouml;ffnen neue Zug&auml;nge zum Ort. Mit der Zeit ver&auml;ndert sich das Material &ndash; wie das Wasser bleibt auch das Werk in Bewegung.</p>", "url": "https://thurundneckerweg.ch", "image": "https://ttpimtsoch.sos-ch-dk-2.exoscale-cdn.com/catalog/3/0/4/0/3040a302098ff0e191e74003b040795c22446d2a_STUR3727_klein.jpg", "openstreetmap_id": "node/1490582567"}, "geometry": {"type": "Point", "coordinates": ["9.311555555555556", "47.2023056"]}}, {"type": "Feature", "properties": {"identifier": "41fa3ffb-4a11-48c1-a448-7207eea8c1a8", "name": "Schaukel Vor dem Bach", "description": "<p>Aus heimischem Holz gefertigt, liegt diese Ruheoase am Ufer der Thur auf einem ruhigen Abschnitt des Thur- und Neckerwegs.<br><br>Beim Schaukeln hebt sich der Blick &uuml;ber die Thur bis zu den Churfirsten am Horizont. In dieser Perspektive zeigen sie sich frei am hinteren Ende des Tals, ein wahrlich majest&auml;tischer Anblick.</p>", "url": "https://thurundneckerweg.ch", "image": "https://ttpimtsoch.sos-ch-dk-2.exoscale-cdn.com/catalog/6/1/5/5/61556b4a389993545e420d28574b5e9001f2e8d0_Schaukel_Vor_dem_Bach__Nesslau.jpg", "openstreetmap_id": "node/13611549194"}, "geometry": {"type": "Point", "coordinates": ["9.183611", "47.235278"]}}, {"type": "Feature", "properties": {"identifier": "4297bc41-4245-42ac-ab9d-023c9769f83b", "name": "Kutschenfahrten F\u00e4ssler", "description": "Wir bieten im Sommer Gesellschaftsfahrten und im Winter Schlittenfahrten an.\nAuf Wunsch k\u00f6nnen auch Fonduefahrten organisiert werden. \nEs k\u00f6nnen Fahrten f\u00fcr kleinere sowie gr\u00f6ssere Gruppen durchgef\u00fchrt werden.", "image": "https://ttpimtsoch.sos-ch-dk-2.exoscale-cdn.com/catalog/d/f/d/3/dfd3db3d691b50d07079fc5fdeece39e942f570f_IMG_20181028_WA0008.jpg", "openstreetmap_id": "node/8818782613"}, "geometry": {"type": "Point", "coordinates": ["9.1843718290329", "47.232970622096424"]}}, {"type": "Feature", "properties": {"identifier": "486573b4-212f-4856-ba61-e1fc0251cea2", "name": "Resonanzzentrum Peter Roth", "description": "Der Klangdom im dritten Stock des Resonanzzentrums Peter Roth ist das Herzst\u00fcck des Hauses und der erste \u00f6ffentlich zug\u00e4ngliche Klangdom in der Schweiz. Als Begegnungs- und Erlebnishaus heisst das Zentrum Besucherinnen und Besucher willkommen und bietet einen interaktiven Zugang zu Klang, Resonanz und Schwingung. Der Klangdom ist ein besonderer Ort f\u00fcr besondere Musik: Er bietet Platz f\u00fcr bis zu 100 G\u00e4ste, schafft Begegnungen und erm\u00f6glicht die Reflexion der Klangerfahrungen. Ein wichtiger Bestandteil f\u00fcr die erste audiovisuelle Pr\u00e4sentation im Klangdom ist die Dokumentarfilmreihe \u00abVom Zauberklang der Dinge\u00bb, die das Werk von Peter Roth und die Musizierenden zeigt, die ihn begleitet haben.", "url": "https://klangwelt.ch", "image": "https://ttpimtsoch.sos-ch-dk-2.exoscale-cdn.com/catalog/6/2/9/9/6299922ca72c2e6f32c44cf839cb80f1bceacd16_250623_GPU2501_3519_web.jpg", "openstreetmap_id": "way/1068618149"}, "geometry": {"type": "Point", "coordinates": ["9.329731464385988", "47.19039062489649"]}}, {"type": "Feature", "properties": {"identifier": "4dcbfcdf-1576-4ac3-82dc-90ea0be3095d", "name": "Naturb\u00fchne Fl\u00f6\u00f6zli", "description": "<p>Aus heimischem Holz gefertigt, liegt diese Plattform entlang des Thur- und Neckerwegs frei im Landschaftsraum. Sie schafft eine klare, einfache Fl&auml;che im Freien &ndash; offen f&uuml;r das, was entstehen will.<br><br>Die B&uuml;hne kann spontan genutzt oder reserviert werden. Ob allein, zu zweit oder in einer kleinen Gruppe &ndash; hier entsteht Raum f&uuml;r Austausch, f&uuml;r Proben oder Trainings, Kurse und Workshops, kleine Vorf&uuml;hrungen oder f&uuml;r Team-Meetings &laquo;mal anders&raquo;. Die Naturb&uuml;hne bietet einen besonderen Rahmen f&uuml;r gemeinsame Momente in neuer Umgebung. Alternativ dient sie als Platz f&uuml;rs Picknick oder den Lunch am Mittag.</p>", "url": "https://thurundneckerweg.ch", "image": "https://ttpimtsoch.sos-ch-dk-2.exoscale-cdn.com/catalog/a/4/5/5/a455f80252894774134399ae3fc65c79009d865e_Naturb__hne_Fl____zli__Lichtensteig.jpg", "openstreetmap_id": "node/10542626910"}, "geometry": {"type": "Point", "coordinates": ["9.086500", "47.322056"]}}, {"type": "Feature", "properties": {"identifier": "52561659-8932-4248-93ac-42a63b50e261", "name": "Erlebnishaus Klangschmiede", "description": "<p>In der 2011 er&ouml;ffneten Werkstatt und Gesch&auml;ftsstelle der Klangwelt Toggenburg wird das Kunsthandwerk des Schmiedens von Schellen und anderen Klangk&ouml;rpern gezeigt und vermittelt. Die Klangschmiede ist ein interaktives Erlebnishaus mit verschiedenen Themenr&auml;umen. Tauchen Sie ein in die Themen Weltall, Fauna und Flora, Naturtonmusik und Brauchtum. Und erfahren Sie mehr &uuml;ber Klangph&auml;nomene oder Heilung durch Klang. Ausprobieren und Experimentieren ist ausdr&uuml;cklich erw&uuml;nscht.</p><p>&nbsp;</p><p>Auskunft zur Zug&auml;nglichkeit:&nbsp;<a href=\"https://www.ginto.guide/entries/b7546341-d476-4086-82d8-2f124487b429?lnk_src=business\" target=\"_blank\" rel=\"noopener\">ginto</a></p>", "url": "http://www.klangwelt.ch", "image": "https://ttpimtsoch.sos-ch-dk-2.exoscale-cdn.com/catalog/5/2/b/2/52b2f6391dfec2704b7e3a685cc8c48cabf749ce_Klang_und_Brauchtum_Klangschmiede_Klangwelt_Toggenburg.jpg", "openstreetmap_id": "node/1083115186"}, "geometry": {"type": "Point", "coordinates": ["9.27897870540619", "47.193419883716835"]}}, {"type": "Feature", "properties": {"identifier": "536fc1f7-581c-4072-a766-a1f12ba3f1ae", "name": "Eventraum Sch\u00fc\u00fcr", "description": "<p>Die Sch&uuml;&uuml;r wird gef&uuml;hrt von Menschen mit und ohne Handicap. Unser Anliegen liegt in der integrativen und sinnvollen Besch&auml;ftigung von Menschen mit Beeintr&auml;chtigungen. Dieder Betrieb der Sch&uuml;&uuml;r basiert auf dem Monatsprogramm. Dieses kann ab ca. dem 20. Des Vormonats auf unserer Website herunter geladen werden: www.schuurbrunnadern.ch Wir werden gerne gebucht und sind auch hervorragend geeignet f&uuml;r Gastroanl&auml;sse von Gruppen und Bed&uuml;rfnisse verschiedenster Art, bei der wir gerne f&uuml;r ihr Wohl besorgt sind. Unser atmosph&auml;risch starker Eventraum umfasst mit Gastrobestuhlung min. 60 Pl&auml;tze. Unsere Veranstaltungen haben in der Regel einen kulinarischen Hintergrund. Wir geben aber auch Veranstaltungen Raum die lediglich ein Catering, oder einen Apero inkludieren. Sie k&ouml;nnen bei uns auch ihre eigene Veranstaltung organisieren. Unser Raum kann auch gemietet werden. Die Technik umfasst WLAN und einen Beamer. Geplant ist der Aufbau einer verbesserten Ausstellungsraumtechnik. Mit dem Treppenlift ist ein barrierefreier Zugang m&ouml;glich. Nur bedingt geeignet sind wir f&uuml;r Anl&auml;sse mit mehreren rollstuhlfahrenden Teilnehmern. Parkpl&auml;tze befinden sich in unmittelbarer N&auml;he und der Bahnhof ist in 5 min. erreicht. Unsere Betriebsleiterin Frau Susanne Stalder beantwortet gerne ihre weiteren Fragen: info@schuurbrunnadern.</p><p>&nbsp;</p><p>Auskunft zur Zug&auml;nglichkeit:&nbsp;<a href=\"https://www.ginto.guide/entries/0922abed-fda6-469f-868f-5b9ad886126d?lnk_src=business\" target=\"_blank\" rel=\"noopener\">ginto</a></p>", "url": "https://www.schuurbrunnadern.ch/", "image": "https://ttpimtsoch.sos-ch-dk-2.exoscale-cdn.com/catalog/1/3/8/e/138ec4380ae46007911d03953fa76adba92b5df6_Sch____r.jpg", "openstreetmap_id": "way/177908927"}, "geometry": {"type": "Point", "coordinates": ["9.130995869636537", "47.33540906495313"]}}, {"type": "Feature", "properties": {"identifier": "54376a6d-191c-497f-8166-74ee3e754dba", "name": "Ackerhus", "description": "<div><p>Im Herzen des Toggenburgs steht das Ackerhus in Ebnat\u2011Kappel &ndash; ein Ort, der Kulturerbe auf inspirierende Weise bewahrt und lebendig h&auml;lt. Das historische Bauernhaus aus dem 18. Jahrhundert wurde 1952 von Albert Edelmann originalgetreu an seinem heutigen Standort aufgebaut. Damit legte er den Grundstein f&uuml;r das heutige Heimatmuseum und Kulturlokal.</p><p>Das Ackerhus vereint Geschichte und Gegenwart zu einem besonderen Ort: Toggenburger Architektur, liebevoll restaurierte und modern erweiterte R&auml;ume laden zu Sonderausstellungen, Konzerten und privaten Feiern ein. Hier treffen Vergangenheit und Gegenwart aufeinander und schaffen Inhalte, die Herkunft dokumentieren und in der Gegenwart verbinden.</p><p>Ob bei einem spontanen Besuch der Ausstellung oder einer besonderen Veranstaltung &ndash; das Ackerhus bietet Perspektiven, die neugierig machen und Lust auf mehr wecken.</p></div>", "url": "http://ackerhus.ch", "image": "https://ttpimtsoch.sos-ch-dk-2.exoscale-cdn.com/catalog/f/1/6/a/f16a7cca677f6202a5da7e41c98e4b797724e03b_STB20250826_531__1_.jpg", "openstreetmap_id": "node/746685880"}, "geometry": {"type": "Point", "coordinates": ["9.1224594", "47.2673229"]}}, {"type": "Feature", "properties": {"identifier": "67245292-9531-4d34-a310-2cc6cae6a1a2", "name": "Hydromyths \u2013 Lucie Tuma", "description": "<p>Am Zusammenfluss von Thur und Necker in L&uuml;tisburg l&auml;dt Lucie Tuma mit &bdquo;Hydromyths&ldquo; zu einem begehbaren Klangraum ein. Vogelstimmen, Wasserger&auml;usche und eingesprochene Texte erklingen &uuml;ber eine Tonspur, Holzbilder an der historischen Br&uuml;cke erg&auml;nzen den Soundwalk. Naturkl&auml;nge und Erz&auml;hlung treten hier in einen leisen Dialog.</p>", "url": "https://thurundneckerweg.ch", "image": "https://ttpimtsoch.sos-ch-dk-2.exoscale-cdn.com/catalog/5/1/c/6/51c6d5ab0e866e3ad3d68fbd45949239ab8035de_HST_2969.jpg", "openstreetmap_id": "node/13615010805"}, "geometry": {"type": "Point", "coordinates": ["9.083389", "47.391944"]}}, {"type": "Feature", "properties": {"identifier": "6ce16aef-91ee-4743-ba21-12d9a43c47de", "name": "Schaukel B\u00fchl", "description": "<p>Ein Holzbrett, zwei Ketten &ndash; mehr braucht es nicht. Entlang des Thur- und Neckerwegs entsteht so ein einfacher Ort, der an fr&uuml;her erinnert.<br><br>Beim Schaukeln wird das Gef&uuml;hl leichter und Gedanken verlieren an Gewicht. F&uuml;r einen Moment darf alles unkompliziert sein.</p>", "url": "https://thurundneckerweg.ch", "image": "https://ttpimtsoch.sos-ch-dk-2.exoscale-cdn.com/catalog/1/5/a/0/15a0ba480ac099ac6be560671f599c9604eb23a9_Schaukel_B__hl__Stein.jpeg", "openstreetmap_id": "node/13611557680"}, "geometry": {"type": "Point", "coordinates": ["9.219389", "47.202167"]}}, {"type": "Feature", "properties": {"identifier": "716cd749-becf-413b-8cd1-8ba0abe54e70", "name": "Sitzbank Flooz", "description": "<p class=\"MsoNormal\" style=\"margin-bottom: 0cm; line-height: normal;\">Dieses B&auml;nkli ist Teil der Ruheoasen entlang des Thur- und Neckerwegs, gefertigt aus heimischem Holz und bewusst reduziert gestaltet.<br><br>Es bietet einen einfachen, klar gestalteten Ort zum Sitzen, Verweilen und Innehalten. Der Blick richtet sich in die Landschaft &ndash; auf Wasser, Wiesen oder Berge, je nach Standort neu, stets mit Bedacht gew&auml;hlt.</p>", "url": "https://thurundneckerweg.ch", "image": "https://ttpimtsoch.sos-ch-dk-2.exoscale-cdn.com/catalog/3/3/7/2/3372176910170ac9ce44780ebdd6315b68ea31b6_Sitzbank_Wilerstrasse__Wattwil.jpeg", "openstreetmap_id": "node/13611556964"}, "geometry": {"type": "Point", "coordinates": ["9.079417", "47.313361"]}}, {"type": "Feature", "properties": {"identifier": "72359753-e0d5-4c4f-a6f5-58ee34ca4881", "name": "Schaukel K\u00fchboden", "description": "<p>Gefertigt aus heimischem Holz liegt diese Ruheoase am Ursprung der S&auml;ntisthur auf einem zaubervollen Abschnitt des Thur- und Neckerwegs.<br><br>Beim Schaukeln ver&auml;ndert sich die Perspektive &ndash; sanfte Bewegung verbindet Leichtigkeit mit Weitblick. Die noch junge Thur fliesst hier talw&auml;rts, gegen&uuml;ber erheben sich die sieben Churfirsten eindr&uuml;cklich.</p>", "url": "https://thurundneckerweg.ch", "image": "https://ttpimtsoch.sos-ch-dk-2.exoscale-cdn.com/catalog/c/9/1/d/c91d93588b18a147030de44ea4b4f61296a7ead3_Schaukel_B__chel__Unterwasser.jpg", "openstreetmap_id": "node/13611590712"}, "geometry": {"type": "Point", "coordinates": ["9.315083", "47.209556"]}}, {"type": "Feature", "properties": {"identifier": "728ceaa5-d12a-43b7-a36d-411c159a7bed", "name": "Besuch bei der Kamerasau", "description": "Wenn es sich im Dreck w\u00e4lzt, das Futter freudestrahlend frisst oder mit seinen Kolleginnen im Stall ein Nickerchen macht. Die Kamerasau filmt und streamt live auf die Webseite www.kamerasau.ch. Hier sehen alle, wie die 20 Freiland-Schweine ihr Leben geniessen. \n\nNat\u00fcrlich steht auch der Hof offen, wer sich vor Ort die Schweine betrachten m\u00f6chte und ist jederzeit herzlich Willkommen. Taucht in das Leben unserer Schweine ein und geniesst auf dem Glasboden-Stall gem\u00fctlich einen Kaffee, w\u00e4hrenddem die Tiere beobachtet werden k\u00f6nnen. \n\nAuf Wunsch planen wir gerne eine F\u00fchrung durch unseren ganzen Hof. Erleben Sie wie wir arbeiten und was wir f\u00fcr Produkte herstellen. In unserem Hofladen kann die Einkaufstasche mit verschiedenen K\u00f6stlichkeiten gef\u00fcllt werden. \n\n", "url": "https://www.adelbach-hof.ch/", "image": "https://ttpimtsoch.sos-ch-dk-2.exoscale-cdn.com/catalog/6/7/c/b/67cbd35dfdc35b8477142118b8c20a8fb8a3b908_DJI_0455.JPG", "openstreetmap_id": "node/218081985"}, "geometry": {"type": "Point", "coordinates": ["9.1275410068259", "47.343055449999994"]}}, {"type": "Feature", "properties": {"identifier": "789bcf9e-8ce7-431f-8a44-f256e9901464", "name": "Holdersch\u00fc\u00fcr", "description": "Egal ob Firmenanlass, Geburtstagsfest oder Hochzeit, die Familie Oswald organisiert Ihr Fest! Mit ihrer gastronomischen Erfahrung k\u00f6nnen Sie sich zur\u00fccklehnen und m\u00fcssen nur die Einladungen verschicken.\n\nNeben Eventgastronomie bieten Romy und Beni Oswald Ihnen zudem ein lustiges Rahmenprogramm, bei welchem Sie und Ihre G\u00e4ste eine Farmolympiade geniessen. Bei diesem Teamanlass, entsteht eine super Stimmung, die mit einer originellen Rangverk\u00fcndigung endet.\n\nEntdecken Sie auch die verschiedenen Holunderspezialit\u00e4ten, welche der \"Sch\u00fc\u00fcr\" ihren Namen verliehen haben. Diese k\u00f6nnen im Laden vor Ort oder zum Beispiel am Weihnachtsmarkt im November gekauft werden.\n", "url": "https://www.holderschuer.ch/", "image": "https://ttpimtsoch.sos-ch-dk-2.exoscale-cdn.com/catalog/f/3/3/2/f3322d04890bd4a7c799465a90883eea4eab6c64_Holderschuer.jpg", "openstreetmap_id": "node/4227757218"}, "geometry": {"type": "Point", "coordinates": ["9.008113145828249", "47.41003995141986"]}}, {"type": "Feature", "properties": {"identifier": "7c8f4276-6a14-4c75-9cf5-54eac46c3e15", "name": "Kinderbaustelle Wattwil", "description": "Das Projekt Offene Kinderbaustelle Wattwil schafft im Zentrum von Wattwil einen Platz, auf dem Kinder hoch und tief bauen d\u00fcrfen.\n\nAuf der Kinderbaustelle in Wattwil werden die Kinder unterst\u00fctzt und begleitet durch kompetente Betreuungspersonen. In dem daf\u00fcr vorgesehenen Areal k\u00f6nnen sie mit unterschiedlichsten Baumaterialien frei nach ihren Ideen und W\u00fcnschen, ihrem Wissen und K\u00f6nnen, bauen und gestalten. Dabei lernen Kinder im Freien sich handwerklich und kreativ zu bet\u00e4tigen, alleine oder gemeinsam, beziehen ihre Umwelt in ihr Handeln mit ein und f\u00f6rdern dabei ihre taktilen- sozialen- und motorischen F\u00e4higkeiten. \n\nWillkommen sind alle Kinder bis zum 12. Lebensjahr. Das Angebot ist f\u00fcr alle Besucherinnen und Besucher gratis und neben den betreuten \u00d6ffnungszeiten steht die Kinderbaustelle allen Schulklassen aus der Unter- und Mittelstufe, den Kindertagest\u00e4tten, der Heilp\u00e4dagogischen Schule, allen Jugendvereinen aus Wattwil und der Region und weiteren Interessierten aus dem Bereich der Kinderbetreuung f\u00fcr allf\u00e4llige Projekte und Anl\u00e4sse zur Verf\u00fcgung.", "url": "http://www.kinderbaustelle-wattwil.ch", "image": "https://ttpimtsoch.sos-ch-dk-2.exoscale-cdn.com/catalog/7/2/0/c/720cbd0f0150a71230e21b63b962b17106711568_Kinderbaustelle_Gel__nde.JPG", "openstreetmap_id": "803268012"}, "geometry": {"type": "Point", "coordinates": ["9.09904128761418", "47.2892278"]}}, {"type": "Feature", "properties": {"identifier": "95bed004-bd21-413c-aa09-075846e31fc5", "name": "Sitzbank Iltishag", "description": "<p>Dieses B&auml;nkli ist Teil der Ruheoasen entlang des Thur- und Neckerwegs, gefertigt aus heimischem Holz und bewusst reduziert gestaltet.<br><br>Es bietet einen einfachen, klar gestalteten Ort zum Sitzen, Verweilen und Innehalten. Der Blick richtet sich in die Landschaft &ndash; auf Wasser, Wiesen oder Berge, je nach Standort neu, stets mit Bedacht gew&auml;hlt.</p>", "url": "https://thurundneckerweg.ch", "image": "https://ttpimtsoch.sos-ch-dk-2.exoscale-cdn.com/catalog/7/7/2/8/77288f4bdfc7a847ac9989be8698a9a5b2a9e83b_Sitzbank_Iltishag__Starkenbach.jpg", "openstreetmap_id": "node/13611628055"}, "geometry": {"type": "Point", "coordinates": ["9.237111", "47.191333"]}}, {"type": "Feature", "properties": {"identifier": "99f548b2-cf39-4cc6-9f83-65f2775078a6", "name": "Schaukeln Barenegg", "description": "<p>Ein Holzbrett, zwei Ketten &ndash; mehr braucht es nicht. Entlang des Thur- und Neckerwegs entsteht so ein einfacher Ort, der an fr&uuml;her erinnert.<br><br>Beim Schaukeln wird das Gef&uuml;hl leichter und Gedanken verlieren an Gewicht. F&uuml;r einen Moment darf alles unkompliziert sein.</p>", "url": "https://thurundneckerweg.ch", "image": "https://ttpimtsoch.sos-ch-dk-2.exoscale-cdn.com/catalog/b/f/7/8/bf78e28069be551cdf9ec694ae597e9ae038099d_Schaukeln_Barenegg__Neckertal.jpg", "openstreetmap_id": "node/13611749201"}, "geometry": {"type": "Point", "coordinates": ["9.188500", "47.298500"]}}, {"type": "Feature", "properties": {"identifier": "a721ed0c-9cc2-41c6-b754-8f06221874e1", "name": "Propstei Alt St. Johann", "description": "Verschieden grosse R\u00e4umlichkeiten bieten Ihnen die M\u00f6glichkeit, die ideale Gr\u00f6sse f\u00fcr Ihren Event auszuw\u00e4hlen. Ob f\u00fcr eine Pr\u00e4sentation mit Beamer, eine Vorstellung mit B\u00fchne oder einfach den Geburtstag feiern. Wir stellen allen ben\u00f6tigten Materialien zur Verf\u00fcgung. Von Geschirr bis hin zu Kaffeetassen ist f\u00fcr alles gesorgt, damit Sie unvergessliche Momente, ungest\u00f6rt, erleben k\u00f6nnen.\n\nKapazit\u00e4t:\nPaul M\u00fcller Saal: 80 Personen\nJohannes Saal: 190 Personen\nSitzungszimmer: 12 Personen\nklostergarten: 200 Personen\nMilo & Th\u00fcring - Keller: 30 Personen\nAbt Konrad: 100 Personen\n\n", "url": "https://www.sanktjohann.ch/", "image": "https://ttpimtsoch.sos-ch-dk-2.exoscale-cdn.com/catalog/c/7/0/a/c70acfe830c6786379e87585479b1c53c646e08b__01__Aussenaufnahme_.jpg", "openstreetmap_id": "222237893"}, "geometry": {"type": "Point", "coordinates": ["9.28526043891907", "47.194374928696426"]}}, {"type": "Feature", "properties": {"identifier": "b403847c-62dc-4cf6-8223-ecdc66969cc9", "name": "Tennis- und Eventhalle", "url": "https://www.tennishalle.ch", "image": "https://ttpimtsoch.sos-ch-dk-2.exoscale-cdn.com/catalog/7/6/e/f/76ef451ec7a5421958e98d0b14ea62756df87a7a_Boulderbox_230.jpg", "openstreetmap_id": "222237782"}, "geometry": {"type": "Point", "coordinates": ["9.310344457626345", "47.196251736793684"]}}, {"type": "Feature", "properties": {"identifier": "b749d684-dd3c-4a37-a973-8a46e2159dfe", "name": "Liege Rennen", "description": "<p>Aus heimischem Holz gefertigt, liegt diese Ruheoase am Wasser entlang des Thur- und Neckerwegs. Schlicht gehalten l&auml;sst sie dem Wasser den Raum.<br><br>Der Blick folgt dem Fluss und seiner Bewegung. Rauschen, Str&ouml;mung, Spiegelungen und das Spiel des Lichts zeichnen das Bild. Hier pr&auml;gt nicht die Weite den Moment, sondern das Fliessen &ndash; ruhig und ohne Eile.</p>", "url": "https://thurundneckerweg.ch", "image": "https://ttpimtsoch.sos-ch-dk-2.exoscale-cdn.com/catalog/d/e/4/c/de4cd48cc8355e487aaed9daa16fbf1dd8dc6757_Liege_Rennen__Oberhelfenschwiel.jpg", "openstreetmap_id": "node/13611797380"}, "geometry": {"type": "Point", "coordinates": ["9.124917", "47.360472"]}}, {"type": "Feature", "properties": {"identifier": "badfeb39-97ef-46e4-acb5-80e3344d0725", "name": "Liege Kammern", "description": "<p>Aus heimischem Holz gefertigt, liegt diese Ruheoase am Wasser entlang des Thur- und Neckerwegs. Schlicht gehalten l&auml;sst sie dem Wasser den Raum.<br><br>Der Blick folgt dem Fluss und seiner Bewegung. Rauschen, Str&ouml;mung, Spiegelungen und das Spiel des Lichts zeichnen das Bild. Hier pr&auml;gt nicht die Weite den Moment, sondern das Fliessen &ndash; ruhig und ohne Eile.</p>", "url": "https://thurundneckerweg.ch", "image": "https://ttpimtsoch.sos-ch-dk-2.exoscale-cdn.com/catalog/3/e/1/a/3e1a44b4127807f1946ff8e9d595002a53cdfbfa_Liege_Kammern__Krummenau.jpg", "openstreetmap_id": "node/13611759343"}, "geometry": {"type": "Point", "coordinates": ["9.177944", "47.243167"]}}, {"type": "Feature", "properties": {"identifier": "bc0e812e-79fe-4182-a941-326e2d1c0b1a", "name": "Sitzbank Thurau", "description": "<p>Dieses B&auml;nkli ist Teil der Ruheoasen entlang des Thur- und Neckerwegs, gefertigt aus heimischem Holz und bewusst reduziert gestaltet.<br><br>Es bietet einen einfachen, klar gestalteten Ort zum Sitzen, Verweilen und Innehalten. Der Blick richtet sich in die Landschaft &ndash; auf Wasser, Wiesen oder Berge, je nach Standort neu, stets mit Bedacht gew&auml;hlt.</p>", "url": "https://thurundneckerweg.ch", "image": "https://ttpimtsoch.sos-ch-dk-2.exoscale-cdn.com/catalog/3/5/1/3/3513ac48919dbfce28754c4f59b8a01d6495d21f_Sitzbank_Thurau__Ebnat_Kappel.jpg", "openstreetmap_id": "node/13611898112"}, "geometry": {"type": "Point", "coordinates": ["9.123028", "47.258667"]}}, {"type": "Feature", "properties": {"identifier": "bf2236a2-a398-4c87-bfc3-1f363a48b2e4", "name": "Grillplatz Summerigchopf", "description": "Die Grillstelle Summerigkopf befindet sich abseits von Wildhaus und ist nur zu Fuss \u00fcber den Wanderweg erreichbar. Der Platz verf\u00fcgt \u00fcber einen rechteckigen Rost, der in der H\u00f6he nicht verstellbar ist und drei Holzb\u00e4nke, die Platz f\u00fcr ca. 12-15 Personen bieten.\nKinderwagentauglich: nein, Holz: nein, Trinkwasser: nein, WC: nein, Kapazit\u00e4t: ca. 12-15", "image": "https://ttpimtsoch.sos-ch-dk-2.exoscale-cdn.com/catalog/3/1/0/3/3103e18f382a7177629d52ea9cb04f1b57ad5e3d_MZ_2023_Feuerstelle_Summrigweid_2.jpg", "openstreetmap_id": "node/4623777394"}, "geometry": {"type": "Point", "coordinates": ["9.4013705", "47.210958"]}}, {"type": "Feature", "properties": {"identifier": "c41cae1d-8361-475f-88b8-1370d810f1cc", "name": "Baumwipfelpfad Neckertal", "description": "<p>Der einzigartige Baumwipfelpfad Neckertal verbindet Nachhaltigkeit und Naturerlebnis und ist eine Bereicherung f&uuml;r das Neckertal und die Umgebung. Die sch&ouml;ne Natur- und Kulturlandschaft wurde erhalten und macht es m&ouml;glich, den Wald mit anderen Augen zu sehen. Erleben Sie das besondere Ausflugsziel in der Schweizer Natur und geniessen Sie bei uns Einblicke in die Baumkronen der auff&auml;lligen Art. Mit aussergew&ouml;hnlichen Perspektiven und spielerischem Lehrwert bietet der etwas andere Freizeitpark mit seinem dazugeh&ouml;rigen Walderlebnisweg ein Naturaufenthalt mit Tiefgang. Geniessen Sie die Stunden im Wald, offline und entschleunigt. Ganz gem&uuml;tlich zu zweit, mit Kindern auf dem Spielplatz, beim selber br&ouml;tl&auml; an der Grillstelle oder beim Glas Wein an der Sonne. Bei uns ist willkommen, wer gerne im Wald die Seele baumeln l&auml;sst. Unsere kleine Oase im Wald l&auml;dt dazu ein, etwas zu verweilen, dem Rauschen der Bl&auml;tter und dem Zwitschern der V&ouml;gel zu lauschen und Zeit mit Familie und Freunden zu verbringen.</p><p><br><span data-teams=\"true\">Auskunft zur Zug&auml;nglichkeit</span>:&nbsp;<a href=\"https://www.ginto.guide/entries/3099ce5e-667a-41f9-9f44-0904a3a4cbc5?lnk_src=business\">ginto</a></p>", "url": "http://www.baumwipfelpfad.ch", "image": "https://ttpimtsoch.sos-ch-dk-2.exoscale-cdn.com/catalog/6/1/2/3/61237838150ef8e91eb89e9233aaaeb709c28056_001_BWPf_20170930.jpg", "openstreetmap_id": "node/5422373661"}, "geometry": {"type": "Point", "coordinates": ["9.1437367", "47.3582246"]}}, {"type": "Feature", "properties": {"identifier": "c4e33cbb-d10b-4787-81aa-54f62e0ecf82", "name": "Naturkino Gampl\u00fct", "description": "<p>Hergestellt aus heimischem Holz ist dieses Naturkino Teil der Thur- und Neckerweg-Ruheoasen.<br><br>Statt auf eine Leinwand &ouml;ffnet sich der Blick in die Weite: die sieben Gipfel der Churfirsten beeindrucken auf der gegen&uuml;berliegenden Talseite. Licht und Wolken ver&auml;ndern das Bild mit jeder Minute. Ein Ort, um sich niederzulegen und die Natur wirken zu lassen.</p>", "url": "https://thurundneckerweg.ch", "image": "https://ttpimtsoch.sos-ch-dk-2.exoscale-cdn.com/catalog/5/e/9/a/5e9a22e4e1b40373704b010bd20475d68b69d066_IMG_1936.jpeg", "openstreetmap_id": "node/4560202100"}, "geometry": {"type": "Point", "coordinates": ["9.340444", "47.212861"]}}, {"type": "Feature", "properties": {"identifier": "c70786ec-d0b0-4a33-b7b3-fab2e082337e", "name": "Sitzbank Thurwis", "description": "<p>Dieses B&auml;nkli ist Teil der Ruheoasen entlang des Thur- und Neckerwegs, gefertigt aus heimischem Holz und bewusst reduziert gestaltet.<br><br>Es bietet einen einfachen, klar gestalteten Ort zum Sitzen, Verweilen und Innehalten. Der Blick richtet sich in die Landschaft &ndash; auf Wasser, Wiesen oder Berge, je nach Standort neu, stets mit Bedacht gew&auml;hlt.</p>", "url": "https://thurundneckerweg.ch", "image": "https://ttpimtsoch.sos-ch-dk-2.exoscale-cdn.com/catalog/2/3/8/5/2385a13ac88d9078b9b6d8cc43d134e134e0dde7_645ac23769edfa5b_threema_20250925_103606113.jpg", "openstreetmap_id": "node/13611921226"}, "geometry": {"type": "Point", "coordinates": ["9.334172", "47.226607"]}}, {"type": "Feature", "properties": {"identifier": "d1518820-02b9-4bae-816b-4bffc1a7a899", "name": "Alpsteinm\u00fchle", "description": "<p>Regionales Getreide dort verarbeiten, wo es w&auml;chst Mitten in Nesslau kn&uuml;pft die Alpsteinm&uuml;hle an eine lange Tradition des Getreideanbaus im Obertoggenburg an. In der ehemaligen B&uuml;rgerscheune ist mit viel freiwilligem Engagement eine moderne M&uuml;hle entstanden, in der regional angebautes Berggetreide sorgf&auml;ltig verarbeitet wird. Wer die Alpsteinm&uuml;hle besucht, kann ein St&uuml;ck dieser regionalen Wertsch&ouml;pfung direkt erleben. Im M&uuml;hlenl&auml;deli findest du verschiedene Mehle und Getreideprodukte aus der Region. Das Angebot richtet sich nach Ernte und Verf&uuml;gbarkeit, sodass es immer wieder etwas Neues zu entdecken gibt. Ein sch&ouml;ner Zwischenstopp f&uuml;r alle, die regionale Produkte aus dem Toggenburg sch&auml;tzen und gerne wissen m&ouml;chten, woher ihre Lebensmittel kommen. Noch tiefer in die Welt des Getreides geht es bei einer M&uuml;hlenf&uuml;hrung f&uuml;r Gruppen. Dabei erh&auml;ltst du Einblick in die M&uuml;hlenanlage und erf&auml;hrst, wie aus dem Korn fertiges Mehl wird, welche Bedeutung der Getreideanbau f&uuml;r die Region hat und wie traditionelle Verarbeitung und moderne Technik zusammenspielen. Die F&uuml;hrungen eignen sich f&uuml;r Vereine, Firmen und private Gruppen und k&ouml;nnen auf Wunsch mit einem Ap&eacute;ro erg&auml;nzt werden.</p><p><strong>M&uuml;hlenl&auml;deli:</strong> Dienstag und Freitag, 9.00 bis 11.30 Uhr</p><p><strong>Gruppenf&uuml;hrungen: </strong>Montag bis Samstag nach Vereinbarung Ein Besuch in der Alpsteinm&uuml;hle verbindet regionalen Genuss, traditionelles Handwerk und ein St&uuml;ck Toggenburger Geschichte.</p>", "url": "https://alpsteinmuehle.ch", "image": "https://ttpimtsoch.sos-ch-dk-2.exoscale-cdn.com/catalog/b/3/f/f/b3ff554f31d8c0a013478fc28441a99cf21f3904_A7401752_LQ.jpg", "openstreetmap_id": "relation/1683911"}, "geometry": {"type": "Point", "coordinates": ["9.2240492", "47.2282045"]}}, {"type": "Feature", "properties": {"identifier": "d34b2f2c-4698-40ce-a2fd-db320ee862e1", "name": "Degusch\u00fc\u00fcr Ganterschwil", "description": "Die ideale Umgebung f\u00fcr Ihren Familienanlass, Geburtstag, Konfirmation, Taufe, Hochzeit sowie f\u00fcr Ihren n\u00e4chsten Firmenanlass oder Klassentreffen. \n\nDie \u00abDegu-Sch\u00fc\u00fcr\u00bb ist mit technischen Einrichtungen (WLAN / Beamer) ausgestattet und kann bis 80 Personen aufnehmen.", "url": "https://www.berghof-ag.ch/", "image": "https://ttpimtsoch.sos-ch-dk-2.exoscale-cdn.com/catalog/7/9/2/0/7920abf1572e3b4babab8a7137c5ea136968d0be_schuer_aussen_1000.jpg", "openstreetmap_id": "node/4241108508"}, "geometry": {"type": "Point", "coordinates": ["9.092259407043459", "47.36621103383134"]}}, {"type": "Feature", "properties": {"identifier": "d947383e-104c-49e2-9e2b-3c48fa7a430b", "name": "Turnger\u00e4te Museum", "description": "Besucher und Besucherinnen finden in der Ausstellung Turnger\u00e4te, welche sofort Erinnerungen und Emotionen wecken. Neben diesen Ger\u00e4ten k\u00f6nnen auch Unikate bestaunt werden, wie das vermutlich \u00e4lteste noch existierende Pauschenpferd mit Kopf und Schwanz. B\u00fccher, Fotos und Filme zeigen als Zeitzeugen das Turnen von damals.\n\nWir beleuchten die \u00fcber 300-j\u00e4hrige Geschichte des Turnwesens: von den \u00dcbungen in den Ritterakademien, dem Turnen als vaterl\u00e4ndische Pflicht, bis zu Sport, Spiel und Spass! \nNeu auch mit Audioguide, Themenparcours und verschiedenen R\u00e4tseln.\n\n\nEintritt: \nCHF 5.-/Person\nKinder und Jugendliche bis 16 Jahre gratis\nFu\u0308hrungen fu\u0308r Gruppen: CHF 10.-/Person, mindestens CHF 80.-/Gruppe \n\n", "url": "https://turngeraetemuseum.ch/", "image": "https://ttpimtsoch.sos-ch-dk-2.exoscale-cdn.com/catalog/0/b/3/1/0b31ae9b51188c8fa4187552f82fd03d5635e4ab_2022___TT___Turnger__te_Museum_4.jpg", "openstreetmap_id": "way/282363012"}, "geometry": {"type": "Point", "coordinates": ["9.115742400845049", "47.265513299999995"]}}, {"type": "Feature", "properties": {"identifier": "dc870fd2-eb85-41f0-a6c9-c69ae78a8a94", "name": "Puppentheater-Wildhaus", "description": "Puppentheater Wildhaus \u2013 ein kleines Wunder im Toggenburg\n\nIm Herzen von Wildhaus verbirgt sich ein besonderer Ort der Fantasie: das Puppentheater Wildhaus.\nHier erz\u00e4hlen kunstvoll gef\u00fchrte Marionetten Geschichten voller Herz, Humor und Magie \u2013 f\u00fcr Kinder und Erwachsene gleichermassen.\n\nSeit 1978 begeistert das engagierte Team mit liebevoll inszenierten Auff\u00fchrungen, handgefertigten Figuren und einer unverwechselbaren Atmosph\u00e4re.\nAm Mittwoch-Nachmittag geh\u00f6rt die B\u00fchne den kleinen G\u00e4sten, am Mittwoch-Abend entf\u00fchrt das Ensemble Erwachsene in poetische und humorvolle Theaterwelten.\n\nEin Besuch im Puppentheater Wildhaus ist mehr als Unterhaltung \u2013 es ist ein St\u00fcck gelebte Kultur im Toggenburg, das Gross und Klein verzaubert.\n\n\ud83d\udc49 Tipp: Ideal f\u00fcr Familien, Gruppen und Kulturfreunde \u2013 ein unvergessliches Erlebnis f\u00fcr Ihren Aufenthalt in Wildhaus.", "url": "https://www.puppentheater-wildhaus.ch/", "image": "https://ttpimtsoch.sos-ch-dk-2.exoscale-cdn.com/catalog/2/6/0/3/2603bfa261eab73b90260d73f0415afa17b8fe97_Zuschauer.jpg", "openstreetmap_id": "node/1483750632"}, "geometry": {"type": "Point", "coordinates": ["9.34543", "47.20138"]}}, {"type": "Feature", "properties": {"identifier": "e3a0bafc-657d-4335-968a-a7b43857768d", "name": "Klangwelt Toggenburg", "description": "Wir bieten einzigartige Erlebnisse in Klangkursen, auf dem Klangweg, bei Festivals und Konzerten, in der Klangschmiede und im Klanghaus am Schwendisee. Die qualitativ hochstehenden Angebote richten sich an Laien, Hobby-Musikanten, Berufsmusiker, Geniesser, Familien oder an Personen, die sich eine neue Klangwelt er\u00f6ffnen m\u00f6chten.\n\nDer Klangweg\nKlangwandern Sie auf dem einzigartigen Erlebnisweg!\n\u00dcber 25 Klanginstallationen freuen sich entdeckt und bespielt zu werden.  Lassen Sie beim \u00abR\u00f6hrophon\u00bb mit Flipflops eine Melodie ert\u00f6nen, erleben Sie verschiedene Schellen- und Glockent\u00f6ne bei der \u00abGlockenb\u00fchne\u00bb oder bringen Sie Wasser durch Reibung zum Springen beim \u00abH\u00fcpfwasser\u00bb. Die vielen Klanginstallationen bieten Spass f\u00fcr Gross und Klein. Der Klangweg erstreckt sich \u00fcber mehrere Etappen von der Alp Sellamatt \u00fcber Iltios bis ins Oberdorf und ist bequem mit den Bergbahnen erreichbar. Das perfekte Familienerlebnis wird von vielz\u00e4hligen Grillstellen, Bergrestaurants, Spielpl\u00e4tzen und der unvergleichlich authentischen Bergidylle des Toggenburgs garantiert.\n\nDie Klangschmiede\nIn der 2011 er\u00f6ffneten Werkstatt und Gesch\u00e4ftsstelle der Klangwelt Toggenburg wird das Kunsthandwerk des Schmiedens von Schellen und anderen Klangk\u00f6rpern gezeigt und vermittelt. Die Klangschmiede ist ein interaktives Erlebnishaus mit verschiedenen Themenr\u00e4umen.\n\nTauchen Sie ein in die Themen Weltall, Fauna und Flora, Naturtonmusik und Brauchtum. Und erfahren Sie mehr \u00fcber Klangph\u00e4nomene oder Heilung durch Klang. Ausprobieren und Experimentieren ist ausdr\u00fccklich erw\u00fcnscht.\n\nKlangkurse\nTauchen Sie ein in die Kl\u00e4nge der Tradition, ins Heim- und Fernweh, in eine atemberaubende Lautsph\u00e4re zwischen den Churfirsten und dem Alpstein. Bekannte Musikpers\u00f6nlichkeiten und hochkar\u00e4tige Kursleitende bieten ein breites Angebot an Wissensvermittlung und Kulturerlebnis f\u00fcr neugierige Laien und anspruchsvolle Musiker.\n\nDas Klangfestival\nSeit 2004 treffen sich alle zwei Jahre Stimmen aus aller Welt am Klangfestival Toggenburg. Dann jeweils wird die Propstei in Alt St. Johann zum Epizentrum des Naturklangs. Hier, im Tal gelebter Tradition, treffen Musikerinnen und Musiker, S\u00e4ngerinnen und S\u00e4nger aus nah und fern aufeinander.\n\nAn weiteren Konzerten \u00fcber das Jahr verteilt haben verschiedenste K\u00fcnstlerinnen und K\u00fcnstler die M\u00f6glichkeit, im Toggenburg aufzutreten.\n\nDas Klanghaus\nDas Klanghaus wird ab Mai 2025 der wichtigste Ort der Klangwelt Toggenburg werden: ein einmaliger Anziehungspunkt inmitten der Natur f\u00fcr Proben, Aufnahmen, Kurse, f\u00fcr Forschung und Experiment, mit einer exzellenten Akustik und professionellen Aufnahmem\u00f6glichkeiten.", "url": "http://www.klangwelt.ch", "image": "https://ttpimtsoch.sos-ch-dk-2.exoscale-cdn.com/catalog/7/e/0/0/7e007517f164f273de9b657d6b4f0d1b611e6a98_Klanghaus_Cover_1024_online.jpg", "openstreetmap_id": "node/9926283273"}, "geometry": {"type": "Point", "coordinates": ["9.27900552749634", "47.19344167004296"]}}, {"type": "Feature", "properties": {"identifier": "e41bb8b9-a378-4806-8098-1c335f67a7cb", "name": "Kutschenfahrten M\u00fcller", "description": "Willkommen bei M\u00fcllers Kutschenfahrten.\n\nErleben Sie die Sch\u00f6nheit von Wattwil, Ebnat-Kappel und Krummenau in exklusiver Atmosph\u00e4re. Wir bieten Kutschenfahrten f\u00fcr Gruppen jeder Gr\u00f6sse an. Rufen Sie uns an, wir beraten Sie gerne.", "image": "https://ttpimtsoch.sos-ch-dk-2.exoscale-cdn.com/catalog/c/d/b/6/cdb65904949f63754258279b018b7c6dbaa1076f_IMG_0188.JPG", "openstreetmap_id": "way/281751560"}, "geometry": {"type": "Point", "coordinates": ["9.112739800000003", "47.271621499999995"]}}, {"type": "Feature", "properties": {"identifier": "e7e1cbf6-cfea-4409-8b44-caa572fc53ae", "name": "Klangspur powered by Foxtrail", "description": "<p>L&ouml;sen Sie knifflige und abwechslungsreiche R&auml;tsel auf der Klangspur durch Alt St. Johann. Beim rund einst&uuml;ndigen Abenteuer r&auml;tseln, knobeln und kombinieren Sie im Team und erleben &Uuml;berraschendes und Unerwartetes. Eine Schnitzeljagd, die Sie in bester Erinnerung behalten werden. Bitte buchen Sie einige Tage im Voraus online den Termin. Kurzfristige Buchungen k&ouml;nnen nicht garantiert werden und m&uuml;ssen telefonisch angefragt werden. Der Start ist in der Klangschmiede Alt St. Johann, Parkpl&auml;tze hinter der Raiffeisenbank (ca. 10 Minuten Fussweg).</p><p>&nbsp;</p><p>Auskunft zur Zug&auml;nglichkeit: <a href=\"https://www.ginto.guide/entries/b9e22bf0-8888-4917-9da4-ef803b686604?lnk_src=business\" target=\"_blank\" rel=\"noopener\">ginto</a></p>", "url": "https://klangwelt.ch/angebote/gruppenangebote/klangspur-powered-by-foxtrail", "image": "https://ttpimtsoch.sos-ch-dk-2.exoscale-cdn.com/catalog/a/0/c/c/a0cc4df6c7a9291468013774cf534f023e03b6ed_Klangspur_Foxtrail_2_Gruppenangebot_Klangwelt_Toggenburg.jpg", "openstreetmap_id": "node/1083115186"}, "geometry": {"type": "Point", "coordinates": ["9.27897870540619", "47.193419883716835"]}}, {"type": "Feature", "properties": {"identifier": "e80cbd4d-5e42-49d7-ad9f-ac2041630448", "name": "Grillplatz Ijental, Nesslau", "description": "Die Feuerstelle nach Schweizer-Familie-Standard ist eine von schweizweit \u00fcber 500, die sich bestens f\u00fcr die Wanderverpflegung aus dem Rucksack oder f\u00fcr einen Tagesausflug eignet. Sie ist mit zwei Grillrosten, verf\u00fcgbarem Brennholz und Sitzgelegenheiten gut eingerichtet. Sie l\u00e4sst sich in gut einer Stunde ab Bergstation Rietbach auf der Wolzenalp erreichen und befindet sich am Klimaerlebnisweg Toggenburg. Idyllisch bettet sie sich in die Moorlandschaft ein, lauschig an einem kleinen See gelegen.\n\nKinderwagentauglich: ja (von Nesslau via Schneit), Holz: ja, Trinkwasser: nein, WC: ja, Kapazit\u00e4t: ca. 20\n", "image": "https://ttpimtsoch.sos-ch-dk-2.exoscale-cdn.com/catalog/a/a/e/5/aae5e3cb1af8d0b32a63c676bb61822c55e35bb4_DJI_0007.JPG", "openstreetmap_id": "node/3912935087"}, "geometry": {"type": "Point", "coordinates": ["9.16873", "47.20912"]}}, {"type": "Feature", "properties": {"identifier": "e8e07bcd-fd33-4808-b13d-5b1112670214", "name": "Mehrzweckgeb\u00e4ude Chuchitobel", "image": "https://ttpimtsoch.sos-ch-dk-2.exoscale-cdn.com/catalog/4/4/6/f/446fe689e707b3b7fcdb80e3bfeafc34dbbcacee_DSC00032.JPG", "openstreetmap_id": "223856667"}, "geometry": {"type": "Point", "coordinates": ["9.351854324340822", "47.204718948207436"]}}, {"type": "Feature", "properties": {"identifier": "ee5345f5-49eb-4638-96af-96b459ae6037", "name": "The Turbine Hums \u2013 Mirre Yayla S\u00e9ur", "description": "<p>Beim Kraftwerk Krummenau macht Mirre Yayla S&eacute;ur das Zusammenspiel von Energie, Zeit und Ver&auml;nderung erlebbar: Uranglas-Skulpturen fangen Licht ein und reagieren auf UV-Strahlen, w&auml;hrend subtil erg&auml;nzte Lichtinterventionen die Struktur des Kraftwerks, die Felsen und das Wasser in ein neues Licht r&uuml;cken &ndash; ein stiller Dialog zwischen Natur und Technik.</p>", "url": "https://thurundneckerweg.ch", "image": "https://ttpimtsoch.sos-ch-dk-2.exoscale-cdn.com/catalog/e/3/5/6/e356e1b677db9375652e775ae83ded9424c1270d_HST_3153.jpg", "openstreetmap_id": "node/13615006611"}, "geometry": {"type": "Point", "coordinates": ["9.164778", "47.249250"]}}, {"type": "Feature", "properties": {"identifier": "f0dc78df-b70a-4a58-9049-bece1ed96897", "name": "Grillplatz Stropfgarten", "description": "Auf dem letzten Drittel vom Chnobelweg B\u00e4chli ist der Platz mitten im Wald und gut gesch\u00fctzt vor der Sonne zu finden.\n\nEin grosser Tisch mit zwei B\u00e4nken, eine grosse Grillstelle mit Rost und Holz stehen zur Verf\u00fcgung. \n\nEine perfekter Ort um sich zu st\u00e4rken, damit die letzten R\u00e4tsel mit \"Chnobeln\" schnell gel\u00f6st sind. ", "url": "https://hemberg-tourismus.ch/", "image": "https://ttpimtsoch.sos-ch-dk-2.exoscale-cdn.com/catalog/0/0/d/2/00d26e1634f5ef21456520325225c7db2f3745d6_Grill_Stropfgarten_Knobelweg2.jpg", "openstreetmap_id": "node/1882913441"}, "geometry": {"type": "Point", "coordinates": ["9.203084", "47.313843"]}}, {"type": "Feature", "properties": {"identifier": "f56f2ac6-bf2e-4d02-83a3-810fc3d576e6", "name": "Klanghaus Toggenburg", "description": "<p>Die R&auml;ume des Klanghauses sind wie ein Instrument gebaut und bieten den Besuchenden die M&ouml;glichkeit, den Klang und seine Resonanzen auf besondere Weise zu erleben. Zwei Aussenb&uuml;hnen laden zu Konzerten und Musikexperimenten unter freiem Himmel am Schwendisee ein. Mit seiner einzigartigen Akustik wird das Klanghaus sowohl Besucherinnen und Besucher als auch Musizierende aus nah und fern begeistern und als Ort f&uuml;r Konzerte, Kurse, Proben, Workshops.</p><p><br><strong>&Ouml;ffnungszeiten&nbsp;</strong><br>Die &Ouml;ffnungszeiten des Klanghauses richten sich nach dem Programm und den verschiedenen Veranstaltungen.</p><p><strong>Das Klanghaus erleben</strong><br>Das Klanghaus ist im Rahmen von F&uuml;hrungen, Konzerten und Kursen zug&auml;nglich. Der Besuch im Innenbereich ist in der Regel an eine Teilnahme an diesen Angeboten gebunden. F&uuml;hrungen &ndash; das zentrale Erlebnis Das Klanghaus aus n&auml;chster N&auml;he entdecken</p><p>&bull; &Ouml;ffentliche F&uuml;hrungen finden jeweils am Sonntagnachmittag statt <br>&bull; Begrenzte Teilnehmendenzahl (25 Personen) f&uuml;r ein intensives Erlebnis <br>&bull; Voranmeldung empfohlen, da die Pl&auml;tze schnell ausgebucht sind</p><p><strong>Spontan vorbeischauen</strong> <br>Auch ohne F&uuml;hrung lohnt sich ein Besuch: Das Klanghaus ist wundersch&ouml;n in die Landschaft eingebettet und kann von aussen frei besichtigt werden &ndash; ideal f&uuml;r einen Spaziergang.</p>", "url": "https://klangwelt.ch", "image": "https://ttpimtsoch.sos-ch-dk-2.exoscale-cdn.com/catalog/d/1/3/e/d13e6df42c4dea304b35f7c9d2730553aa7552e6_KWT_Klanghaus_Cover_1024_small.jpg", "openstreetmap_id": "way/1068618149"}, "geometry": {"type": "Point", "coordinates": ["9.3353568", "47.1956423"]}}, {"type": "Feature", "properties": {"identifier": "faa680df-0fea-4c3d-a965-2282b75176bf", "name": "Kalberhalle Lichtensteig", "description": "Bereits 1469 hatte Abt Ulrich R\u00f6sch an der Stelle des heutigen Rathauses ein Kornhaus errichtet. 200 Jahre sp\u00e4ter wurde dieses abgebrochen. Auf dem gleichen Areal - am Abschluss der oberen Hauptgasse - entstand 1682 bis 1692 die Landvogtei, wobei die Parterrer\u00e4ume auch weiterhin dem Kornmarkt dienten. 1810 wurde die Landvogtei katholisches Pfarr- und Schulhaus. Nach dem Bau der neuen parit\u00e4tischen Kirche 1868 und dem darauf erfolgen Domizilwechsel des Pfarrers verlegte die Stadtverwaltung ihren Sitz vom \"Alten Rathaus\" an der Hintergasse hierher. Mit dem Verkauf an die politische Gemeinde 1868 und der Funktions\u00e4nderung fanden wiederum entscheidende Umgestaltungen statt. So hatte u.a. der Kornmarkt dem K\u00e4lbermarkt Platz zu machen, und im ersten Stock entstand eine Wirtschaft. 1952 kam es erneut zu einer Renovation. Dabei wurde der auf der westlichen Seite des Rathauses gelegene \"Freihof\", eines der \u00e4ltesten H\u00e4user Lichtensteigs, abgebrochen und eine neue Markthalle erstellt. Bei dieser Gelegenheit wurde auf der Nordseite die steinerne Freitreppe erbaut, die seither in das 1. Obergeschoss f\u00fchrt. \n\n2017 wurde die Kalberhalle einer umfassenden Sanierung unterzogen, so dass sie heute als attraktiver Veranstaltungsort mit besonderem Charme angeboten werden kann.", "url": "https://www.kalberhalle.ch/", "image": "https://ttpimtsoch.sos-ch-dk-2.exoscale-cdn.com/catalog/8/7/b/e/87be84cc0a849e32f3b0ad189b4a8a58afd72f47_aussenansicht.jpg", "openstreetmap_id": "way/518295674"}, "geometry": {"type": "Point", "coordinates": ["9.087125658988954", "47.32346100957683"]}}]}