{"type": "FeatureCollection", "features": [{"type": "Feature", "properties": {"identifier": "5be53563-33a4-49cf-96e5-932fd938386b", "name": "Macherzentrum Toggenburg", "description": "Die Infrastruktur besteht aus einzelnen Arbeitspl\u00e4tzen, die Coworker*innen nach ihren Bed\u00fcrfnissen buchen und nutzen. Die Arbeitspl\u00e4tze werden durch zwei Besprechungsr\u00e4ume, einer Begegnungszone (Event) und der offen verbundenen Kaffee-K\u00fcche erg\u00e4nzt. Diese nutzen sowohl Coworker*innen als auch aussenstehende Firmen, Organisationen und Vereine f\u00fcr interne Anl\u00e4sse wie Sitzungen oder Workshops, aber auch f\u00fcr Treffen und Pr\u00e4sentationen mit ihren Kundinnen und Kunden. \n", "url": "https://www.macherzentrum.ch", "image": "https://ttpimtsoch.sos-ch-dk-2.exoscale-cdn.com/catalog/3/1/1/e/311e52d7fbd00a1c6683dbc349e2895df3e25739_macherzentrum_toggenburg_lichtensteig_coworking_space_8.jpg", "openstreetmap_id": "node/7686614116"}, "geometry": {"type": "Point", "coordinates": ["9.0878669", "47.3240811"]}}, {"type": "Feature", "properties": {"identifier": "912219d6-de6e-4d31-a017-26e9d5898dfa", "name": "Keramik - Malatelier CreaBa", "description": "<div>Beim Keramikmalen gestaltest du ganz pers&ouml;nliche Lieblingsst&uuml;cke &ndash; ob Tasse, Teller, Schale oder Vase. Du suchst dir einfach ein Rohkeramikst&uuml;ck aus und bemalst es mit speziellen Farben nach Lust und Laune. Muster, Schriftz&uuml;ge, Motive &ndash; alles ist erlaubt! Keine Sorge: Du brauchst keine Vorkenntnisse. Wir zeigen dir Schritt f&uuml;r Schritt, wie&rsquo;s geht, und stehen dir mit Tipps und Ideen zur Seite. Nach dem Malen wird dein Kunstwerk glasiert und im Brennofen gebrannt &ndash; wenige Tage sp&auml;ter kannst du es abholen oder dir zuschicken lassen. Ob als Geschenk, Erinnerungsst&uuml;ck oder einfach f&uuml;r dich selbst: Keramikmalen ist entspannend, kreativ &ndash; und macht richtig Spass! Der Preis ist abh&auml;ngig vom gew&auml;hlten Gegenstand (ab 15&ndash;65 CHF); dabei sind Ateliernutzung, Material, Farben, Glasieren und Brennen inklusive. F&uuml;r weitere kreative Angebote (Teamanlass, Geburtstag oder Firmenanlass) besuche unsere Homepage: www.creaBa.ch</div>", "url": "https://creaba.ch", "image": "https://ttpimtsoch.sos-ch-dk-2.exoscale-cdn.com/catalog/8/e/7/d/8e7db416c595084fea068664b5770a2138809f6a_IMG_8639__2.jpeg", "openstreetmap_id": "node/5300707212"}, "geometry": {"type": "Point", "coordinates": ["9.0390653", "47.4089413"]}}, {"type": "Feature", "properties": {"identifier": "c97bfd53-1f1b-41ba-bc47-06e693af1fdc", "name": "Kreativ Egg\u00e4 Unterwasser", "description": "<div><p>Die <strong>Kreativ Egg&auml; Unterwasser</strong> ist die erste Self-Service-Bastel-Lounge f&uuml;r Familien im Toggenburg. Ohne Anmeldung und wetterunabh&auml;ngig gestalten Kinder hier ihr eigenes Werk und nehmen es direkt mit nach Hause.</p><p>Dank der zentralen Lage in Unterwasser eignet sich die Kreativ Egg&auml; ideal als Zwischenstopp vor oder nach Ausfl&uuml;gen auf den S&auml;ntis, zur Alp Sellamatt, auf den Klangweg oder zu den zahlreichen Wanderungen in der Region.</p><p>W&auml;hrend die Kinder kreativ sind, k&ouml;nnen sich Eltern bei einem Kaffee und mit Blick auf die Churfirsten entspannen. Erg&auml;nzt wird das Angebot durch eine H&ouml;rbuchecke mit Toggenburger Sagen, eine Spielecke sowie regionale Souvenirs und Geschenkideen.</p><p>Die Kreativ Egg&auml; schliesst eine L&uuml;cke im familienfreundlichen Schlechtwetterangebot der Region und bietet eine unkomplizierte Indoor-Aktivit&auml;t f&uuml;r Einheimische und G&auml;ste.</p></div>", "url": "https://kreativ-egge.ch/", "image": "https://ttpimtsoch.sos-ch-dk-2.exoscale-cdn.com/catalog/9/0/5/0/905044fed344983d50f9f1717710dbaf6d13d50c_IMG_5019_2_Kopie.jpg", "openstreetmap_id": "node/12098549382"}, "geometry": {"type": "Point", "coordinates": ["9.309955537319185", "47.197050214327966"]}}]}