{"type": "FeatureCollection", "features": [{"type": "Feature", "properties": {"identifier": "0b871e64-ea28-4ed3-950d-752a56ed1d38", "name": "Architektur-F\u00fchrungen durch das Klanghaus & Resonanzzentrum Peter Roth", "description": "<p>Die F&uuml;hrung beginnt im Resonanzzentrum Peter Roth, einem Bauwerk, das mit klaren Formen, offener Holzkonstruktion und pr&auml;zise geplanten R&auml;umen die Verbindung von Architektur und Raumresonanz eindr&uuml;cklich sichtbar macht. Anschliessend betreten wir das Klanghaus, ein begehbares Instrument, dessen architektonische Gestaltung und strukturelle Details &ndash; inklusive individuell einstellbarer Klanginstallationen in den Doppelw&auml;nden &ndash; Raum, Proportion und Material in ein einzigartiges Erlebnis von Volumen und Atmosph&auml;re verwandeln. - Einf&uuml;hrung in die architektonische Vision der beiden H&auml;user - Erkundung des Resonanzzentrums &ndash; Raum, Resonanz und Architektur - Wechsel zum Klanghaus &ndash; ein begehbares Instrument - Besondere architektonische Details und deren Wirkung erleben.</p>", "url": "https://klangwelt.ch", "image": "https://ttpimtsoch.sos-ch-dk-2.exoscale-cdn.com/catalog/b/1/c/7/b1c7d90169cad08e44bfd70ab0a2f1c88c9fee94_sh_klanghaus_25_87920_web__4.jpg"}, "geometry": {"type": "Point", "coordinates": ["9.32976370061891", "47.19040528975832"]}}, {"type": "Feature", "properties": {"identifier": "1b854f64-ef00-4655-9651-2bb7b442775d", "name": "Line Dance Kurs f\u00fcr Ferieng\u00e4ste", "description": "Mit viel Freude lernen wir einfache T\u00e4nze, welche Sie dann auch zu Hause beim n\u00e4chsten Line Dance Event anwenden k\u00f6nnen. Einfach in die Linie stehen, mitmachen und dazu geh\u00f6ren.\nInkludierte Leistungen: Line Dance Instruktionen Infos zu Dancesheets und Musik\n\nTeilnehmer: 5 bis 20 Personen\nAnmeldung erforderlich (bis zwei Tage vorher) unter: www.crazy-chicken-toggenburg.ch\n\nErwachsene: CHF 20.00  \nKinder: CHF 7.00\nGruppenpreis f\u00fcr 10 Personen: CHF 180.00\nGruppenpreis f\u00fcr 20 Personen: CHF 350.00\n\n\nWichtig: Termin nach Vereinbarung, Kinder nur in Begleitung von Erwachsenen, Barzahlung vor Kursbeginn, Getr\u00e4nke sind am B\u00fcffet des Austragungsortes zu beziehen. Mitgebrachte Getr\u00e4nke sind nicht erlaubt.\nBitte bequeme Schuhe (mit Ledersohlen) und geeignete Kleidung tragen.", "url": "http://www.crazy-chicken-toggenburg.ch", "image": "https://ttpimtsoch.sos-ch-dk-2.exoscale-cdn.com/catalog/f/4/d/7/f4d7ece8e352402430f2f8bb36b2d62e7860ae97_IMG_2695.jpg", "openstreetmap_id": "way/222237307"}, "geometry": {"type": "Point", "coordinates": ["9.3111429", "47.19712425"]}}, {"type": "Feature", "properties": {"identifier": "2451788a-dcf7-450f-8f01-a75c90ff8636", "name": "Klangvolle Gruppenerlebnisse", "description": "Erlebt die alte Handwerkskunst des Schmiedens und schmiedet eure eigenen Klangschalen, Grillspiesse oder Fonduegabeln. Oder erlebt eine F\u00fchrung durch die Klangschmiede bei der ihr Spannendes \u00fcber die Entstehung von Klang und Resonanz erfahrt. Auch ein Einblick in die Alp- und Klangkultur der Churfirstenregion ist m\u00f6glich bei einem einst\u00fcndigen Naturjodel-Schnupperkurs. Und wenn ihr lieber musiziert statt singt, dann ist vielleicht eine Stubete das Richtige f\u00fcr euch.\n\nKombinationen von einzelnen Angeboten sind ebenfalls m\u00f6glich. Auch Erlebnisse mit Partnern wie dem Baumwipfelpfad Mogelsberg, der Ch\u00e4\u00e4sWelt Toggenburg oder Huskystuff bieten wir an. \n\nGerne beraten wir Sie ausf\u00fchrlich und begleiten auf dem Weg zu erinnerungsw\u00fcrdigen Momenten im Toggenburg.", "url": "https://klangwelt.ch/angebote/gruppenangebote", "image": "https://ttpimtsoch.sos-ch-dk-2.exoscale-cdn.com/catalog/9/7/f/8/97f8c6af618bea76d600400b31306d3187647448_Voralpenexpress_CF790954.jpg", "openstreetmap_id": "node/1083115186"}, "geometry": {"type": "Point", "coordinates": ["9.27897870540619", "47.193419883716835"]}}, {"type": "Feature", "properties": {"identifier": "2602b59f-1a90-4a2b-a11a-1667269c44e1", "name": "Lars Lusti - Bergf\u00fchrer Aspirant ", "description": "Ob Sommer oder Winter, Selun S\u00fcdwand oder Pulverschneeabfahrt vom S\u00e4ntis. \nAm wohlsten f\u00fchle ich mich an einsamen Felsw\u00e4nden, in unverspurtem Pulverschnee und auf sonnigen Gipfeln, zusammen mit meinen G\u00e4sten. \nIch biete auch \u00fcber das ganze Jahr hinweg Kurse in Lawinenkunde, Skitechnik, Klettern oder Hochtouren an.  \n\nEgal ob zuhause im Toggenburg oder auf den hohen Bergen der Alpen, bei mir stehts du und das Tun im Moment im Mittelpunkt! Gerne begleite ich dich professionell und sicher auf dem Weg zu deinem ganz pers\u00f6nlichem Bergerlebnis.\n\nWenn auch du die Berge Kletternd oder im frischen Schnee erleben m\u00f6chtest, melde dich gerne bei mir.", "image": "https://ttpimtsoch.sos-ch-dk-2.exoscale-cdn.com/catalog/8/3/5/e/835ee9efc51c6b51a0ffd7e4fbfe82a8fa79f214_IMG_2379.jpg", "openstreetmap_id": "node/11229028401"}, "geometry": {"type": "Point", "coordinates": ["9.282674789428713", "47.19778920665066"]}}, {"type": "Feature", "properties": {"identifier": "2db36e8d-5be7-456d-b19e-610133108900", "name": "Betriebsbesichtigung Morga AG", "description": "<p>Im Fabrikladen der Morga in Ebnat-Kappel liegt Ihnen die Welt der gesunden Ern&auml;hrung zu F&uuml;ssen. Begeben Sie sich auf die kulinarische Weltreise, lassen Sie sich inspirieren und beraten. #superfood #powerfood #toggifood <br>Dauer: ca. 90 - 120 Minuten. Durchf&uuml;hrung findet zwischen 09.00 - 12.00 Uhr oder 13.30 - 18.00 Uhr ab mindestens 5 bis maximal 30 Personen statt. <br>Die genaue Zeit f&uuml;r die Durchf&uuml;hrung wird zwischen den Teilnehmern und dem Anbieter vereinbart. <br>Wichtig: Ihre Buchung ist erst definitiv, wenn diese von der Morga best&auml;tigt ist. <br>Die Betriebsbesichtigung kostet pauschal CHF 200.00 (nur direkt buchbar bei der Morga). Ab 20 Personen kostet jede weitere Person CHF 10.00. <br>Treffpunkt: Morga AG, Kappelerstrasse 60, 9642 Ebnat-Kappel</p>", "url": "http://www.morga.ch", "image": "https://ttpimtsoch.sos-ch-dk-2.exoscale-cdn.com/catalog/5/1/5/4/5154476ac69c44cba264072b64307344fa4079db_Bild_Morga_AG.jpg", "openstreetmap_id": "node/281751580"}, "geometry": {"type": "Point", "coordinates": ["9.11596", "47.26966"]}}, {"type": "Feature", "properties": {"identifier": "35490672-472e-4c13-bde6-afc9b62d0218", "name": "barbarakraut - Barbara Aebli", "description": "Unz\u00e4hlige Pflanzen begleiten uns t\u00e4glich auf unseren Wegen beim Arbeiten und in der Freizeit.  Ihre Kr\u00e4fte als Nahrungs- oder Heilmittel sch\u00e4tze ich immer wieder neu und ich sp\u00fcre die Energie, die sie mir geben. Ich ernte die Wildpflanzen und Kr\u00e4uter nur an unged\u00fcngten Pl\u00e4tzen. Die meisten Pflanzen kommen zu uns, wachsen vor unserer Haust\u00fcr, weil wir sie brauchen. F\u00fcr die Verarbeitung verwende ich frische oder fachgerecht getrocknete Kr\u00e4uter. Zusammen mit qualitativ hochwertigen Zutaten entstehen schmackhafte Erzeugnisse f\u00fcr die K\u00fcche und den Genuss oder nat\u00fcrliche Pflegeprodukte f\u00fcr den ganzen K\u00f6rper.\n\nDer Walnussbaum, unsere gr\u00f6sste Heilpflanze im Garten, spendet im Sommer wohltuenden Schatten und im Herbst eine Menge Waln\u00fcsse, die ich zu verschiedenen Produkten verarbeite und die \u00fcber meine Webseite bestellt werden k\u00f6nnen. \n \nSeit September 2013 biete ich in unserem Zuhause - im alten Schulhaus in Ebersol - verschiedene Kurse zum Thema Kr\u00e4uter an.\n\nErleben Sie den die Welt der Kr\u00e4uter in einem Rundgang durch meinen Garten oder in Feld und Flur. Geniessen Sie anschliessend einen kreativen Kr\u00e4uterap\u00e9ro. Oder lassen Sie sich an einem Abend im gem\u00fctlichen Schulzimmer von meiner Kr\u00e4uterk\u00fcche mit einem 5-Gang Men\u00fc verw\u00f6hnen und lauschen zwischen den G\u00e4ngen den Zauberklangfolgen vom bekannten Toggenburger Musiker und Komponisten, Peter Roth. Gemeinsam erz\u00e4hlen wir Ihnen \u00fcber die Verbindung von Pflanzen und Klang. \n\nTauchen Sie ein in meine Welt der Kr\u00e4uter. Ich freue mich \u00fcber Ihre Kontaktaufnahme.", "url": "https://www.barbarakraut.ch", "image": "https://ttpimtsoch.sos-ch-dk-2.exoscale-cdn.com/catalog/c/8/8/d/c88d26a3be9306138a1b2164ab2cbd4be600f812_Bild1.jpg", "openstreetmap_id": "way/177912289"}, "geometry": {"type": "Point", "coordinates": ["9.152184883402377", "47.349754149999995"]}}, {"type": "Feature", "properties": {"identifier": "38ab0c41-cc9f-41ab-a474-0f1a6a942114", "name": "Wanderleiter-Martin - Wanderleiter mit eidg. FA", "description": "Schneeschuhwandern im Toggenburg entschleunigt.\nAbseits vom Trubel der Wintersportgebiete ziehen wir unsere Schneeschuhspur \u00fcber verschneite Alpweiden durch die Bergwelt. \n\nUnsere Tages- und Abend-Schneeschuhtouren sowie Schneeschuhwochenenden sind auch f\u00fcr Einsteiger*innen geeignet. Feste Durchf\u00fchrungsdaten f\u00fcr Individualreisende gem\u00e4ss Kalender.\n\nSchneeschuhlaufen als aktive Abwechslung nach einem intensiven Seminartag oder eine Mondschein-Schneeschuhtour f\u00fcr Ihren n\u00e4chsten Team-Event, wir freuen uns auf Ihre Anfrage f\u00fcr ein individuelles Angebot.\n\nGerne organisieren und f\u00fchren wir massgeschneiderte Schneeschuhwanderungen f\u00fcr Einzelpersonen, Gruppen und Firmen durch.", "url": "https://www.wanderleiter-martin.ch", "image": "https://ttpimtsoch.sos-ch-dk-2.exoscale-cdn.com/catalog/c/2/e/3/c2e3877a2d9599ee5be06cce5d48c3088afc3bbb_Wanderleiter_Martin_Gabathuler.jpeg", "openstreetmap_id": "way/290227145"}, "geometry": {"type": "Point", "coordinates": ["9.338464736938478", "47.200949287182745"]}}, {"type": "Feature", "properties": {"identifier": "3a2f7fee-4676-4e94-8f9b-d60a4e61e7ba", "name": "Fondue- und Gesellschaftsfahrten", "description": "Geniessen Sie mit Ihrer Familie, Ihren Freunden, Vereinskollegen, Gesch\u00e4ftspartnern usw. eine gem\u00fctliche Kutschenfahrt im Gesellschaftswagen oder im eleganten Glaslandauer.\n\nDie pferdebegeisterte Familie Sch\u00f6nenberger aus Mosnang bietet verschiedene Kutschenfahrten an. Ein besonderes Erlebnis ist die Ausfahrt im gem\u00fctlichen Fonduewagen mit einem feinen K\u00e4sefondue von der\u00a0K\u00e4serei Kaufmann, Mosnang. Bei schneebedeckten Strassen wird der Wagen durch einen grossen Schlitten ersetzt. \n\nDie Pferde im Stall Sch\u00f6nenberger werden geritten, gefahren und longiert. Sie n\u00e4chtigen in grossz\u00fcgigen Boxen und geniessen ihren t\u00e4glichen Auslauf auf dem Allwetterplatz oder der Weide. Diese Kombination und Abwechslung macht sie zu \u00e4usserst zuverl\u00e4ssigen, ausgeglichenen und motivierten Partnern f\u00fcr den Kutscher und f\u00fcr die G\u00e4ste im Strassenverkehr, im Gel\u00e4nde und an diversen Veranstaltungen.", "url": "http://www.kutschenhochzeit.ch", "image": "https://ttpimtsoch.sos-ch-dk-2.exoscale-cdn.com/catalog/a/5/7/d/a57d86b70a51b6bfd65531e2dbdd03fee6e5ad54_Bild1.jpg", "openstreetmap_id": "node/3058853167"}, "geometry": {"type": "Point", "coordinates": ["9.04088", "47.36303"]}}, {"type": "Feature", "properties": {"identifier": "3e4d00d6-f71b-4061-be84-ba1dd119b913", "name": "FoodTrail Toggenburg", "description": "Auf dem FoodTrail r\u00e4tseln sich die Teilnehmerinnen und Teilnehmer von Stopp zu Stopp. An jedem Stopp gibt es eine lokale Spezialit\u00e4t zu entdecken und geniessen. Dabei erfahren sie nicht nur die Hintergr\u00fcnde zu den K\u00f6stlichkeiten, sondern auch Spannendes \u00fcber die Ferienregion Toggenburg und ihre Sehensw\u00fcrdigkeiten - die auf der genussvollen Wanderung nat\u00fcrlich entdeckt werden k\u00f6nnen. FoodTrails gibt es bereits in vielen St\u00e4dten und Regionen in der Schweiz \u2013 und nun auch im Toggenburg.", "url": "https://chaeswelt.ch/de/", "image": "https://ttpimtsoch.sos-ch-dk-2.exoscale-cdn.com/catalog/e/a/e/8/eae857da24aa0bf6d671a54bc96505681d03cc41_20210808_FoodTrail_154.jpg", "openstreetmap_id": "way/385533783"}, "geometry": {"type": "Point", "coordinates": ["9.090626373690473", "47.3015527"]}}, {"type": "Feature", "properties": {"identifier": "5c7c9ff2-e7cf-4ff1-9636-6949411cd788", "name": "\u00dcber Nachtw\u00e4chter und Brunnenmeister", "description": "<p>Im Mittelalter hatten Nachtw&auml;chter (T&uuml;rmer) und Brunnenmeister eine zentrale Bedeutung f&uuml;r das Leben in St&auml;dten und Gemeinden. Ihre Aufgaben trugen ma&szlig;geblich dazu bei, Ordnung, Sicherheit und die Versorgung der Bev&ouml;lkerung zu gew&auml;hrleisten. Diese beiden Berufe waren essenziell f&uuml;r die mittelalterliche, sp&auml;t-mittelalterliche und neuzeitliche Gesellschaft. Sie symbolisieren nicht nur die Organisation des st&auml;dtischen Lebens, sondern auch den fr&uuml;hen Versuch, Gefahren systematisch zu begegnen.</p><p><strong>Ap&eacute;ro<br></strong>Zur stimmigen Abrundung kommt ein feiner Ap&eacute;ro vor oder nach der F&uuml;hrung sehr gut an - unser Spezialangebot f&uuml;r St&auml;dtlif&uuml;hrungsgruppen finden Sie&nbsp; <a href=\"https://toggenburg.swiss/files/_OpenFrontend/websites/toggenburg.swiss/objects/pdf_download/ap%C3%A9ro_angebote_lichtensteig.pdf\" target=\"_blank\" rel=\"noopener\">hier.</a>&nbsp;</p>", "image": "https://ttpimtsoch.sos-ch-dk-2.exoscale-cdn.com/catalog/1/3/0/3/1303ce6fa48f539f8187c40d36f8f94be733e1cf_02_Wakkerpreis_2023_Lichtensteig.jpg"}, "geometry": {"type": "Point", "coordinates": ["9.08723294734955", "47.32356333889576"]}}, {"type": "Feature", "properties": {"identifier": "5e9f9531-b062-41aa-b3b3-2250f4492697", "name": "Brunnengeschichten", "description": "<p>So passte der Brunnenh&uuml;ter auf, dass niemand das &laquo;Wasser beschisse und unsauber mache&raquo;. Die Waschweiber sollten ihre Arbeiten im Sudelbrunnen besorgen. Die Metzger waren an den &laquo;Metzgibrunnen&raquo; gewiesen. Bei den Brunnen wurde &laquo;getratscht&raquo; und man traf sich f&uuml;r den Austausch von Neuigkeiten.<br>Die Sorge f&uuml;r ausreichendes und sauberes Wasser geh&ouml;rte zu allen Zeiten zu den elementaren Anliegen. Die &ouml;ffentlichen Brunnen Lichtensteigs waren bis weit ins 19. Jahrhundert hinein die einzige Quelle f&uuml;r den Hausgebrauch und spielten f&uuml;r den t&auml;glichen Wasserbedarf der Bev&ouml;lkerung eine zentrale Rolle. Erst mit dem Bauplan von 1879 und der anschliessenden Realisierung erhielt Lichtensteig und dessen Umgebung eine moderne Wasserversorg mit Reservoir und Leitungsnetz.</p><p><strong>Ap&eacute;ro<br></strong>Zur stimmigen Abrundung kommt ein feiner Ap&eacute;ro vor oder nach der F&uuml;hrung sehr gut an - unser Spezialangebot f&uuml;r St&auml;dtlif&uuml;hrungsgruppen finden Sie&nbsp; <a href=\"https://toggenburg.swiss/files/_OpenFrontend/websites/toggenburg.swiss/objects/pdf_download/ap%C3%A9ro_angebote_lichtensteig.pdf\" target=\"_blank\" rel=\"noopener\">hier.</a>&nbsp;</p>", "image": "https://ttpimtsoch.sos-ch-dk-2.exoscale-cdn.com/catalog/4/3/c/4/43c48bf5323f780b77b6e1dab85075d947cf09c0_Brunnen.jpg"}, "geometry": {"type": "Point", "coordinates": ["9.08724367618561", "47.32352333434362"]}}, {"type": "Feature", "properties": {"identifier": "73fe0eb3-fefe-4765-ab9d-03737908bb47", "name": "Klangkurse", "description": "Die Klangwelt Toggenburg, angesiedelt zwischen Alt St. Johann und dem Schwendisee, veranstaltet ihre Kurse nun haupts\u00e4chlich im neuen Klanghaus und in der Klangschmiede. J\u00e4hrlich gibt es \u00fcber 90 Kurse, die entlang der Themenbereiche \u00abJodeln\u00bb, \u00abHandwerk & Brauchtum\u00bb, \u00abInstrumental\u00bb, \u00abUniversum Stimme\u00bb, \u00abSchwingung & Resonanz\u00bb und \u00abKlang\u00f6kologie\u00bb angeboten werden. Eine Besonderheit sind die neu eingef\u00fchrten Thementage, die tiefere Einblicke in diverse Klangwelten, Kulturen und Musikstile erm\u00f6glichen. Das vielseitige Angebot umfasst Workshops, Konzerte, Vortr\u00e4ge, Diskussionsrunden und interaktive Elemente.", "url": "https://klangwelt.ch/angebote/kalender#kurse", "image": "https://ttpimtsoch.sos-ch-dk-2.exoscale-cdn.com/catalog/3/d/f/6/3df6912e1ff9f47a1ed1d191eb807c0ad2992341_Bu__chel_und_wandern_03__2.JPG", "openstreetmap_id": "node/11451571590"}, "geometry": {"type": "Point", "coordinates": ["9.2789903", "47.1934306"]}}, {"type": "Feature", "properties": {"identifier": "7b00a0d7-9699-4d89-aa29-4dfa3ed8cd5a", "name": "Kinderf\u00fchrung: Besuch im \"St\u00e4dtlizoo\" ", "description": "<p>Auf dem kurzweiligen Spaziergang durch die Gassen der Altstadt werden immer wieder Tiere entdeckt. Der St&auml;dtliguide weiss, wo sie sich verstecken und kann einiges &uuml;ber die gefundenen Tiere berichten.&nbsp;</p><p><strong>Ap&eacute;ro<br></strong>Zur stimmigen Abrundung kommt ein feiner Ap&eacute;ro vor oder nach der F&uuml;hrung sehr gut an - unser Spezialangebot f&uuml;r St&auml;dtlif&uuml;hrungsgruppen finden Sie&nbsp; <a href=\"https://toggenburg.swiss/files/_OpenFrontend/websites/toggenburg.swiss/objects/pdf_download/ap%C3%A9ro_angebote_lichtensteig.pdf\" target=\"_blank\" rel=\"noopener\">hier.</a>&nbsp;</p>", "image": "https://ttpimtsoch.sos-ch-dk-2.exoscale-cdn.com/catalog/d/3/f/8/d3f8d62d71b15b89a243cb9c94341c4a691550bf_Sascha_Erni___Lo__wen_1.jpeg"}, "geometry": {"type": "Point", "coordinates": ["9.08722758293152", "47.323479692979454"]}}, {"type": "Feature", "properties": {"identifier": "89aed585-1b17-4d4a-96b0-e003bc3d2949", "name": "Die Grafen von Toggenburg und ihre neue Burg ob der Wasserfluh", "description": "<p>Auf der Wanderung von der Wasserfluh zur Burgruine der Neu-Toggenburg erz&auml;hlt der Guide die spannende Geschichte der Grafen von Toggenburg und f&uuml;hrt Sie in die geheimnisvollen Hintergr&uuml;nde und Herausforderungen beim Bau der Burg ein.</p><p>Treffpunkt: Passh&ouml;he Wasserfluh</p><p><strong>Ap&eacute;ro<br></strong>Zur stimmigen Abrundung kommt ein feiner Ap&eacute;ro vor oder nach der F&uuml;hrung sehr gut an - unser Spezialangebot f&uuml;r St&auml;dtlif&uuml;hrungsgruppen finden Sie&nbsp; <a href=\"https://toggenburg.swiss/files/_OpenFrontend/websites/toggenburg.swiss/objects/pdf_download/ap%C3%A9ro_angebote_lichtensteig.pdf\" target=\"_blank\" rel=\"noopener\">hier.</a>&nbsp;</p>", "image": "https://ttpimtsoch.sos-ch-dk-2.exoscale-cdn.com/catalog/2/1/a/5/21a5eba724dcbf87cedd221a7a39ad6dc3ad629c_Neutoggenburg.webp"}, "geometry": {"type": "Point", "coordinates": ["9.1131384", "47.3255794"]}}, {"type": "Feature", "properties": {"identifier": "8d4b7081-e500-457f-bff2-5a23cfb3e982", "name": "In der Fonduekutsche", "description": "<p>W&auml;hrend Sie von Sandro Scherrer gem&uuml;tlich im geheizten und &uuml;berdachten Wagen durchs Toggenburg kutschiert werden, geniessen Sie ein rassiges Fondue &agrave; la Ida &ndash; ein Geheimrezept der B&auml;uerin. Die vorbeiziehende Landschaft schm&uuml;ckt die grossen Panoramafenster und l&uuml;pfige L&auml;ndlermusik sorgt f&uuml;r gute Stimmung. Eine gesellige Fahrt mit einer guten Prise figugegl. Denn, Fondue isch guet und git e gueti Luune.</p><p>&nbsp;<br>Familie Scherrer bietet &uuml;brigens noch weitere Kutschenfahrten an. Informieren Sie sich zum Beispiel &uuml;ber die Grillfahrten von Mai bis September. Dauer: 1:45 Stunden Durchf&uuml;hrung: T&auml;glich zwischen 09.00 - 20.00 Uhr (Abfahrtszeiten) ab mindestens 6 bis maximal 50 Personen. Die genaue Zeit f&uuml;r die Durchf&uuml;hrung wird zwischen den Teilnehmern und dem Anbieter vereinbart. Preis: - CHF 48.&ndash; f&uuml;r Erwachsene inkl. Fondue und alkoholfreie Getr&auml;nke* - CHF 10.&ndash; bis CHF 39.&ndash; f&uuml;r Kinder (je nach Alter) inkl. Fondue und alkoholfreie Getr&auml;nke* * Tee, Punsch und Kaffee sind inbegriffen. Mineralwasser, Bier, Wein, Kirsch und Appenzeller sind zus&auml;tzlich zu bezahlen.</p><p>&nbsp;<br>Treffpunkt: Bahnhof B&uuml;tschwil</p>", "url": "http://www.kutschenfahrten-scherrer.ch", "image": "https://ttpimtsoch.sos-ch-dk-2.exoscale-cdn.com/catalog/6/8/8/0/688022064cb93c88e754c2cb89146b8078b27b4f_Sandro_und_Ida_Scherrer_600x450.jpg", "openstreetmap_id": "node/4012266910"}, "geometry": {"type": "Point", "coordinates": ["9.07472", "47.35955"]}}, {"type": "Feature", "properties": {"identifier": "8f5e1f94-1e42-48f2-a918-5e4dc03daa14", "name": "Der private Extrawurst-Kurs", "description": "<p>Dann ist ein Extrawurst-Kurs beim Toggenburger Metzgermeister Philipp Metzger ideal. In zwei Stunden stellen Sie und Ihre G\u00e4ste zwei, drei Extraw\u00fcrste her. Den Termin und die Gruppengr\u00f6sse w\u00e4hlen Sie frei. Metzgermeister Philipp Metzger unterst\u00fctzt Sie bei der Planung. Auf Wunsch grillieren Sie anschliessend auf der Metzgerei-Terrasse.</p>", "url": "https://www.extrawuerste.ch/kursangebot", "image": "https://ttpimtsoch.sos-ch-dk-2.exoscale-cdn.com/catalog/0/e/3/6/0e3651829109c4947f817efa226ecd7eebd2d037_Metzger_Metzger_Foto4.jpeg", "openstreetmap_id": "node/2864981139"}}, {"type": "Feature", "properties": {"identifier": "921bb32a-8ac5-46df-8420-b9f06efe647e", "name": "Auf Frauenspuren im Toggenburg", "description": "<p>Eine Zeitreise durch die Geschichte von Frauen aus dem Toggenburg zeigt, welche beeindruckende Spuren sie hinterlassen haben. Trotz grossen Herausforderungen, begrenzten Ressourcen und gesellschaftlichen Einschr&auml;nkungen waren sie mutige Wegbereiterinnen: Mit bewundernswerter Kreativit&auml;t und Entschlossenheit pr&auml;gten sie den Alltag.&nbsp;<br>In vielen F&auml;llen &uuml;bten die Frauen auch einen starken Einfluss auf die kulturelle Identit&auml;t der Region aus. Sie pflegten Traditionen, bewahrten das kulturelle Erbe und trugen dazu bei, dass die Geschichte und die Werte der Gemeinschaft weitergegeben wurden.&nbsp;<br>Der/die St&auml;dtliguide erz&auml;hlt auf dieser Themenf&uuml;hrung durch die Gassen von Lichtensteig von Frauen zwischen dem 17. bis anfangs des 20. Jahrhunderts.</p><p><strong>Ap&eacute;ro<br></strong>Zur stimmigen Abrundung kommt ein feiner Ap&eacute;ro vor oder nach der F&uuml;hrung sehr gut an - unser Spezialangebot f&uuml;r St&auml;dtlif&uuml;hrungsgruppen finden Sie&nbsp; <a href=\"https://toggenburg.swiss/files/_OpenFrontend/websites/toggenburg.swiss/objects/pdf_download/ap%C3%A9ro_angebote_lichtensteig.pdf\" target=\"_blank\" rel=\"noopener\">hier.</a>&nbsp;</p>", "image": "https://ttpimtsoch.sos-ch-dk-2.exoscale-cdn.com/catalog/1/9/2/b/192b9243c6d51886129bf43f8e563e41afa767f7_Bild_Frauen_im_Toggenburg.jpg"}, "geometry": {"type": "Point", "coordinates": ["9.087211489677431", "47.323541518234684"]}}, {"type": "Feature", "properties": {"identifier": "9e3b4a74-0859-4f56-8fa8-1adfec43d0cc", "name": "Chatzegrabe-Tours - Wanderleiter SBV", "description": "<p>M\u00f6chtest du\n- dich in der Bergwelt vom Alltag erholen?\n- eine atemberaubende Landschaft erkunden?\n- eine Spur durch den Schnee abseits des Rummels ziehen?\n- den Sonnenaufgang auf einem Berggipfel erleben?\n- dem leuchtenden Mond in einer verschneiten Landschaft begegnen?\n- die Bergwelt geniessen und dabei sicher unterwegs sein?\n- unterwegs Spannendes und Wissenswertes \u00fcber die Region und den Lebensraum erfahren?\n- mit deinem Team, Gruppe oder Klasse einen unvergesslichen Tag draussen in der Natur verbringen?\n- oder gar die Nacht zum Tag werden lassen?\n\nBenno Schwizer, Wanderleiter SBV und SAC-Tourenleiter erm\u00f6glicht dir, diese W\u00fcnsche zu erf\u00fcllen.\nIm Tourenprogramm findest du verschiedene Angebote - im Winter wie im Sommer, f\u00fcr Einsteiger/innen und Ge\u00fcbte.\n\nOder lass dir eine massgeschneiderte Tour anbieten f\u00fcr Einzelpersonen, Gruppen oder Teams.\nIch freue mich auf deine Anfrage und mit dir/euch \u00abz\u00e4me underw\u00e4gs\u00bb zu sein.</p>", "url": "https://chatzegrabe-tours.ch", "image": "https://ttpimtsoch.sos-ch-dk-2.exoscale-cdn.com/catalog/e/2/9/3/e2936d8e46fc0cc9012d863bb6aa5c498306bbee_DSC02708.JPG", "openstreetmap_id": "relation/2728086"}, "geometry": {"type": "Point", "coordinates": ["9.1694948", "47.2487748"]}}, {"type": "Feature", "properties": {"identifier": "9ee0fb06-52e4-4bc0-9e41-8add7aa3d6d2", "name": "Birdie Golf Toggenburg", "description": "Es stehen Ihnen folgende M\u00f6glichkeiten zur Verf\u00fcgung:\n\n- Golf-Simulator im Self-Service f\u00fcr eine faszinierende virtuelle Golfrunde \u2013 realistisch, interaktiv und mit beeindruckendem 3D-Effekt.\n- Attraktives Putting-Green.\n- Gem\u00fctliche Lounge f\u00fcr gesellige Momente.\n- Attraktiv f\u00fcr Firmen, Tourismusg\u00e4ste, Familien und Freunde bis maximal 12 Personen.", "url": "https://birdiegolf-toggenburg.ch/", "image": "https://ttpimtsoch.sos-ch-dk-2.exoscale-cdn.com/catalog/1/6/5/3/1653b1e7e1b726b193c3a94408eaea447c7f2e38_Birdie_Golf_Toggenburg_11__2.jpg", "openstreetmap_id": "node/13990129363"}, "geometry": {"type": "Point", "coordinates": ["9.1957731", "47.2289055"]}}, {"type": "Feature", "properties": {"identifier": "a164c80a-4d11-45cd-b0fb-37c47a7aa070", "name": "Silvan Ebneter - Bergf\u00fchrer", "description": "Abenteuer beginnen mit der Idee, werden beim Planen geformt, realisiert auf einer Tour und zu Hause als Geschichte weitererz\u00e4hlt.\n\nEgal, ob du gerade erst mit dem Bergsport beginnst oder bereits Erfahrung mitbringst \u2013 bei mir bist du genau richtig! Ob in der Gruppe bei einer fundierten Ausbildung oder auf einer anspruchsvollen Klettertour: Ich sorge daf\u00fcr, dass dein Abenteuer Wirklichkeit wird.\n\nDas malerische Toggenburg bietet uns die perfekte Kulisse, um unvergessliche Touren zu erleben und gemeinsam die Berge zu genie\u00dfen.\n\nMein Angebot:\n\u2022\tSkitouren\n\u2022\tHochtouren\n\u2022\tEisklettern\n\u2022\tKlettertouren\n\u2022\tAusbildung:\no\tLawinenkurs\no\tSkitechnikkurs\no\tKletterkurs\n\nBereit f\u00fcr neue Herausforderungen und Naturerlebnisse? Ich freue mich auf dich!", "url": "https://alpendohle.ch/", "image": "https://ttpimtsoch.sos-ch-dk-2.exoscale-cdn.com/catalog/8/e/d/d/8edd3d748831d6cec052cb951e2283875f3ed0b3_IMG_20231014_WA0012.jpg", "openstreetmap_id": "way/281950935"}, "geometry": {"type": "Point", "coordinates": ["9.141916900000004", "47.254443699999996"]}}, {"type": "Feature", "properties": {"identifier": "a6313581-97ae-4113-9d58-1ce5ed83ca05", "name": "Projekteinblick Mini.Stadt Lichtensteig", "description": "<p>Die Mini.Stadt Lichtensteig ist stark vom Strukturwandel gepr&auml;gt. Konstant ist: Lichtensteiger:innen packen an. Gemeinsam haben sie eine Strategie entwickelt und verschiedene Projekte vorangetrieben und umgesetzt. Dies hat die Jury des renommierten Wakkerpreises dazu bewogen, den Preis im Jahr 2023 an Lichtensteig zu vergeben.&nbsp;</p><p><br>Folgende Projekte bieten Ihnen einen exklusiven Einblick:</p><ul><li><strong>Macherzentrum Toggenburg</strong> (<a href=\"https://www.macherzentrum.ch\" target=\"_blank\" rel=\"noopener\">www.macherzentrum.ch</a>)<br>Engagierte Macher:innen nutzten die ehemalige Post in Lichtensteig nach deren Schliessung in einen Coworkingspace um. Damit wollten sie den Leerstand als Chance wahrnehmen und einen Mehrwert f&uuml;r die Region schaffen. Heute hat sich der Coworkingspace im Toggenburg etabliert und lockt Gr&uuml;nder:innen, digitale Nomadinnen und Nomaden sowie weitere Macher:innen an. Das Macherzentrum bietet ein inspirierendes Umfeld inmitten des wundersch&ouml;nen St&auml;dtli Lichtensteigs. Der Postschalter, die Schliessf&auml;cher und andere &laquo;&Uuml;berbleibsel&raquo; der Post blieben erhalten und verleihen einen einzigartigen Charme &ndash; schauen Sie selbst!</li><li><strong>Zukunft.Bahnhof</strong> (<a href=\"https://www.zukunftbahnhof.ch/\" target=\"_blank\" rel=\"noopener\">www.zukunftbahnhof.ch</a>)&nbsp;<br>Auf dem Areal rund um die Bahnhalle, wo das bekannte Ch&ouml;ssi Theater beheimatet ist, entsteht ein Konzept f&uuml;r eine enkeltaugliche Arealentwicklung. Die denkmalgesch&uuml;tzte Bahnhalle soll saniert werden und neue Bauten entstehen, die eine vielf&auml;ltige Mischnutzung des Areals mit einer Kombination aus Wohnen, Arbeiten und Kultur bieten werden. Mithilfe von sozialer und technischer Innovation soll ein lebendiger Begegnungs- und Wohnort entstehen.<br><br></li><li><strong>Stadtufer</strong> (<a href=\"https://www.stadtufer.ch/\" target=\"_blank\" rel=\"noopener\">www.stadtufer.ch</a>)<br>Der Niedergang der Textilindustrie hat die Region stark getroffen. Wir nutzen die Chance, mit dem Stadtufer eine Geschichte der feinf&uuml;hligen &ouml;kologischen und sozialen Wiederbelebung der ehemaligen Spinnerei zu erz&auml;hlen, welche das Bild des St&auml;dtchens historisch gepr&auml;gt hat. Mit partizipativen Planungsmethoden entwickelt sich das Areal Stadtufer aus dem Bestand heraus zu einem zukunftsweisenden Ort der Begegnung. F&uuml;r das grosse Engagement wurde die Genossenschaft 2022 mit dem Anerkennungspreis der Schweizer Vereinigung f&uuml;r Standortmarketing SVSM ausgezeichnet.<br><br></li><li><strong>Rathaus f&uuml;r Kultur</strong> (<a href=\"https://rathausfuerkultur.ch/\" target=\"_blank\" rel=\"noopener\">www.rathausfuerkultur.ch</a>)<br>Das Rathaus f&uuml;r Kultur ist seit 2019 ein Knotenpunkt f&uuml;r kulturelles Schaffen. Der Verein gestaltet die Zukunft der Region aktiv mit, vernetzt Kunst- und Kulturschaffende mit der Bev&ouml;lkerung und entwickelt neue Ideen und Projekte. Im umgenutzten ehemaligen Stadtverwaltungsgeb&auml;ude befinden sich die Dogo Residenz f&uuml;r Neue Kunst, zahlreiche Ateliers, mietbare Event, Probe- und Ausstellungsr&auml;umlichkeiten sowie ein gastronomischer Betrieb mit Aussenbereich. Das Haus ist &ouml;ffentlich zug&auml;nglich und wird vielf&auml;ltig genutzt. Regelm&auml;ssig wird ein diverses Kulturprogramm geboten mit Konzerten, Parties, Ausstellungen, Talks und mehr.</li></ul><p><strong>Ap&eacute;ro</strong><br>Zur stimmigen Abrundung kommt ein feiner Ap&eacute;ro im Anschluss an die F&uuml;hrung immer gut an.&nbsp;<a href=\"https://toggenburg.swiss/files/_OpenFrontend/websites/toggenburg.swiss/objects/pdf_download/ap%C3%A9ro_angebote_lichtensteig.pdf\" target=\"_blank\" rel=\"noopener\">Hier </a>finden Sie die Spezialangebote unserer Partnerbetriebe.<br>Wir w&uuml;rden uns sehr freuen, eines dieser Angebote f&uuml;r Sie zu organisieren.</p><p>&nbsp;<br>Weitere Informationen zum Wakkerpreise 2023 finden Sie unter <a href=\"https://wakkerpreis2023.ch/\" target=\"_blank\" rel=\"noopener\">www.wakkerpreis2023.ch</a></p>", "image": "https://ttpimtsoch.sos-ch-dk-2.exoscale-cdn.com/catalog/1/3/0/4/1304eee490a9fa7f46287f0e30e9298dac852609_05_Wakkerpreis_2023_Lichtensteig.jpg"}, "geometry": {"type": "Point", "coordinates": ["9.0874862", "47.3231436"]}}, {"type": "Feature", "properties": {"identifier": "a6cec57e-b0a5-4904-8050-9022589d6ded", "name": "Wanderma.ch - Wanderleiter SWW", "description": "<div id=\"comp-lwwafj34\" class=\"Z_l5lU ku3DBC zQ9jDz qvSjx3 Vq6kJx comp-lwwafj34 wixui-rich-text\" data-testid=\"richTextElement\"></div><div id=\"comp-lwwafj341\" class=\"Z_l5lU MMl86N zQ9jDz qvSjx3 Vq6kJx comp-lwwafj341 wixui-rich-text\" data-testid=\"richTextElement\"></div><div id=\"comp-lwwafj342\" class=\"Z_l5lU ku3DBC zQ9jDz qvSjx3 Vq6kJx comp-lwwafj342 wixui-rich-text\" data-testid=\"richTextElement\"><p class=\"font_7 wixui-rich-text__text\">Nat&uuml;rlich unterwegs im Toggenburg und Alpstein.&nbsp;</p><p class=\"font_7 wixui-rich-text__text\">Willkommen in der faszinierenden Bergwelt zwischen S&auml;ntis und Churfirsten</p><p class=\"font_8 wixui-rich-text__text\">Die Natur hier &ndash; mit ihren wilden W&auml;ldern, bl&uuml;henden Wiesen und schroffen Gipfeln &ndash; begeistert mich jeden Tag aufs Neue. Diese besondere Region ist mein Zuhause, mein Kraftort &ndash; und ich kenne sie wie meine Westentasche.</p><p class=\"font_8 wixui-rich-text__text\">Ob gem&uuml;tliche Wanderung, faszinierende Schneeschuhtour, spannende Exkursion oder inspirierender Teamausflug: Ich nehme dich, deine Gruppe und Freunde mit zu meinen Lieblingspl&auml;tzen &ndash; abseits des Trubels, mitten ins echte toggenburger Berg- &amp; Naturerlebnis.</p><p class=\"font_8 wixui-rich-text__text\">Seit April 2025 bin ich ausgebildeter Wanderleiter bei den Schweizer Wanderwegen. Mit viel Herzblut begleite ich Gruppen, Teams und Naturbegeisterte durch eindrucksvolle und entspannende Landschaften.&nbsp;</p></div>", "url": "https://www.wanderma.ch", "image": "https://ttpimtsoch.sos-ch-dk-2.exoscale-cdn.com/catalog/2/3/f/c/23fc9926dbfb8eb54642882cb2f29044c7ac9f60_Wanderma_Portrait_25.jpg", "openstreetmap_id": "way/223856895"}, "geometry": {"type": "Point", "coordinates": ["9.376864299999998", "47.206800900000005"]}}, {"type": "Feature", "properties": {"identifier": "a8d72dd2-b86c-4b33-bc49-0b2ab54cb75d", "name": "Historische F\u00fchrung durch die Mini.Stadt Lichtensteig", "description": "<p>Erleben Sie das St&auml;dtli von einer nicht ganz allt&auml;glichen Seite. Bei der begleiteten F&uuml;hrung erfahren Sie so einiges &uuml;ber die Geschichte Lichtensteigs und sehen die sch&ouml;nsten Ecken und schmalsten Gassen der Mini.Stadt im Toggenburg.&nbsp;Das historische Marktst&auml;dtchen Lichtensteig ist auf 640 m &uuml;.M. hoch &uuml;ber der Thur gelegen. Der vorbildlich erhaltene und restaurierte Altstadtkern mit seinen schmalen Kopfsteinpflaster-Gassen, hohen Arkaden und romantischen Brunnen will entdeckt werden. Die Bem&uuml;hungen der Gemeinde Lichtensteig rund um die Stadtentwicklung wurden mit dem Wakkerpreis 2023 ausgezeichnet.&nbsp;</p><p><strong>Ap&eacute;ro<br></strong>Zur stimmigen Abrundung kommt ein feiner Ap&eacute;ro vor oder nach der F&uuml;hrung sehr gut an - unser Spezialangebot f&uuml;r St&auml;dtlif&uuml;hrungsgruppen finden Sie&nbsp; <a href=\"https://toggenburg.swiss/files/_OpenFrontend/websites/toggenburg.swiss/objects/pdf_download/ap%C3%A9ro_angebote_lichtensteig.pdf\" target=\"_blank\" rel=\"noopener\">hier.</a>&nbsp;</p><p>&nbsp;</p>", "image": "https://ttpimtsoch.sos-ch-dk-2.exoscale-cdn.com/catalog/b/b/8/2/bb82bb7c447f94cd9b79ab83830b46ca0a46b383_Altstadt_Bezirksgeba__ude.jpeg"}, "geometry": {"type": "Point", "coordinates": ["9.087796211242678", "47.32375601594768"]}}, {"type": "Feature", "properties": {"identifier": "b14180aa-3ee7-4f7e-aba9-bfe401c7afd8", "name": "Naturjodelerlebnis", "description": "Bef\u00e4llt Sie gar der Mut, selbst einen Naturjodel zum Besten zu geben, sind Sie bei uns gut aufgehoben. Mit anderen Jodelfrischlingen zusammen verbreiten Sie Heimatkl\u00e4nge! Und Sie werden es nicht lassen k\u00f6nnen, das Talerschwingen und Schel\u00e4sch\u00f6tten selbst zu praktizieren. Marlene und Ruedi Roth f\u00fchren Sie mit bereicherndem Stolz in ihre Leidenschaft: Echten \u00c4lplergesang, der mit seinen tiefen Wurzeln bleibende Heimatfreude hinterl\u00e4sst.\n\nInkludierte Leistungen: \n-Vortrag \u00fcber die Herkunft und Praktizierung von Naturjodel und Z\u00e4uerli\n-Vorstellung der Tracht\n-Bildung eines Begleitchors zu einem Naturjodel\n-Talerschwingen und Schel\u00e4sch\u00f6tten\n-Am\u00fcsantes Erlebnis zur Teambildung\n\nGruppenpreis: \n400 - 600 Fr. , je nach Dauer des Teamevents\n", "url": "https://www.ruedi-roth.ch/index.php/nj-erlebnis", "image": "https://ttpimtsoch.sos-ch-dk-2.exoscale-cdn.com/catalog/e/2/d/3/e2d37515eba731a4e11aeb7b0de34e42b806f8b9_Naturjodel.JPG", "openstreetmap_id": "node/177885965"}, "geometry": {"type": "Point", "coordinates": ["9.192632295830059", "47.293090649999996"]}}, {"type": "Feature", "properties": {"identifier": "c4dcf8be-dcdd-4f6e-b593-f7d738fcfe0d", "name": "Mini.Stadt Stadtentwicklungs-F\u00fchrung", "description": "<p>Die Mini.Stadt Lichtensteig ist stark vom Strukturwandel gepr&auml;gt. Konstant ist: Lichtensteiger:innen packen an. Gemeinsam haben sie eine Strategie entwickelt und verschiedene Projekte vorangetrieben und umgesetzt.</p><p><br>Auf diesem Rundgang nimmt Sie Ihr St&auml;dtliguide mit auf einen Rundgang und gibt Ihnen Einblick in die \"Mini.Stadt Strategie\" und zeigt die daraus entstandenen Projekte, welche die Jury des renommierten Wakkerpreises unter anderem dazu bewogen haben, den Preis im Jahr 2023 an Lichtensteig zu vergeben.</p><p><strong>Ap&eacute;ro<br></strong>Zur stimmigen Abrundung kommt ein feiner Ap&eacute;ro im Anschluss an die F&uuml;hrung immer gut an.&nbsp;<a href=\"https://toggenburg.swiss/files/_OpenFrontend/websites/toggenburg.swiss/objects/pdf_download/ap%C3%A9ro_angebote_lichtensteig.pdf\" target=\"_blank\" rel=\"noopener\">Hier&nbsp;</a>finden Sie die Spezialangebote unserer Partnerbetriebe.<br>Wir w&uuml;rden uns sehr freuen, eines dieser Angebote f&uuml;r Sie zu organisieren.&nbsp;</p><p><strong>Wakkerpreis 2023<br></strong>Auszeichnung vom Schweizer Heimatschutz f&uuml;r die vorbildliche Ortsbild- und Siedlungsentwicklung.&nbsp;Weitere Informationen dazu unter&nbsp;<a href=\"https://wakkerpreis2023.ch/\" target=\"_blank\" rel=\"noopener\">www.wakkerpreis2023.ch</a></p>", "image": "https://ttpimtsoch.sos-ch-dk-2.exoscale-cdn.com/catalog/8/9/b/0/89b05ced65560e4bfb66d054b15c0a23a1c88ec0_03_Wakkerpreis_2023_Lichtensteig.jpg"}, "geometry": {"type": "Point", "coordinates": ["9.08724367618561", "47.323479692979454"]}}, {"type": "Feature", "properties": {"identifier": "c4ef8a40-6c95-406a-b41d-48c4f025e91b", "name": "Szenische Jost B\u00fcrgi-F\u00fchrung", "description": "<p>Jost B&uuml;rgi - das Universalgenie - ist 1552 im St&auml;dtli Lichtensteig geboren und nach einem reicherf&uuml;llten Leben 1632 in Kassel gestorben. Er wirkte in Kassel am F&uuml;rstenhof Wilhelm IV. und in Prag am Kaiserhof Rudolf II. und kam durch seine grosse Schaffenskraft zu h&ouml;chsten Ehren. Obwohl B&uuml;rgi nie eine Universit&auml;t besuchte, hat er das Universum neu geordnet. Der geniale Mathematiker baute nebst Uhren und Messinstrumente auch einzigartige Himmelsgloben. Nachdem Papst Gregor XIII. 1582 den Kalender samt Schalttag reformiert hatte, dauerte es nur vier Jahre bis B&uuml;rgi das erste mechanische System entwickelte, das die neue Zeitrechnung ber&uuml;cksichtigte. So baute er f&uuml;r Rudolf II. - Kaiser des Heiligen R&ouml;mischen Reiches in Prag - einen Himmelsglobus, der die Schaltjahre anzeigte.</p><p>Auf dieser F&uuml;hrung werden Sie von einem St&auml;dtliguide durch die Gassen von Lichtensteig gef&uuml;hrt. Dabei treffen Sie immer wieder auf Jost B&uuml;rgi &ndash; dargestellt von einem Schauspieler &ndash; und k&ouml;nnen so wahrhaftig in die fr&uuml;heren Zeiten eintauchen.</p><p><strong>Ap&eacute;ro<br></strong>Zur stimmigen Abrundung kommt ein feiner Ap&eacute;ro vor oder nach der F&uuml;hrung sehr gut an - unser Spezialangebot f&uuml;r St&auml;dtlif&uuml;hrungsgruppen finden Sie&nbsp; <a href=\"https://toggenburg.swiss/files/_OpenFrontend/websites/toggenburg.swiss/objects/pdf_download/ap%C3%A9ro_angebote_lichtensteig.pdf\" target=\"_blank\" rel=\"noopener\">hier.</a>&nbsp;</p>", "image": "https://ttpimtsoch.sos-ch-dk-2.exoscale-cdn.com/catalog/c/a/2/b/ca2bc4c6b912acb180a7bc5604c6ff3665616436_IMG_20251103_111712.jpg"}, "geometry": {"type": "Point", "coordinates": ["9.08723831176758", "47.32348696654265"]}}, {"type": "Feature", "properties": {"identifier": "c95dfc43-e714-477e-9257-06209aff649e", "name": "Tandem Paragliding \u2013 Ostschweiz (Toggenburg & Alpstein)", "description": "Ich bin in der Region verwurzelt und kenne die Bedingungen hier wie kaum ein anderer. Als erfahrener Tandempilot plane ich jeden Flug individuell \u2013 angepasst an Wetter, Thermik und deine W\u00fcnsche. Gemeinsam starten wir von einigen der eindrucksvollsten Flugberge der Ostschweiz: Ebenalp, Hoher Kasten, Kronberg, Ch\u00e4serrugg oder Stockberg \u2013 je nach Tageslage und Jahreszeit.\n\nWer das Abenteuer sucht, kann mit mir auch ein Hike&Fly erleben: Gemeinsam steigen wir zum Startplatz auf, geniessen unterwegs die Natur und heben anschliessend lautlos ab. Eine Kombination aus Bergsport, Naturerlebnis und Gleitschirmflug \u2013 pur, direkt und intensiv. Ob sanfter Gleitflug oder Thermik nutzen und H\u00f6he gewinnen \u2013 alles ist m\u00f6glich.\n\nDie Sicht reicht bei klaren Bedingungen von den Churfirsten \u00fcber den S\u00e4ntis bis hin zum Bodensee und die Glarner Alpen. Jeder Flug ist anders, jeder Moment einzigartig.\n\nLUFTHELD steht f\u00fcr pers\u00f6nliche Begleitung, h\u00f6chste Sicherheit und authentische Erlebnisse. Kein Massentourismus, kein Standardprogramm \u2013 sondern echtes Gleitschirmfliegen mit einem Local, der seine Heimat liebt und sie dir aus der Luft zeigen m\u00f6chte.\n\nDu willst noch h\u00f6her hinaus? Neben klassischen Passagierfl\u00fcgen biete ich auch Thermik- und Streckenfl\u00fcge an \u2013 ideal f\u00fcr alle, die l\u00e4nger in der Luft bleiben oder das Gef\u00fchl grenzenloser Freiheit noch intensiver erleben m\u00f6chten.", "url": "https://www.shv-fsvl.ch/einfach-finden/detail/stefan-schwarz/", "image": "https://ttpimtsoch.sos-ch-dk-2.exoscale-cdn.com/catalog/b/3/b/1/b3b11fc89dae4961fec7d11bf2f1b1d1a0764123_Luftheld1.JPG", "openstreetmap_id": "node/12247761188"}, "geometry": {"type": "Point", "coordinates": ["9.3134262", "47.1558974"]}}, {"type": "Feature", "properties": {"identifier": "c99282d4-f147-469a-bbf0-c9237a8adf81", "name": "\"Shopping Mall\" St\u00e4dtli Lichtensteig", "description": "<p>Im sp&auml;ten Mittelalter und der Neuzeit war Lichtensteig &uuml;berregional ein bedeutender Handelsplatz und entwickelte sich aufgrund seiner strategischen Lage, zu einem zentralen Markt- und Handelszentrum, das weit &uuml;ber die Region hinaus bekannt war. Die Beg&uuml;nstigung durch das Marktrecht und die Lage am wichtigen Drehkreuz zogen H&auml;ndler und Kaufleute aus unterschiedlichen Regionen an. Noch heute bietet Lichtensteig ein vielseitiges Einkaufsangebot mit 24-Stunden Shops und kleinen Manufakturen.</p><p><strong>Ap&eacute;ro<br></strong>Zur stimmigen Abrundung kommt ein feiner Ap&eacute;ro vor oder nach der F&uuml;hrung sehr gut an - unser Spezialangebot f&uuml;r St&auml;dtlif&uuml;hrungsgruppen finden Sie&nbsp; <a href=\"https://toggenburg.swiss/files/_OpenFrontend/websites/toggenburg.swiss/objects/pdf_download/ap%C3%A9ro_angebote_lichtensteig.pdf\" target=\"_blank\" rel=\"noopener\">hier.</a>&nbsp;</p>", "image": "https://ttpimtsoch.sos-ch-dk-2.exoscale-cdn.com/catalog/e/2/a/6/e2a6b71b97a74702b7feaee12ea32c1e1d16bb8d_0R0A2686.jpg"}, "geometry": {"type": "Point", "coordinates": ["9.08723831176758", "47.323436051579264"]}}, {"type": "Feature", "properties": {"identifier": "cb54d330-b2f5-46e4-82e6-415208193922", "name": "F\u00fchrung in der K\u00e4serei", "description": "<p>Willi Schmid und seine Familie gew&auml;hren im Rahmen der K&auml;serei-F&uuml;hrung und der Besichtigung der verschiedenen K&auml;sekeller einen Einblick in Ihre K&auml;sephilosophie. K&auml;se mit klingenden Namen wie Jersy Blue, Fromage Vivienne und Caprinello werden anschliessend f&uuml;r eine Degustation aufgetischt.</p><p>Dauer: ca. 2 Stunden <br>Durchf&uuml;hrung: Montag bis Freitag zwischen 13.00 bis 19.00 Uhr, letzter <br>Start: 17.00 Uhr Samstag zwischen 9.00 bis 11.00 Uhr Mindestens 10 bis maximal 40 Personen. <br>Die genaue Zeit f&uuml;r die Durchf&uuml;hrung wird zwischen den Teilnehmern und dem Anbieter vereinbart. <br>Wichtig: Ihre Buchung ist erst definitiv, wenn diese von der St&auml;dlich&auml;si best&auml;tigt ist. Preis: CHF 35 pro Person (CHF 10 f&uuml;r die F&uuml;hrung, CHF 25 f&uuml;r die Degustation)<br>Treffpunkt: St&auml;dtlich&auml;si Lichtensteig, Uttenwilserstrasse 2, 9620 Lichtensteig SG</p>", "url": "https://shop.chaeswelt.ch/produktkategorie/erlebnisse/", "image": "https://ttpimtsoch.sos-ch-dk-2.exoscale-cdn.com/catalog/2/7/3/c/273c6f92bb78a7022be10435f2bae5ad0226c4d7_Titelbild_Schmid.JPG", "openstreetmap_id": "node/5830920426"}, "geometry": {"type": "Point", "coordinates": ["9.08518", "47.32951"]}}, {"type": "Feature", "properties": {"identifier": "cccbb031-58d1-4e59-97ad-083edb7d647d", "name": "Toggenburger Adel und Landleute im Mittelalter", "description": "<p>Bis fast zum Ende des Mittelalters herrschten die Grafen von Toggenburg im heutigen Toggenburg und dar&uuml;ber hinaus im Rheintal, im Linthgebiet, in Graub&uuml;nden und bis ins Z&uuml;rcher Oberland. Die Landleute bildeten gegen Ende des 14. Jahrhunderts ein b&uuml;rgerliches Bewusstsein, das Best&auml;tigung der erlangten Rechte wie Freiheitsrecht, Erbrecht, Strafrecht und Marktrecht durch den Landesherrn verlangte, was in Lichtensteig erstmals 1400 gelang.</p><p><strong>Ap&eacute;ro<br></strong>Zur stimmigen Abrundung kommt ein feiner Ap&eacute;ro vor oder nach der F&uuml;hrung sehr gut an - unser Spezialangebot f&uuml;r St&auml;dtlif&uuml;hrungsgruppen finden Sie&nbsp; <a href=\"https://toggenburg.swiss/files/_OpenFrontend/websites/toggenburg.swiss/objects/pdf_download/ap%C3%A9ro_angebote_lichtensteig.pdf\" target=\"_blank\" rel=\"noopener\">hier.</a>&nbsp;</p>", "image": "https://ttpimtsoch.sos-ch-dk-2.exoscale-cdn.com/catalog/a/7/9/2/a792ac92252afc2c20461b092d8976c4807c8a26_Lichtensteig_im_Herbst___Ch____sWelt_Toggenburg.jpg"}, "geometry": {"type": "Point", "coordinates": ["9.08722758293152", "47.32354515501218"]}}, {"type": "Feature", "properties": {"identifier": "d343c3ff-6f72-491a-afcc-0af58c3a53ba", "name": "Fondue beim K\u00e4ser", "description": "<p>Gian Liechti und sein Team nehmen Sie mit auf eine Entdeckungsreise quer durch die familiengef&uuml;hrte Bergk&auml;serei auf dem Ricken und zeigen Ihnen den Weg von der Milch zum K&auml;se. <br>Im Keller der Hochmoor K&auml;se AG reifen neben Emmentaler AOP, verschiedenen Hart- und Halbhartk&auml;se auch der herbe Hochmoor Ch&auml;s. Letzterer verdankt seinen Charakter der reichhaltigen Pflanzen- und Kr&auml;uterwelt des Hochmoors auf dem Rickenpass. <br>Bei einem rassigen Hochmoor-Fondue, &uuml;brigens ebenfalls mit Hochmoor Ch&auml;s, oder einem herzhaften Raclette &agrave; discr&eacute;tion in den R&auml;umlichkeiten der K&auml;serei endet die Exkursion schliesslich genussvoll. <br>Dauer: 3 Stunden Durchf&uuml;hrung: Dienstag, Mittwoch, Freitag von 17.30 - 20.30 Uhr oder nach Vereinbarung. Die genaue Zeit f&uuml;r die Durchf&uuml;hrung wird zwischen den Teilnehmern und dem Anbieter vereinbart. Ab mindestens 6 bis maximal 25 Personen. <br>Wichtig: Ihre Buchung ist erst definitiv, wenn diese von der Hochmoor K&auml;se AG best&auml;tigt ist. Preis: CHF 35.00 (exkl. Getr&auml;nke) f&uuml;r Erwachsene CHF 20.00 (exkl. Getr&auml;nke) f&uuml;r Kinder von 7 - 15 Jahren Treffpunkt: Hochmoor K&auml;se AG &ndash; Bergk&auml;serei Liechti, Waldestrasse 3, 8726 Ricken SG</p>", "url": "http://www.liechti-kaese.ch", "image": "https://ttpimtsoch.sos-ch-dk-2.exoscale-cdn.com/catalog/f/e/5/b/fe5b6306ca9632fdf145bb62aa57e24b694d80d6_ch____swelt_website_genussperlen_03_2025_1rz__2.jpg", "openstreetmap_id": "node/383765867"}, "geometry": {"type": "Point", "coordinates": ["9.044", "47.26455"]}}, {"type": "Feature", "properties": {"identifier": "d4a6c8d6-cc0e-4b79-9930-06a08a91b076", "name": "Wein-F\u00fchrung", "description": "<p>Im St&auml;dtli Lichtensteig wachsen verschiedene Traubensorten, aus denen unterschiedliche Weine gekeltert werden. Auf diesem weinseligen Rundgang besuchen Sie die drei einmalig gelegenen Lichtensteiger Rebberge. Da die H&auml;nge vom ersten bis zum letzten Sonnenstrahl besonnt sind und auch sonst gute Bedingungen herrschen, entsteht unterschiedlicher Wein von hoher Qualit&auml;t.<br>Nebst den Rebbergen gibt es weitere interessante und historische Schnittstellen zum Thema &lsquo;Reben und Wein in Lichtensteig&rsquo;, welche auf dieser F&uuml;hrung besuchen werden.</p><p><strong>Ap&eacute;ro<br></strong>Zur stimmigen Abrundung kommt ein feiner Ap&eacute;ro vor oder nach der F&uuml;hrung sehr gut an - unser Spezialangebot f&uuml;r St&auml;dtlif&uuml;hrungsgruppen finden Sie&nbsp; <a href=\"https://toggenburg.swiss/files/_OpenFrontend/websites/toggenburg.swiss/objects/pdf_download/ap%C3%A9ro_angebote_lichtensteig.pdf\" target=\"_blank\" rel=\"noopener\">hier.</a>&nbsp;</p>", "image": "https://ttpimtsoch.sos-ch-dk-2.exoscale-cdn.com/catalog/9/9/a/6/99a6afe18745696ca2770b4f52fc25acb11cf17a_Bild_Rebberg.jpg"}, "geometry": {"type": "Point", "coordinates": ["9.08722221851349", "47.32353424467902"]}}, {"type": "Feature", "properties": {"identifier": "d5cd9d46-c8ed-4045-b950-47359a477784", "name": "Steinmannli - Bergf\u00fchrer mit eidg. FA", "description": "Du m\u00f6chtest unsere sch\u00f6nen Alpen intensiv erleben? Endlich einen grossen Klassiker erklimmen? Eine Hochtour oder Skihochtour meistern? Bei einem Kurs die Basis erlernen oder dein Wissen vertiefen? Oder mit Freunden in einer Seilschaft \u00fcber einen Gletscher gehen? Ich f\u00fchre dich kompetent, zuverl\u00e4ssig und mit jahrelanger Erfahrung, im Sommer wie im Winter. \nIn den Bergen \u2013 inmitten der Tier- und Pflanzenwelt \u2013 l\u00e4sst sich der Alltag m\u00fchelos vergessen. Gerne begleite ich dich dabei.", "url": "https://steinmannli.ch/", "image": "https://ttpimtsoch.sos-ch-dk-2.exoscale-cdn.com/catalog/c/f/0/4/cf04f1fb187d9fb38a67bbb976ad507d8bb53406_Bruno_Boesch.jpg", "openstreetmap_id": "way/223211169"}, "geometry": {"type": "Point", "coordinates": ["9.252440929412844", "47.18514780078605"]}}, {"type": "Feature", "properties": {"identifier": "e42a2f95-f558-42f7-b822-76e65c266161", "name": "Die 4 U - Unterricht, Ueli, Untertor, Untergang", "description": "<p>An der Schlacht bei Lobositz am 1. Oktober 1756 nahm auch der Schweizer S&ouml;ldner Ulrich (<strong>Ueli</strong>) Br&auml;ker teil. In seiner Biografie beschrieb er das Erlebte eindr&uuml;cklich. Gottlieb Duttweiler kombinierte <strong>Unterricht </strong>mit Unterhaltung, ein Erfolgsmodell, welches in vielen &ouml;ffentlichen Schulen &uuml;bernommen wurde. Der Strukturwandel traf Lichtensteig hart. Der beinahe <strong>Untergang </strong>brachte jedoch auch viele Chancen. 1828 wurde das <strong>Untertor </strong>abgebrochen. Wegen der Kosten gab es Protest, viele Bewohner f&uuml;hlten sich &uuml;bergangen.</p><p><strong>Ap&eacute;ro<br></strong>Zur stimmigen Abrundung kommt ein feiner Ap&eacute;ro vor oder nach der F&uuml;hrung sehr gut an - unser Spezialangebot f&uuml;r St&auml;dtlif&uuml;hrungsgruppen finden Sie&nbsp; <a href=\"https://toggenburg.swiss/files/_OpenFrontend/websites/toggenburg.swiss/objects/pdf_download/ap%C3%A9ro_angebote_lichtensteig.pdf\" target=\"_blank\" rel=\"noopener\">hier.</a>&nbsp;</p>", "image": "https://ttpimtsoch.sos-ch-dk-2.exoscale-cdn.com/catalog/4/4/8/6/4486a21b5c06bf48a56262189560289453f20a3d_1KLASS_1.JPG"}, "geometry": {"type": "Point", "coordinates": ["9.08724367618561", "47.32347241941527"]}}, {"type": "Feature", "properties": {"identifier": "e5d8a14b-b2cf-4658-8144-cfab75a4fde8", "name": "Jost B\u00fcrgi-F\u00fchrung", "description": "<p>Jost B&uuml;rgi (1552 - 1632) war ein genialer Astronom, Mathematiker, Instrumentenbauer und Uhrmacher. Er geh&ouml;rt zu den bedeutensten Pers&ouml;nlichkeiten in seinen Fachgebieten. B&uuml;rgi schenkte der Welt die Sekunde und ist auch Entdecker eines Sternes am Firmament, der seinen Namen bekam. Symbolisch finden wir den B&uuml;rgistern als goldenen Stern in der Altstadt, dieser soll uns an das Universalgenie erinnern.</p><p>Das Universalgenie Jost B&uuml;rgi wurde im St&auml;dtli Lichtensteig geboren und ist nach einem reicherf&uuml;llten Leben in Kassel gestorben. Er wirkte in Kassel am F&uuml;rstenhof Wilhelm IV. und in Prag am Kaiserhof Rudolf II. und kam durch seine grosse Schaffenskraft zu h&ouml;chsten Ehren. Obwohl B&uuml;rgi nie eine Universit&auml;t besuchte, hat er das Universum neu geordnet. Der geniale Mathematiker baute nebst Uhren und Messinstrumente auch einzigartige Himmelsgloben. Nachdem Papst Gregor XIII. 1582 den Kalender samt Schalttag reformiert hatte, dauerte es nur vier Jahre bis B&uuml;rgi das erste mechanische System entwickelte, das die neue Zeitrechnung ber&uuml;cksichtigte. So baute er f&uuml;r Rudolf II. - Kaiser des Heiligen R&ouml;mischen Reiches in Prag - einen Himmelsglobus, der die Schaltjahre anzeigte.</p><p><strong>Ap&eacute;ro<br></strong>Zur stimmigen Abrundung kommt ein feiner Ap&eacute;ro vor oder nach der F&uuml;hrung sehr gut an - unser Spezialangebot f&uuml;r St&auml;dtlif&uuml;hrungsgruppen finden Sie&nbsp; <a href=\"https://toggenburg.swiss/files/_OpenFrontend/websites/toggenburg.swiss/objects/pdf_download/ap%C3%A9ro_angebote_lichtensteig.pdf\" target=\"_blank\" rel=\"noopener\">hier.</a>&nbsp;</p><p>&nbsp;</p>", "image": "https://ttpimtsoch.sos-ch-dk-2.exoscale-cdn.com/catalog/6/f/b/8/6fb863003f0511d6389a263cd777f044f2099b6a_IMG_20251103_111703.jpg"}}, {"type": "Feature", "properties": {"identifier": "ee77f805-7ade-4742-be1c-352716b3e10e", "name": "Krimi-F\u00fchrung", "description": "<p>W&auml;hrend der F&uuml;hrung besuchen Sie die verschiedenen Schaupl&auml;tze des in Lichtensteig handelnden Krimis und h&ouml;ren spannende Anekdoten und Geschichten dazu.&nbsp;</p><p><strong>Ap&eacute;ro<br></strong>Zur stimmigen Abrundung kommt ein feiner Ap&eacute;ro vor oder nach der F&uuml;hrung sehr gut an - unser Spezialangebot f&uuml;r St&auml;dtlif&uuml;hrungsgruppen finden Sie&nbsp; <a href=\"https://toggenburg.swiss/files/_OpenFrontend/websites/toggenburg.swiss/objects/pdf_download/ap%C3%A9ro_angebote_lichtensteig.pdf\" target=\"_blank\" rel=\"noopener\">hier.</a>&nbsp;</p>", "image": "https://ttpimtsoch.sos-ch-dk-2.exoscale-cdn.com/catalog/3/e/9/f/3e9f3dc86728032099bbfed4925a6f616cd883ca_Sascha_Erni___Lo__wen_2.jpeg"}, "geometry": {"type": "Point", "coordinates": ["9.08725440502167", "47.323461509067094"]}}]}