{"type": "FeatureCollection", "features": [{"type": "Feature", "properties": {"identifier": "00a73240-b8d0-4ed9-80af-87cc16f101ad", "name": "Caf\u00e9-Bar Bahnhof Unterwasser", "description": "Kaffee und Fr\u00fchst\u00fcck, heisse Sandwiches und erfrischende Cocktails: Die Caf\u00e9-Bar im neuen Bahnhof Unterwasser ist t\u00e4glich, freitags und samstags bis Mitternacht, ge\u00f6ffnet und bietet den perfekten Ort, um zusammen zu kommen.\n\nDie Caf\u00e9-Bar befindet sich im Bahnhof Unterwasser, entworfen von den Weltklasse Architekten Herzog & de Meuron, und bietet sowohl drinnen als auch draussen Pl\u00e4tze zum Verweilen. Die Caf\u00e9-Bar grenzt direkt an die Halle, in welcher die neue Standseilbahn in Unterwasser einf\u00e4hrt. Zus\u00e4tzlich lassen sich hier auch Spezialit\u00e4ten aus der Region finden und beispielsweise K\u00e4se als Mitbringsel mit nach Hause nehmen.", "url": "https://www.chaeserrugg.ch/de/cafe-bar-bahnhof-unterwasser", "image": "https://ttpimtsoch.sos-ch-dk-2.exoscale-cdn.com/catalog/2/c/3/a/2c3a7daf5503d6f1f5cb5dddf967ba9769009d99_web_241219_Bahnhof_Iltios_Selektion_8.jpg", "openstreetmap_id": "node/2305447464"}, "geometry": {"type": "Point", "coordinates": ["9.309121370315554", "47.194764931669525"]}}, {"type": "Feature", "properties": {"identifier": "04ba3f8e-37ee-468c-b0eb-42feb4a404cf", "name": "Neststube", "description": "<div><p>Am Freitag, 1. Mai, hat im Bergnest Wildhaus an der Hauptstrasse 99 die Neststube er&ouml;ffnet &ndash; ein kleines, gem&uuml;tliches Bistro f&uuml;r Hausg&auml;ste sowie f&uuml;r Einheimische und Besucher aus der Region.</p><p>Die Neststube steht f&uuml;r Einfachheit, Herzlichkeit und eine entspannte Atmosph&auml;re. Angeboten werden Kaffeespezialit&auml;ten, Getr&auml;nke, s&uuml;sse Backwaren, Patisserie sowie kleine Snacks (hausgemachte Flammkuchen und Hot Panini). Zudem wartet eine Glacetruhe mit mindestens 14 Sorten im Offenverkauf.</p><p>Besonders am Nachmittag und zum Feierabend l&auml;dt das Bistro zum Verweilen bei Kaffee, Ap&eacute;ro oder Feierabendbier ein. Die Gastgeber starten bewusst mit einem &uuml;berschaubaren Angebot, das Schritt f&uuml;r Schritt weiter ausgebaut wird.</p><p>Mit der Neststube entsteht ein neuer Treffpunkt im Dorf &ndash; offen f&uuml;r alle, unkompliziert und mit viel Herz gef&uuml;hrt.</p></div>", "url": "https://www.bergnest-wildhaus.ch", "image": "https://ttpimtsoch.sos-ch-dk-2.exoscale-cdn.com/catalog/a/a/e/1/aae1cbd7e733910af46f980c0ea913d423c21188_tempImagewvim3N.jpg", "openstreetmap_id": "way/223856388"}, "geometry": {"type": "Point", "coordinates": ["9.3411086", "47.2018357"]}}, {"type": "Feature", "properties": {"identifier": "0d800862-8200-40dc-b1e4-6b442b38785c", "name": "Toggenburger Brothandwerk Neu St. Johann", "description": "Das Toggenburger Brothanderk bietet neben den Klassischen Broten wie Ruchbrot mit Bergweizenmehl oder Roggenbrote auch ein Sommerzeit und ein Winterzeit Sortiment an.\nDa ist bestimmt f\u00fcr jeden etwas dabei. Gerne darf man vor Ort Degustieren.\n\nButtergipfel, Kernenbr\u00f6tchen, Frische Sandwiches und Hauseigene Spezialit\u00e4ten sind nat\u00fcrlich auch vorhanden.", "url": "https://www.brothandwerk.ch", "image": "https://ttpimtsoch.sos-ch-dk-2.exoscale-cdn.com/catalog/3/2/9/d/329d67df99d284e218ee0bcda5c0fcd03978cc30_qms3inn3.jpeg", "openstreetmap_id": "node/32513226"}, "geometry": {"type": "Point", "coordinates": ["9.194065332412722", "47.230048788893384"]}}, {"type": "Feature", "properties": {"identifier": "14eedca0-71cd-4dbb-b0a9-b75a314cd9d4", "name": "Kreative Tee- und Kaffeestube Tee&Mee", "description": "In stilvollem Ambiente k\u00f6nnen Sie bei uns im Toggenburg den &quot;Afternoon Tee&quot; geniessen. Leckeres Geb\u00e4ck wie Cupcakes, Brownies, Cookies und mehr erwartet Sie bei Tee&amp;Mee. \nSuchen Sie Ruhe oder eine kleine Auszeit in kreativer Umgebung, dann sind sie bei uns gut aufgehoben.", "url": "https://teeundmee.ch", "image": "https://ttpimtsoch.sos-ch-dk-2.exoscale-cdn.com/catalog/3/b/9/6/3b96b230dacb5ed11ede7aca95b64cf809a8a16b_IMG_2975__2.jpeg", "openstreetmap_id": "way/398479362"}, "geometry": {"type": "Point", "coordinates": ["9.073756600000001", "47.361558349999996"]}}, {"type": "Feature", "properties": {"identifier": "21c691e1-504c-4894-b043-2f4e663c8788", "name": "Skihaus Gamperfin", "description": "Ganzj\u00e4hrig ge\u00f6ffnet mit Restaurations- und Hotelbetrieb, folgt das innovative P\u00e4chterpaar Fabienne & Marcel Wessner stets ihrem Motto \"nat\u00fcrlich - eifach - echt\". Im Restaurant gibt's regionale und saisonale Produkte, welche mit viel Freude zu leckeren Speisen zubereitet werden. ", "url": "https://www.skihaus-gamperfin.ch/", "image": "https://ttpimtsoch.sos-ch-dk-2.exoscale-cdn.com/catalog/b/8/a/d/b8adfd9ae12711908c75225fd24c624aa06fb744_TOGGI_GAMPERFIN_jan17_RUPA_1096.jpg", "openstreetmap_id": "node/346266766"}, "geometry": {"type": "Point", "coordinates": ["9.379277229309084", "47.171379819354826"]}}, {"type": "Feature", "properties": {"identifier": "235f3181-fc95-4e52-8db2-fdbff19e73b7", "name": "B\u00e4ckerei Bleiker", "description": "<p>In unserer familiengef&uuml;hrten B&auml;ckerei leben wir echtes B&auml;ckerhandwerk &ndash; ehrlich, nachhaltig und mit Herz. Unsere Brote entstehen in sorgf&auml;ltiger Handarbeit, mit viel Zeit und Liebe zum Detail. Wir verwenden ausschliesslich nat&uuml;rliche Zutaten und bevorzugen Rohstoffe aus der Region, wann immer m&ouml;glich. Besonders stolz sind wir auf unsere Brote aus wertvollem Urdinkel &ndash; einer urspr&uuml;nglichen, n&auml;hrstoffreichen Getreidesorte, die f&uuml;r ihren Geschmack und ihre gute Vertr&auml;glichkeit gesch&auml;tzt wird. Tradition und Qualit&auml;t stehen bei uns im Mittelpunkt &ndash; ganz ohne industrielle Zus&auml;tze, daf&uuml;r mit Verantwortung gegen&uuml;ber Mensch, Natur und unserer Heimat. F&uuml;r uns ist Backen mehr als ein Beruf &ndash; es ist gelebte Leidenschaft, famili&auml;res Miteinander und das t&auml;gliche Streben nach echtem Geschmack.</p>", "url": "https://baeckerei-bleiker-ch", "image": "https://ttpimtsoch.sos-ch-dk-2.exoscale-cdn.com/catalog/d/b/e/f/dbef04a0e31ebe86d4e872d1ada89cf3fad01338_Bleiker_Zeichenfl__che_1_Zeichenfl__che_1.png", "openstreetmap_id": "way/465429934"}, "geometry": {"type": "Point", "coordinates": ["9.1132313", "47.3540722"]}}, {"type": "Feature", "properties": {"identifier": "2524149c-896d-41c6-9019-d214ba14d869", "name": "B\u00e4ckerei Konditorei Confiserie Caf\u00e9 Ziehler Stein", "description": "Wir sind ein Familienbetrieb in dritter Generation, legen Wert auf Tradition, Regionalit\u00e4t, Innovation und Menschlichkeit. Wir sind ein bunt durchmischter Haufen, vom Lehrling bis zum l\u00e4ngst pensionierten Mitarbeiter, der bestens aufeinander eingespielt ist.\n\nDas Summen unserer Betriebsamkeit zieht Geniesser vom ganzen Tal, sowie weit dar\u00fcber hinaus, an.\n\nInfrastruktur f\u00fcr Zweir\u00e4der:\n- E-Bike Ladestation\n- Wasserhahn der zur Verf\u00fcgung steht\n- Reifen aufpumpen", "url": "https://ziehler.ch/", "image": "https://ttpimtsoch.sos-ch-dk-2.exoscale-cdn.com/catalog/d/2/3/b/d23ba2389d8e5c695f144476002cf81a561b5133_b__ckerei_ziehler_220523_anninamilena001_Kopie.jpg", "openstreetmap_id": "node/5270308780"}, "geometry": {"type": "Point", "coordinates": ["9.22725", "47.19861"]}}, {"type": "Feature", "properties": {"identifier": "2e142f54-2010-4386-88ae-38c6d630c690", "name": "Alpwirtschaft Leser", "description": "Die Alpwirtschaft Leser erreichen Sie zu Fuss oder mit dem Bike. Oben angekommen, werden Sie mit einer einmaligen Aussicht auf den S\u00e4ntis belohnt. Ge\u00f6ffnet von Juli bis September. \n", "image": "https://ttpimtsoch.sos-ch-dk-2.exoscale-cdn.com/catalog/5/a/5/0/5a50237c64b0d29be6014001ca00c32f938f9df4_TT___Leser_2020.jpg", "openstreetmap_id": "node/228413147"}, "geometry": {"type": "Point", "coordinates": ["9.26127", "47.22057"]}}, {"type": "Feature", "properties": {"identifier": "2e1de345-60e8-4b51-a947-1471191286c4", "name": "Alpwirtschaft Wimpfel", "description": "Ganz nach dem Motto: \"efach aber herzlich\" bieten wir einfache, hausgemachte Speisen an. Beliebt ist unsere Gerstensuppe sowie das Wimpfel- Pl\u00e4ttli. Auf Anfrage bekochen wir unsere G\u00e4ste gerne mit w\u00e4hrschafter \u00c4lplerkost.\n\nBei Heuwetter und Ruhetagen steht Ihnen unsere Selbstbedienung zur Verf\u00fcgung. Wir danken f\u00fcr Ihr Verst\u00e4ndnis.\n\nAnfragen und Reservationen nehmen wir gerne telefonisch entgegen.", "url": "https://alp-wimpfel.ch/", "image": "https://ttpimtsoch.sos-ch-dk-2.exoscale-cdn.com/catalog/4/1/8/1/4181270c7364e3352b50792ca845f4f233e85b09_Alp_Wimpfel_3.PNG", "openstreetmap_id": "node/7156035769"}, "geometry": {"type": "Point", "coordinates": ["9.15290415287018", "47.33746976434874"]}}, {"type": "Feature", "properties": {"identifier": "32bf7c58-540e-4586-b057-028d98d8c47d", "name": "Kafi einzigartis...", "description": "Eingebettet in eine idyllische Umgebung, direkt am pl\u00e4tschernden Bach und in unmittelbarer N\u00e4he zu beliebten Bike- und Wanderwegen, ist das Kafi einzigartis der perfekte Ort f\u00fcr eine Pause voller Genuss und Inspiration.\n\nOb ein feines Fr\u00fchst\u00fcck (auf Voranmeldung), hausgemachte Desserts oder regionale Spezialit\u00e4ten \u2013 bei uns stehen Gem\u00fctlichkeit und Qualit\u00e4t an erster Stelle. F\u00fcr Kinder gibt es eine liebevoll eingerichtete Spielecke drinnen, einen Spielplatz direkt nebenan und einen Wickeltisch f\u00fcr die Kleinsten.\n\nTipp f\u00fcr Ausfl\u00fcgler: Kombinieren Sie Ihren Besuch im Kafi mit einem Bummel durch das charmante \"kleine Warenhaus\" Artis B\u00fcro & Freizeit AG. Dort finden Sie auf 120m2 eine sorgf\u00e4ltige Auswahl an Geschenk- und Papeterieartikeln, sch\u00f6ner Mercerie, stilvoller Lingerie und herzigen Kinderkleidern \u2013 ein wahres Paradies f\u00fcr kreative Schatzsucherinnen.\n\nZus\u00e4tzlich laden unsere Kreativworkshops dazu ein, selbst aktiv zu werden und Neues auszuprobieren \u2013 ideal f\u00fcr Gruppen, Familien oder einfach alle, die Lust auf etwas Besonderes haben.\n\nOb auf dem Familienausflug, der Radtour oder als kreativer Zwischenstopp \u2013 das Kafi einzigartis mit der Artis B\u00fcro & Freizeit AG ist ein Ausflugsziel, das Herz und Sinne anspricht.", "url": "https://www.artisag.ch/einzigartis/", "image": "https://ttpimtsoch.sos-ch-dk-2.exoscale-cdn.com/catalog/9/4/0/7/94072937cd384745fb62ea5642542bb633afb6c0_Garten_am_Bach.jpg", "openstreetmap_id": "node/12414061491"}, "geometry": {"type": "Point", "coordinates": ["9.0714171", "47.3605321"]}}, {"type": "Feature", "properties": {"identifier": "3650fd5d-7451-4b07-9b1e-9f0908391298", "name": "OSWALD, B\u00e4ckerei-Caf\u00e9-Konditorei", "description": "<p>Unser Sortiment umfasst eine breite Palette an Produkten, darunter verschiedene Sorten Brote und Br&ouml;tchen, regionale Spezialit&auml;ten sowie verschiedenste s&uuml;sse Leckereien. Zus&auml;tzlich laden wir Sie zu entspannten Momenten in unserem Caf&eacute; ein, wo Sie frische Backwaren, Kaffeespezialit&auml;ten und kleine herzhafte Snacks in gem&uuml;tlicher Atmosph&auml;re geniessen k&ouml;nnen.</p>\n<p>Das t&auml;glich wechselnde Angebot l&auml;dt Sie dazu ein, die lokale Backkunst zu entdecken &ndash; etwas mitzunehmen oder vor Ort zu konsumieren. Wir legen grossen Wert auf eine kompetente, freundliche Beratung und eine angenehme Atmosph&auml;re in Caf&eacute; und Laden, in der sich Kundinnen und Kunden gut aufgehoben f&uuml;hlen.</p>", "url": "https://www.baeckerei-oswald.ch", "image": "https://ttpimtsoch.sos-ch-dk-2.exoscale-cdn.com/catalog/2/1/6/3/2163214da6039ef36908d6deb178e3809f53157c_P4090004__2.JPG", "openstreetmap_id": "way/308770135"}, "geometry": {"type": "Point", "coordinates": ["9.0687103", "47.4102833"]}}, {"type": "Feature", "properties": {"identifier": "3dc366fa-f31f-417b-b060-2ffe2839fcdf", "name": "Berggasthaus Rotsteinpass", "description": "Geniessen Sie ein feines Bergmen\u00fc in unserer heimeligen Gaststube oder auf der Terasse mit einer gigantischen Aussicht. Wir bedienen Sie gerne mit einem st\u00e4rkenden Menu oder einem erfrischenden Getr\u00e4nk.\n\nZudem verf\u00fcgt das Berggasthaus \u00fcber 80 Matratzenlagerpl\u00e4tze, zwei Doppelzimmer und ein Vierbettzimmer, welche mit Fr\u00fchst\u00fcck oder als Halbpension gebucht werden k\u00f6nnen.", "image": "https://ttpimtsoch.sos-ch-dk-2.exoscale-cdn.com/catalog/b/e/2/4/be242415a5caa183533b999729bb6ae816985a34_DSC02762__002_.JPG", "openstreetmap_id": "node/184748934"}, "geometry": {"type": "Point", "coordinates": ["9.365072250366213", "47.24301295305826"]}}, {"type": "Feature", "properties": {"identifier": "40473de1-aea1-4772-adcc-4ec078b60fdd", "name": "Hotel Restaurant Sternen", "description": "<p>Das Hotel-Restaurant Sternen liegt Zentral im Dorf Nesslau. In der N&auml;he sind Bahnhof, Post, Einkaufsm&ouml;glichkeiten. Bekannt f&uuml;r diverse Events. (Party-Time, kulinarische Themenabende etc.)</p><p>&nbsp;</p><p>Auskunft zur Zug&auml;nglichkeit:&nbsp;<a href=\"https://www.ginto.guide/entries/257ffbab-55f8-4aed-a9d0-b831aeb52764?lnk_src=business\" target=\"_blank\" rel=\"noopener\">ginto</a></p>", "url": "https://www.sternen-nesslau.ch/", "image": "https://ttpimtsoch.sos-ch-dk-2.exoscale-cdn.com/catalog/6/6/a/c/66ac3a7e7ace62997586bf4a2ff133661572cae7_2020_Nesslau_3.jpg", "openstreetmap_id": "node/3499725474"}, "geometry": {"type": "Point", "coordinates": ["9.1990226", "47.2240571"]}}, {"type": "Feature", "properties": {"identifier": "43704131-0303-4546-8163-92a3d0912114", "name": "Bergrestaurant Wolzenalp", "description": "<p>Die Men&uuml;karte im Berggasthaus bietet eine ausgewogene regionale K&uuml;che f&uuml;r Gross und Klein: Von den w&auml;hrschaften Ch&auml;sh&ouml;rnli und der Siedwurst &uuml;ber R&ouml;stivarianten bis zum hausgemachten Toggenburger Schlorzifladen. Die Portionen sind grossz&uuml;gig, der Geschmack vorz&uuml;glich und die Preise fair. F&uuml;r Ihre Familienfeier, Ihre Vereins- und Gruppenanl&auml;sse stellen wir gerne ab 18 Personen bzw. 15 Personen Ihr gew&uuml;nschtes Buffet zusammen oder den Grill f&uuml;r die Spiessli bereit. Die Buffetvorschl&auml;ge sind ausschliesslich w&auml;hrend des Sommerhalbjahres von Mai bis Oktober erh&auml;ltlich. Teilen Sie uns Ihre W&uuml;nsche mit - wir werden Sie nach M&ouml;glichkeit erf&uuml;llen. Sehr beliebt bei den G&auml;sten ist der Sonntagsbrunch. Selbstverst&auml;ndlich k&ouml;nnen Sie auch an Wochenenden und w&auml;hrend den Schulferien des Sommerhalbjahres auch werktags und mit kleineren Gruppen auf Voranmeldung bei uns brunchen. Wir servieren Ihnen das Fr&uuml;hst&uuml;ck direkt an den Tisch. Im Winter muss es manchmal schnell gehen, wenn der Hunger unserer Skig&auml;ste gross ist. Unser Wintermen&uuml; unterscheidet sich vom Sommerangebot. Beliebt bei Familien ist die \"Familienplatte\", die prall gef&uuml;llt ist mit Pommes, Schnitzeln, Chicken Nuggets, Wienerli und Bratwurst.</p><p>&nbsp;</p><p>Auskunft zur Zug&auml;nglichkeit:&nbsp;<a href=\"https://www.ginto.guide/entries/9d222a5c-bd24-4902-b820-9573f3afcdc8?lnk_src=business\" target=\"_blank\" rel=\"noopener\">ginto</a></p>", "url": "http://www.wolzenalp.ch", "image": "https://ttpimtsoch.sos-ch-dk-2.exoscale-cdn.com/catalog/5/3/3/3/5333126eb011af64f535dda5e38776c5c0fe57dc_Bergrestaurant_Wolzenalp_Terrasse.jpg", "openstreetmap_id": "628124797"}, "geometry": {"type": "Point", "coordinates": ["9.1554536", "47.2259306"]}}, {"type": "Feature", "properties": {"identifier": "4412d979-a3ac-44b0-b50a-f5dc4120a8e0", "name": "Berggasthaus Fuchsacker", "description": "Herzlich Willkommen im  Berggasthaus Fuchsacker!\nUnser G\u00e4stehaus liegt am Rand des sch\u00f6nen Appenzeller Landes.\nWir liegen auf 969 m H\u00f6he, von wo Sie einen ergreifenden Blick auf den Alpstein haben. Sie sehen vom Hohen Kasten \u00fcber den Kronberg bis zum S\u00e4ntis das ganze Panorama.\nIn unsrem sch\u00f6nen G\u00e4stehaus haben wir Familien- / und Doppelzimmer.\nUnser gem\u00fctlicher Saal eignet sich perfekt f\u00fcr:\nEgal ob Hochzeiten, Geburtstage oder Firmenanl\u00e4sse. Egal ob Kr\u00e4uterschweinfilet, Schnitzel Pommes oder Fondue, wir haben die perfekte Location f\u00fcr Sie. Leckeres Essen, guter Wein und das Beste? Ein Blick auf die atemberaubende Bergkulisse! Unser Team wird daf\u00fcr sorgen, dass Ihre Party unvergesslich wird. Kontaktieren Sie uns heute, um Ihren Anlass bei uns zu planen.", "url": "http://fuchsacker.ch/", "image": "https://ttpimtsoch.sos-ch-dk-2.exoscale-cdn.com/catalog/8/c/b/e/8cbe19708313b1ecd2806fc7daabf564a5e11143_IMG_0887__2.jpg", "openstreetmap_id": "node/325151446"}, "geometry": {"type": "Point", "coordinates": ["9.2070119", "47.361029"]}}, {"type": "Feature", "properties": {"identifier": "469905fa-8539-4b18-b092-714b61a8d415", "name": "Caf\u00e9 Fortuna", "description": "<p>Wir legen grossen Wert auf guten Kaffee. Bei uns finden Sie eine grosse Auswahl an speziellen Schweizer Getr&auml;nken, wie B&auml;nz-Apfels&auml;fte, Durscher Sirup usw. Wir beziehen unsere Produkte, wenn m&ouml;glich von regionalen Betrieben.</p><p>&nbsp;</p><p>Auskunft zur Zug&auml;nglichkeit:&nbsp;<a href=\"https://www.ginto.guide/entries/97dd93fa-f3e5-4ff5-9cb8-9f25a066639f?lnk_src=business\" target=\"_blank\" rel=\"noopener\">ginto</a></p>", "url": "https://www.cafefortuna.ch/", "image": "https://ttpimtsoch.sos-ch-dk-2.exoscale-cdn.com/catalog/9/a/1/7/9a173cc2d7f7ba15debce5b8af10a04fcacd641f_Unterwasser_Caf___Fortuna.jpg", "openstreetmap_id": "node/883094034"}, "geometry": {"type": "Point", "coordinates": ["9.308354258537294", "47.1968758572793"]}}, {"type": "Feature", "properties": {"identifier": "4778c01d-f205-4f60-bd4d-d77e36477246", "name": "Toggenburg Distillery", "description": "<p>Get&uuml;ftelt, designt und als BERMONTIS GmbH gegr&uuml;ndet im Jahr 2018 stehen wir heute f&uuml;r auserlesenen fl&uuml;ssigen Kr&auml;utergenuss aus dem Toggenburg. Ob in Form von &ldquo;BERMONTIS &ndash; Fruchtiger Kr&auml;uterlik&ouml;r&rdquo;, &ldquo;BERMONTIS &ndash; Kr&auml;uterfondue&rdquo; oder jetzt auch neu mit &ldquo;TOGGIUS &ndash; Bio Dry Gin&rdquo;, stets mit dem Handwerk und der Regionalit&auml;t vor Augen. Produziert im wundersch&ouml;nen Toggenburg, von welchem wir uns auch immer wieder f&uuml;r unsere Produkte inspirieren lassen. Als Toggenburg Distillery GmbH durften wir im Fr&uuml;hling 2023 im gleichen Geb&auml;ude wie die Brauerei St.Johann in Neu St.Johann unsere eigene Distillery und Eventlocation er&ouml;ffnen.</p><p>In unserer Produktion und Eventlocation bieten wir einzigartige Erlebnisse, F&uuml;hrungen und Degustationen sowie auch Gin- &amp;amp; Cocktail-Workshops an. Von einfachen bis exklusiven F&uuml;hrung, mit oder ohne kulinarische Begleitung, wir sind f&uuml;r alle Ideen offen. Packages auf unserer Website.&nbsp;</p><p>Des Weiteren kann unsere Eventtheke auch als Seminarraum f&uuml;r dich und deine Firma gemietet werden.</p>", "url": "https://www.toggenburg-distillery.ch", "image": "https://ttpimtsoch.sos-ch-dk-2.exoscale-cdn.com/catalog/f/1/4/d/f14d2a8aa995c9332f0f32d3f00b8cd433c9f60f_Toggenburg_Distillery_F__hrung__2.jpg", "openstreetmap_id": "node/382698673"}, "geometry": {"type": "Point", "coordinates": ["9.196313023567201", "47.22874512549"]}}, {"type": "Feature", "properties": {"identifier": "61b4fd52-1959-4256-ba60-677c5b00cc35", "name": "Krone Mosnang", "description": "<p>FEIERN Es freut uns sehr, mit dem neuen kroneSAAL viel Platz und moderne Gem&uuml;tlichkeit f&uuml;r gediegene Festlichkeiten im gr&ouml;sseren und kleineren Rahmen anbieten zu d&uuml;rfen. Ob Geburtstagsfest, Ap&eacute;ro, Familienfeier, Vereinstreffen oder Hochzeit - wir verw&ouml;hnen Sie rundum mit unseren saisonalen und regionalen Gerichten. TAGEN Die Krone Mosnang ist der ideale Ort f&uuml;r Tagungen, Seminare, Workshops oder Referate. Mit mehreren R&auml;umen unterschiedlichster Art und der neu erstellten kroneLODGE k&ouml;nnen wir Ihnen alles bieten, was Sie f&uuml;r Ihren Anlass ben&ouml;tigen. SCHLAFEN &Uuml;bernachten Sie in unserem modernen G&auml;stehaus, der kroneLODGE. In 10 gem&uuml;tlichen und stilvollen Zweibettzimmern bieten wir die ideale &Uuml;bernachtungsm&ouml;glichkeit. Tr&auml;umen Sie sch&ouml;n... Infrastruktur Zweir&auml;der: - Ladem&ouml;glichkeiten E-Bikes drinnen und draussen - kroneLODGE bietet abschliessbaren Veloraum mit Strom f&uuml;r Lodge G&auml;ste an.</p><p>&nbsp;</p><p>Auskunft zur Zug&auml;nglichkeit: <a href=\"https://www.ginto.guide/entries/3a1bf073-af40-4cd2-8f5f-7addd45a9a18?lnk_src=business\" target=\"_blank\" rel=\"noopener\">ginto</a></p>", "url": "http://www.kronemosnang.ch", "image": "https://ttpimtsoch.sos-ch-dk-2.exoscale-cdn.com/catalog/f/8/0/8/f808cbf58a4eee7f89b4e81536251689cbeee525_kroneLODGE_Mosnang_1.jpg", "openstreetmap_id": "node/9038093055"}, "geometry": {"type": "Point", "coordinates": ["9.041178", "47.364081"]}}, {"type": "Feature", "properties": {"identifier": "6282ff01-9450-4dc6-9aa2-7b57b867cb8c", "name": "Bergrestaurant Iltios", "description": "<p>In der sch\u00f6nen Bergwelt des Iltios, in der Mitte des Klangweges und direkt an der Skipiste, auf einem sonnigen Plateau, steht das weitaus bekannte Bergrestaurant Iltios. Mit der grossz\u00fcgigen Terrasse von 300 Pl\u00e4tzen, angrenzend an unseren sch\u00f6nen Kinderspielplatz servieren wir Ihnen urchige Speisen. Im Restaurant verf\u00fcgen wir \u00fcber 70 Pl\u00e4tze, davon 30 mit direktem Ausblick auf den S\u00e4ntis und das Obertoggenburg. Im Panoramasaal stehen Ihnen 100 Pl\u00e4tze mit Rundsicht zur Verf\u00fcgung. Das Bergrestaurant Iltios ist barrierefrei zug\u00e4nglich.</p><p>\u00a0</p><p>Auskunft zur Zug\u00e4nglichkeit:\u00a0<a href=\"https://www.ginto.guide/entries/3f439469-8eb8-4327-a885-78ced67a2a94?lnk_src=business\">ginto</a></p>", "url": "https://www.chaeserrugg.ch/de", "image": "https://ttpimtsoch.sos-ch-dk-2.exoscale-cdn.com/catalog/1/6/e/6/16e602a2dbde5381b9b2b5714f238cab6f0447e8_TT_Station_Iltios_Sommer_2019__2.jpg", "openstreetmap_id": "node/243721697"}, "geometry": {"type": "Point", "coordinates": ["9.3125392", "47.1851567"]}}, {"type": "Feature", "properties": {"identifier": "65073e3d-6225-4569-b853-60811c612854", "name": "Gipfelrestaurant Ch\u00e4serrugg", "description": "<p>Ein Ort der Ruhe und des Genusses Hoch oben auf dem Ch\u00e4serrugg, dem \u00f6stlichsten der sieben Churfirsten, erwartet Sie das Gipfelrestaurant Ch\u00e4serrugg. Auf 2'262 Metern \u00fcber Meer bietet es nicht nur kulinarische H\u00f6hepunkte, sondern auch einen atemberaubenden Panoramablick \u00fcber sechs L\u00e4nder. Ob bei strahlendem Sonnenschein oder mystischem Nebel \u2013 hier erleben Sie eindr\u00fcckliche Momente inmitten der alpinen Landschaft. Architektur im Einklang mit der Natur Das von Herzog & de Meuron entworfene Gipfelgeb\u00e4ude f\u00fcgt sich harmonisch in die Bergwelt ein. Verwendet wurden unbehandelte H\u00f6lzer aus der Schweiz \u2013 Fichte und Esche \u2013 die der Architektur eine schlichte Eleganz und regionale Authentizit\u00e4t verleihen. Die grossz\u00fcgigen Fensterfronten er\u00f6ffnen spektakul\u00e4re Ausblicke, w\u00e4hrend die durchdachte Raumgestaltung sowohl R\u00fcckzugsorte als auch gesellige Pl\u00e4tze schafft. Rahmenprogramme f\u00fcr unvergessliche Erlebnisse Die Hochebene Rosenboden l\u00e4dt zu gem\u00fctlichen Wanderungen ein. Der Panoramarundweg bietet faszinierende Ausblicke auf \u00fcber 500 Berggipfel und den Walensee. F\u00fcr Interessierte werden Architekturf\u00fchrungen angeboten, die spannende Einblicke in die Entstehung und Gestaltung des Gipfelgeb\u00e4udes geben. Anreise \u2013 bequem und barrierefrei Die Anreise zum Ch\u00e4serrugg gestaltet sich komfortabel: Von Unterwasser gelangen Sie mit der Standseilbahn nach Iltios und von dort mit der Luftseilbahn direkt zum Gipfel. Beide Bahnen sind rollstuhlg\u00e4ngig, und auch das Gipfelgeb\u00e4ude.</p><p>Auskunft zur Zug\u00e4nglichkeit: <a href=\"https://www.ginto.guide/entries/2f369494-dd11-48ba-89d2-437c7260d357?lnk_src=business\" target=\"_blank\" rel=\"noopener\">ginto</a></p><p>\u00a0</p>", "url": "http://www.chaeserrugg.ch/", "image": "https://ttpimtsoch.sos-ch-dk-2.exoscale-cdn.com/catalog/f/9/c/7/f9c782007d61e32da1bd1861cc07ce9fd8b75a6c_0000660_chaeserrugg_shooting_am_S_24.jpg", "openstreetmap_id": "node/243721699"}, "geometry": {"type": "Point", "coordinates": ["9.312517031027447", "47.155192816331585"]}}, {"type": "Feature", "properties": {"identifier": "705ba7bc-9080-45fd-b887-337df1196c68", "name": "Gasthaus Bad", "description": "In den sanften H\u00fcgeln des Toggenburgs, umgeben von majest\u00e4tischen Bergen und \u00fcppigen W\u00e4ldern, liegt das Gasthaus Bad Hemberg wie ein verborgener Schatz. Die Geschichte dieses Gasthauses reicht weit zur\u00fcck, in eine Zeit, als Reisende noch auf Pferden ritten und die Wege durch die T\u00e4ler von Geschichten \u00fcber alte Sagen und Legenden erf\u00fcllt waren.\n\nHeute erwartet Sie Gastfreundschaft und gutb\u00fcrgerliches Essen im idyllisch gelegenen Gasthaus Bad Hemberg. Es gibt eine kleine, aber feine Men\u00fckarte mit frischen Zutaten aus der Region und einfache, preiswerte \u00dcbernachtungsm\u00f6glichkeiten.", "url": "https://www.gasthausbad-hemberg.ch/", "image": "https://ttpimtsoch.sos-ch-dk-2.exoscale-cdn.com/catalog/6/2/c/b/62cb494f0ccb74048abfcc471531dc4e776f04e0_IMG_2024_06_04_12_16_32_355.jpg", "openstreetmap_id": "way/122064417"}, "geometry": {"type": "Point", "coordinates": ["9.167572623149695", "47.2900226"]}}, {"type": "Feature", "properties": {"identifier": "72d7a02c-1690-4dad-87b9-d029ced5ee85", "name": "Caf\u00e9 Central", "description": "Wir sind ein willkommenes Ausflugsziel und ein Treffpunkt f\u00fcr Wanderer, Velo- und T\u00f6fffahrer sowie Familien im sonnenverw\u00f6hnten Kirchberg. Wir fertigen die ortsbekannten Desserts und Bircherm\u00fcsli nach traditionellen Rezepten selbst. Das Caf\u00e9 Central ist ein Ort der pers\u00f6nlichen Begegnungen, des Austauschs und der Geselligkeit. Bei uns geniessen Sie eine entspannte Zeit bei Zn\u00fcni, Mittagessen, Kaffee &amp; Kuchen, einem s\u00fcssen oder salzigen Zvieri. Auch unser Brunch und unsere Anl\u00e4sse sind einen Besuch wert.", "url": "https://central-kirchberg.ch", "image": "https://ttpimtsoch.sos-ch-dk-2.exoscale-cdn.com/catalog/b/c/0/2/bc02c02eeae1404858997cb5a4184901a68895ac_Cafe_Central_5.jpg", "openstreetmap_id": "way/443221415"}, "geometry": {"type": "Point", "coordinates": ["9.039407547862178", "47.4111488"]}}, {"type": "Feature", "properties": {"identifier": "72ed6fb8-7040-4105-af68-95fe4f179c85", "name": "Buurebeizli Dergeten", "description": "<p>Die K&auml;sekn&ouml;pfli und der selbstgemachte Eistee von Familie Stauffacher haben sich herumgesprochen. Einheimische wie ausw&auml;rtige Besucher finden sich im &laquo;Buurebeizli Dergeten&raquo; zu einem guten Essen ein. Die Gastwirtschaft ist rustikal mit Spielplatz und Buurehof zum Aluege. Buchbar: Ganzj&auml;hrig per Telefon oder Mail, Personen: Innen 40 / Aussen 50</p><p>&nbsp;</p><p>Auskunft zur Zug&auml;nglichkeit: <a href=\"https://www.ginto.guide/entries/a190756a-143d-48c4-a940-8dbf4a97b916?lnk_src=business\" target=\"_blank\" rel=\"noopener\">ginto</a></p>", "url": "http://www.buurebeizli-dergeten.ch", "image": "https://ttpimtsoch.sos-ch-dk-2.exoscale-cdn.com/catalog/6/4/e/5/64e5dd8fdba942983ff0e32bdfbdc97b71fd1fb7_DJI_0041.JPG", "openstreetmap_id": "5696182430"}, "geometry": {"type": "Point", "coordinates": ["9.1897258", "47.1932008"]}}, {"type": "Feature", "properties": {"identifier": "7e77fc5b-c5a8-4254-91e5-23f131c601a0", "name": "Restaurant Krone Ennetb\u00fchl", "description": "<p>Bei uns k&ouml;nnen Sie ein preiswertes Mittagsmenu, etwas aus der Speisekarte, einen feinen Coupe oder den wohlverdienten Feierabend geniessen. Wir pflegen gerne den Kontakt mit unseren G&auml;sten, denn Ihr Wohl ist uns wichtig. Mit unseren verschiedenen R&auml;umlichkeiten haben wir f&uuml;r jeden Anlass das richtige Angebot. Daf&uuml;r stellen wir Ihnen gerne passende Menuvorschl&auml;ge zusammen, bei welchen wir immer grossen Wert auf Qu&auml;lit&auml;t und Regionalit&auml;t legen.&nbsp;</p><p>Wir freuen uns &uuml;ber Ihren Besuch!</p>", "url": "http://www.krone-ennetbuehl.ch/", "image": "https://ttpimtsoch.sos-ch-dk-2.exoscale-cdn.com/catalog/2/2/3/3/22336121356a66b737b41bcaeddc8741eaa5482f_00_Restaurant_Krone__2.jpg", "openstreetmap_id": "node/220648991"}, "geometry": {"type": "Point", "coordinates": ["9.21149", "47.24076"]}}, {"type": "Feature", "properties": {"identifier": "8b6c874b-d5a6-4ef0-80bd-6cb4a55530bb", "name": "B\u00e4ckerei und Caf\u00e9 - Ziehlers W\u00f6schh\u00fcsli in Nesslau", "description": "Direkt an der Hauptstrasse von Nesslau, im Herzen des Dorfes. Zwischen Kirche und der Gemeinde, befindet sich unser neu er\u00f6ffnetes W\u00f6schh\u00fcsli. Ein Ort mit bestem Kaffee, feinsten K\u00f6stlichkeiten von unserem Hauptstandort Ziehler in Stein SG und einer gem\u00fctlich einladenden Atmosph\u00e4re, l\u00e4dt herzlichst zum Verweilen ein. Mieten Sie unseren separaten Raum, oberhalb von unserem Caf\u00e9. Das Sie mitten drin in unserem wundersch\u00f6nen Toggenburg sind und trotzdem ihren eigenen Raum haben. Ob f\u00fcr einen Hochzeitsap\u00e9ro, als Sitzungsraum, Geburtstagsfestli oder Puzzleplausch. Unser liebevoll eingerichtetes Ambiente passt sich hervorragend ihren Ideen an! Wir freuen uns \u00fcber jede Anfrage die Ihnen in den Sinn kommt.", "url": "https://ziehler.ch/", "image": "https://ttpimtsoch.sos-ch-dk-2.exoscale-cdn.com/catalog/f/3/2/1/f321708bff3a34455df3852bd318418e7bf52c49_11___bildgut_ziehler08345_LQ__2.jpg", "openstreetmap_id": "way/1340007521"}, "geometry": {"type": "Point", "coordinates": ["9.199530094066013", "47.22480575"]}}, {"type": "Feature", "properties": {"identifier": "8e1a4395-a956-4d2e-946f-ce50642e49fb", "name": "K\u00e4se Restaurant Berghof", "description": "Unsere K\u00fcche ist bekannt f\u00fcr gutb\u00fcrgerliches Essen mit verschiedenen K\u00e4sespezialit\u00e4ten und anderen leckeren Mahlzeiten. In der Bio-K\u00e4serei produzieren wir verschiedene Bio-K\u00e4sespezialit\u00e4ten und bieten diese zum Kauf im Restaurantladen an. In der urchigen Berghof-Degu-Sch\u00fc\u00fcr ist Platz f\u00fcr 80 Personen. Sie ist mit modernster Infrastruktur eingerichtet und bietet Platz f\u00fcr jeden Anlass. Kommen Sie zu uns, wir haben immer etwas passendes f\u00fcr Sie. Es freut sich Melchior und Vreni mit Karin Schoch und das Berghofteam.", "url": "http://www.berghof-ag.ch", "image": "https://ttpimtsoch.sos-ch-dk-2.exoscale-cdn.com/catalog/3/0/6/e/306e93c08ad78c14b848094efb321f0283c62a89_wohnmobilstellplatz_restaurant_k__serei_berghof_413551.jpg", "openstreetmap_id": "node/2229095777"}, "geometry": {"type": "Point", "coordinates": ["9.0918189", "47.3663522"]}}, {"type": "Feature", "properties": {"identifier": "91e8e76f-99f2-4aef-b317-cd893b674c60", "name": "Skiclubh\u00fctte Altschen", "description": "<div><p>Vom Arvenb&uuml;el aus erreichst du die Skiclubh&uuml;tte Altschen auf einem rund 30\u2011min&uuml;tigen, gut begehbaren Wanderweg in Richtung Vordere H&ouml;hi. Der Weg f&uuml;hrt durch eine abwechslungsreiche Landschaft mit offenen Wiesen und immer wieder sch&ouml;nen Ausblicken auf die umliegende Bergwelt. Besonders an klaren Tagen lohnt es sich, einen Moment innezuhalten und die Ruhe sowie die frische Bergluft zu geniessen.</p><p>Die Skiclubh&uuml;tte Altschen selbst liegt idyllisch eingebettet inmitten der Natur und l&auml;dt zum Verweilen ein &ndash; ob als Zwischenstopp f&uuml;r eine kleine St&auml;rkung oder als Ziel einer gem&uuml;tlichen Wanderung. Die H&uuml;tte bietet eine angenehme Atmosph&auml;re f&uuml;r Erholungssuchende, Familien und Sportbegeisterte gleichermassen.</p><p>Von hier aus er&ouml;ffnen sich zahlreiche weitere Wanderm&ouml;glichkeiten in verschiedene Richtungen. Ambitionierte Wanderer k&ouml;nnen ihre Tour ausdehnen und die umliegenden Gipfel oder H&ouml;henwege erkunden, w&auml;hrend Genusswanderer die sanfteren Routen bevorzugen k&ouml;nnen.</p><p>Ebenfalls ist die H&uuml;tte ein beliebter Stopp f&uuml;r die Velotour ins Toggenburg. Viele Biker sch&auml;tzen die Strecke wegen ihrer abwechslungsreichen Abschnitte und der herrlichen Aussicht. Die Kombination aus sportlicher Aktivit&auml;t und landschaftlicher Sch&ouml;nheit macht diesen Ort zu einem attraktiven Ziel f&uuml;r Naturliebhaber.</p></div>", "url": "https://www.amden-weesen.ch/gastronomie/skiclubhuette-altschen-9e612aa0c8", "image": "https://ttpimtsoch.sos-ch-dk-2.exoscale-cdn.com/catalog/e/c/c/e/ecce4f148270431e48b1700282f70a8ae1ecae82_amden_restaurant.jpg", "openstreetmap_id": "way/195802103"}, "geometry": {"type": "Point", "coordinates": ["9.1859442", "47.1601472"]}}, {"type": "Feature", "properties": {"identifier": "94080953-9f21-4280-a2e2-29e8f640e7ce", "name": "Gasthaus Hulftegg", "description": "<p>Ab Hotel Wanderparadies zu den 7 Bergbeizli, Hulftegg Rundweg auch im Winter unterhalten. Panorama-Terrasse mit Blick ins Toggenburg bis zum Bodensee. Velo und Motorradtreff. Zentral f&uuml;r Ausfl&uuml;ge Z&uuml;rich - Ostschweiz. Sonntags Brunch. Ideal auch f&uuml;r Tagesseminare. Menus f&uuml;r Gruppen (Cars, Vereine etc.)</p><p>&nbsp;</p><p><span data-teams=\"true\">Auskunft zur Zug&auml;nglichkeit: <a href=\"https://www.ginto.guide/entries/E9861A3E-A151-4CDD-BB63-CB4F956CFF4E?lnk_src=business\" target=\"_blank\" rel=\"noopener\">ginto</a></span></p>", "url": "http://www.hulftegg.ch/", "image": "https://ttpimtsoch.sos-ch-dk-2.exoscale-cdn.com/catalog/e/3/a/0/e3a0909413632d44ca0c4ced2a6831459b4acc5e_Hulftegg7.jpg", "openstreetmap_id": "node/318307967"}, "geometry": {"type": "Point", "coordinates": ["8.9672148", "47.3633029"]}}, {"type": "Feature", "properties": {"identifier": "987aeef1-6fce-4f6a-9186-bdb97dac0656", "name": "Berggasthaus St\u00f6feli", "description": "Sich mitten im Ch\u00e4serrugg-Gebiet zur\u00fcckziehen, den Sonnenuntergang aus der Stube geniessen, den Tag bei einem Fondue ausklingen lassen und tief schlafen in gepflegten Zimmern mit gem\u00fctlicher Atmosph\u00e4re. Im Winter ist es mit den Ski oder der Gondelbahn und im Sommer zu Fuss oder mit der Luftseilbahn zu erreichen.", "url": "http://www.chaeserrugg.ch/", "image": "https://ttpimtsoch.sos-ch-dk-2.exoscale-cdn.com/catalog/7/3/d/e/73de34c2c14682eae4883b16c5e7d434749b11ff_TT_Berggasthaus_Stoefeli_Smmer_2019_3.jpg", "openstreetmap_id": "node/205956001"}, "geometry": {"type": "Point", "coordinates": ["9.312350700000025", "47.1715985"]}}, {"type": "Feature", "properties": {"identifier": "aa45e1bd-a179-4584-b7b9-2fb7b296ab3a", "name": "Bergwirtschaft K\u00f6belisberg", "description": "Nach ca. 45 Gehminuten erreicht man die Bergwirtschaft K\u00f6belisberg. Ab Parkplatz Burg (n\u00e4he Wasserfluh). Entsch\u00e4digt f\u00fcr den einfachen Aufstieg wird man mit einem wundersch\u00f6nen Panorama. Im Winter darf man sich den Fondue- oder Raclettplausch vor einer rasanten Schlittelfahrt nicht entgehen lassen. Im Sommer werden Sie mit einem K\u00f6beli-Teller verw\u00f6hnt. Unser neues Massenlager bietet Platz f\u00fcr 10 Personen. Geniessen Sie ein feines Essen und staunen \u00fcber das Sternenpanorama. Am n\u00e4chsten Morgen sind Sie als Erster auf dem Berg und haben vielleicht noch die Gelegenheit scheues Wild zu beobachten und dann ein reichhaltiges Fr\u00fchst\u00fcck zu geniessen.", "url": "https://koebelisberg.com/", "image": "https://ttpimtsoch.sos-ch-dk-2.exoscale-cdn.com/catalog/4/d/a/6/4da644b151104cde48b85eb26ca06ca85e673b72_K__belisberg07_Juni2018_TT.jpg", "openstreetmap_id": "node/373704829"}, "geometry": {"type": "Point", "coordinates": ["9.1094641", "47.3139253"]}}, {"type": "Feature", "properties": {"identifier": "b02d6372-dd9b-4716-9ab3-89a4ba560d51", "name": "Brauerei St. Johann", "description": "Die Brauerei St. Johann steht seit 2012 f\u00fcr Bierkultur im Toggenburg. Handwerklich gebraute Spezialbiere h\u00f6chster Qualit\u00e4t f\u00fcr den Genuss Zuhause, im Restaurant oder in der Brauereibar & im Biergarten erfreuen sich grosser Beliebtheit. Rund 1100 Bierliebhaberinnen & -liebhaber sind begeisterte Mitbesitzer der Brauerei St. Johann\n\nWollen Sie wissen, wie im Toggenburg Bier gebraut wird? An der Brauereif\u00fchrung erfahren Sie, wie aus Wasser, Malz, Hopfen und Hefe Bier entsteht und werfen einen Blick in den Braukeller. F\u00fchrung durch die Brauerei inklusive Lagerkellerdegustation.\n\n", "url": "https://www.brauereistjohann.ch/", "image": "https://ttpimtsoch.sos-ch-dk-2.exoscale-cdn.com/catalog/d/3/1/9/d319e19bc11fca1ca23cbc256d405aedcd2535a6_IMG_0859.jpg", "openstreetmap_id": "node/3499725481"}, "geometry": {"type": "Point", "coordinates": ["9.1966349", "47.228962"]}}, {"type": "Feature", "properties": {"identifier": "b12d54a6-ca18-4d07-9c34-2fb1ec9c3442", "name": "MAJO - Pop-up-Restaurant", "description": "Im MAJO wird Slow-Food-Philosophie gelebt \u2013 beim spontanen Snack, beim raffinierten Vier-Gang-Men\u00fc. MAJO ist ein Ort der Begegnung, an dem die Tische f\u00fcr Gemeinschaft, Genuss und Geschichten gedeckt werden. Ein Ort, an dem Nachhaltigkeit mit kulinarischem Vergn\u00fcgen Hand in Hand geht.", "url": "https://majo.menu/", "image": "https://ttpimtsoch.sos-ch-dk-2.exoscale-cdn.com/catalog/5/9/d/6/59d686b235b51444a4eb3f43955358702a4baf7c__DSF4913.jpg", "openstreetmap_id": "way/383739020"}, "geometry": {"type": "Point", "coordinates": ["9.087048104755034", "47.32344085"]}}, {"type": "Feature", "properties": {"identifier": "b154f25c-24b9-4515-bfc3-c1a825df8a08", "name": "Bankk Music-Bar", "description": "Monika Preisig hat als gelernte Hotelfachfrau bereits \u00fcber 30 Jahre Erfahrung in den Bereichen Gastronomie, Hotellerie, Barbetrieb und zuvorkommende Bewirtung von freundlichen G\u00e4sten.\nIn der Bankk Music-Bar k\u00f6nnen sie in lockerer Umgebung bei guter Musik, entweder Live oder ab Konserve, den Abend geniessen und mit Freunden plaudern. \n\nDie Bankk Music-Bar befindet sich in Wildhaus mit vielen Freizeitangeboten wie wandern im Sommer und Skifahren im Winter.", "url": "https://www.bankk.ch", "image": "https://ttpimtsoch.sos-ch-dk-2.exoscale-cdn.com/catalog/8/5/1/f/851f24063e5a6fe1053557bd4454fab8034074a5_Bankk.png", "openstreetmap_id": "node/7242485562"}, "geometry": {"type": "Point", "coordinates": ["9.34428781270981", "47.202193969809755"]}}, {"type": "Feature", "properties": {"identifier": "b7e66fcb-e47b-4611-98cc-b70885b5d9c3", "name": "Reisebeizli", "description": "<div>Das Reisebeizli ist ein gem&uuml;tlicher Treffpunkt im Herzen von Lichtensteig im Toggenburg. Hier wird Gastfreundschaft gelebt &ndash; mit einem vielseitigen Programm aus Kulinarik, Musik und Herzlichkeit. Jeden Monat reisen wir mit unseren Drinks an einen anderen Ort, und an den Wochenenden darf man wechselnde Foodtruck\u2011K&ouml;stlichkeiten aus aller Welt geniessen.</div>", "url": "https://www.reisebeizli.ch", "image": "https://ttpimtsoch.sos-ch-dk-2.exoscale-cdn.com/catalog/e/a/8/2/ea82909630eac994e49f3ec67c951bbf0506826a_WhatsApp_Image_2025_05_14_at_15.05.16__1___2.jpg", "openstreetmap_id": "node/4539208083"}, "geometry": {"type": "Point", "coordinates": ["9.0877106", "47.3221042"]}}, {"type": "Feature", "properties": {"identifier": "c19710f0-2c4e-4b9c-bf70-dea603b78093", "name": "Schlittelbeizli in der Schneit", "description": "Das Wander- und Schlittelbeizli in der R\u00fcti im Ijental Nesslau ist jeweils offen am Samstag &amp; Sonntag bei jedem Wetter. Sie werden von Albert und R\u00f6s Wittenwiler herzlich willkommen geheissen. Wochentags haben wir auf Anfrage ab sieben Personen mit Essen ge\u00f6ffnet.\n\nMit der \u00fcblichen Getr\u00e4nke- und einer kleinen Imbisskarte m\u00f6chten Albert und R\u00f6s Wittenwiler Ihnen im Wander- und Schlittelbeizli R\u00fcti etwas Gem\u00fctlichkeit bieten. Auf Bestellung werden K\u00e4sefondue und sonntags R\u00fcti Zmorge sowie kleinere W\u00fcnsche zubereitet. \n\nOb das Beizli ge\u00f6ffnet ist, erfahren Sie anhand der Infotafel bei der Einfahrt zur Schneitstrasse in Nesslau und die Google-\u00d6ffnungszeiten sind stets aktuell.", "url": "https://www.toggenburg.swiss", "image": "https://ttpimtsoch.sos-ch-dk-2.exoscale-cdn.com/catalog/4/5/5/5/4555af4da6c356f50cf28620f151c28b44b1cd17_Schlittenweg_Schneit_013.JPG", "openstreetmap_id": "node/2602907413"}, "geometry": {"type": "Point", "coordinates": ["9.17615", "47.21291"]}}, {"type": "Feature", "properties": {"identifier": "c5307d68-02a6-403d-94f5-c846d79b3df4", "name": "Caf\u00e9-Konditorei Kunz", "description": "<p>Im Caf\u00e9 Kunz steht der Gast im Mittelpunkt. Wir m\u00f6chten, dass Sie sich bei uns wie zu Hause f\u00fchlen. Unser freundliches und aufmerksames Team sorgt daf\u00fcr, dass Ihr Besuch zu einem besonderen Erlebnis wird. Egal, ob Sie eine Geburtstagsfeier planen, eine Veranstaltung ausrichten oder einfach nur einen gem\u00fctlichen Nachmittag verbringen m\u00f6chten \u2013 wir sind immer f\u00fcr Sie da und bieten Ihnen den bestm\u00f6glichen Service. Im Sommer haben Sie auch die M\u00f6glichkeit draussen das sch\u00f6ne Wetter zu geniessen in unserem ruhigen Gartencaf\u00e9. Wir bieten ein grosses Konditorei-Confiserie und B\u00e4ckerei Sortiment an. Verschiedene Menues, Imbisse, kalte und warme Getr\u00e4nke sowie verschiedene Coupes stehen immer auf unserer Karte. Jeden Sonntag k\u00f6nnen Sie zudem einen feinen Brunch an unserem reichhaltigen Buffet geniessen. Damit es Ihren Kindern nicht langweilig wird, wenn Sie gem\u00fctlich Kaffee trinken, haben wir f\u00fcr unsere Kleinen eine Kinderecke eingerichtet. Sind Sie \u00abgluschtig\u00bb geworden? Schauen Sie doch einmal bei uns in Ebnat-Kappel vorbei.</p>", "url": "http://www.cafekunz.ch", "image": "https://ttpimtsoch.sos-ch-dk-2.exoscale-cdn.com/catalog/b/5/4/a/b54a7d0790e786fa089a91aa2849ff0837d9db0b_Haus_2021.jpg", "openstreetmap_id": "node/3997735979"}, "geometry": {"type": "Point", "coordinates": ["9.1252864", "47.2610231"]}}, {"type": "Feature", "properties": {"identifier": "c56f45ca-5781-4edf-816c-485fcfce845e", "name": "Gasthaus zur Mauer", "description": "<p>Das Gasthaus zur Mauer ist ein Geb&auml;ude aus dem 16.\u202fJahrhundert, in dem Sie mit lokalen Spezialit&auml;ten verw&ouml;hnt werden. Der Fokus der K&uuml;che liegt auf zeitgen&ouml;ssischen Gerichten &ndash; saisonal abgestimmt und mit viel Liebe zubereitet.<br>Die Produkte werden zu einem grossen Teil direkt von Produzenten und Lieferanten aus der Region bezogen.</p>", "url": "https://zurmauer.ch/", "image": "https://ttpimtsoch.sos-ch-dk-2.exoscale-cdn.com/catalog/7/3/6/5/73650c720c3555872f42dd878efaf0b0880a5eac_Zur_Mauer_111.jpg", "openstreetmap_id": "node/4334049264"}, "geometry": {"type": "Point", "coordinates": ["9.196623392338866", "47.229042199636694"]}}, {"type": "Feature", "properties": {"identifier": "c8d85cd8-7732-4473-84ed-649c7444af14", "name": "Mikado Johanneum", "description": "Im MIKADO sind Menschen mit und ohne Beeintr\u00e4chtigung gleichermassen willkommen und der Speisesaal, das Restaurant und der Shop sind f\u00fcr die breite \u00d6ffentlichkeit ge\u00f6ffnet. Hausgemachte Spezialit\u00e4ten, feine Snacks, Verpflegung und erfrischende Getr\u00e4nke laden zum Geniessen und Verweilen ein.\nDank barrierefreier Gestaltung und \u00f6ffentlicher Zug\u00e4nglichkeit entsteht hier ein lebendiger Treffpunkt, der Menschen unterschiedlichster Hintergr\u00fcnde verbindet. \nDas neue Gastronomiegeb\u00e4ude steht auch f\u00fcr Vereine, Firmen und private Gruppen zur Verf\u00fcgung. Ob Vereinsversammlung, Firmenap\u00e9ro oder Familienfeier \u2013 das MIKADO bietet die passende Infrastruktur, ein stimmungsvolles Ambiente und gastronomische Begleitung aus einer inklusiven K\u00fcche, die f\u00fcr Qualit\u00e4t, Regionalit\u00e4t und Wertsch\u00e4tzung steht.\nEin integrierter Shop bietet Produkte aus den hauseigenen Werkst\u00e4tten des Johanneums an. Handgemacht, nachhaltig und mit sozialem Mehrwert.", "url": "https://www.johanneum.ch/", "image": "https://ttpimtsoch.sos-ch-dk-2.exoscale-cdn.com/catalog/2/6/9/9/2699cc36a4722a89ef22766936f56e83089d9d7c_IMG_1135.jpg", "openstreetmap_id": "way/220775588"}, "geometry": {"type": "Point", "coordinates": ["9.192439913749697", "47.22957213109569"]}}, {"type": "Feature", "properties": {"identifier": "d48660fc-7f65-4ae9-88c8-0d17691d0a4d", "name": "Alpwirtschaft Unterb\u00e4chen", "description": "Ob Sie nun den Weg zu uns zu Fuss, mit dem Bike oder mit dem Auto in Angriff nehmen, bei uns k\u00f6nnen Sie ankommen und geniessen. ", "image": "https://ttpimtsoch.sos-ch-dk-2.exoscale-cdn.com/catalog/c/f/0/3/cf0346a6d29e40a44126f16bfbd7268b76d74f58_IMG_4323.jpeg", "openstreetmap_id": "node/424999876"}, "geometry": {"type": "Point", "coordinates": ["9.1027653", "47.2452274"]}}, {"type": "Feature", "properties": {"identifier": "d4b7cad2-1109-46ca-8a62-d05536ebc18e", "name": "Restaurant Esszeit", "description": "<p>Frisch gekochte asiatische Speisen. Buffet, all you can eat. Preis Mittag inkl. 5 dl Getr&auml;nk 21.50, Preis Abend inkl. 5 dl Getr&auml;nk 23.50 CHF. Fast casual restaurant, Selbstbedienung. Gratis Parkpl&auml;tze.</p>", "url": "https://www.esszeit.ch", "image": "https://ttpimtsoch.sos-ch-dk-2.exoscale-cdn.com/catalog/d/0/a/6/d0a655b0ed6918e138d62241106fba414ec75ffe_Logo_Esszeit_Lerchenfeld.jpg", "openstreetmap_id": "node/32506454"}, "geometry": {"type": "Point", "coordinates": ["9.072132110595705", "47.383169505477916"]}}, {"type": "Feature", "properties": {"identifier": "d5704aad-395a-4122-aa39-e42f77fd5b2a", "name": "Caf\u00e9 Abderhalden B\u00e4ckerei Konditorei", "description": "Caf\u00e9 Abderhalden \u2013 Ihr St\u00fcck Toggenburg\n\nGeniessen Sie die warmen Sonnenstrahlen auf unserer gem\u00fctlichen Terrasse und lassen Sie sich von unseren K\u00f6stlichkeiten verw\u00f6hnen. Starten Sie Ihren Sonntagmorgen mit unserem traditionellen B\u00e4cker-Zmorge. Frische Brote, feine Z\u00f6pfe und hausgemachte Konfit\u00fcren lassen keine W\u00fcnsche offen.\n\nNachmittags verf\u00fchren unsere Konditoren Sie mit einer Vielfalt an Kuchen und Torten. Ob eine cremige Kugel hausgemachter Glac\u00e9, ein feinest St\u00fcck Torte oder unseren Klassiker, der Schlorzifladen \u2013 bei uns finden Sie garantiert Ihr Lieblingsst\u00fcck.\n\nBesuchen Sie uns und erleben Sie die Schweizer Gastfreundschaft in vollen Z\u00fcgen!", "url": "http://www.cafe-abderhalden.ch", "image": "https://ttpimtsoch.sos-ch-dk-2.exoscale-cdn.com/catalog/a/8/3/b/a83bec6c892f89bd63ec7e79eab9011acd822b63_DSC01168.jpg", "openstreetmap_id": "node/9620350580"}, "geometry": {"type": "Point", "coordinates": ["9.0867482", "47.3029247"]}}, {"type": "Feature", "properties": {"identifier": "db1be4d2-b9f6-4618-ae57-ac248701720a", "name": "Wirtschaft Rumpf Waldegg", "description": "Ein Auszug aus unserer kleinen, feinen K\u00fcche\nT\u00e4glich wechselnde saisonale Mittagsmen\u00fc\nHausgemachte Cordon Bleu und frische Salate. Fitnessteller mit Schnitzeli Wurstsalat oder Wurst-K\u00e4s- Salat und Feine Vesperpl\u00e4ttli\n\nNaherholungsgebiet und Wanderland Rumpf\nWanderwege rund um den Rumpf:\nAls Zwischenhalt in die Chr\u00fczegg (Rumpf - Chr\u00fczegg: 75Min zu Fuss)\noder ins Schw\u00e4mmli via Bachstrasse (Rumpf - Schw\u00e4mmli: 80min zu Fuss)\noder als Abstecher vom Jakobsweg (Iburg Wattwil - Rumpf - Stoss)", "url": "https://restaurant-rumpf-waldegg.jimdosite.com/", "image": "https://ttpimtsoch.sos-ch-dk-2.exoscale-cdn.com/catalog/f/d/4/7/fd47678be2a9f8cb72bb1cea4988677bc9704cbf_hauptbild.jpg", "openstreetmap_id": "node/4563071714"}, "geometry": {"type": "Point", "coordinates": ["9.048222", "47.2943496"]}}, {"type": "Feature", "properties": {"identifier": "e3713931-6018-4068-b8f5-a478a856b246", "name": "Gasthaus zum Sch\u00e4fli", "url": "https://www.schaeflisepp.ch/", "image": "https://ttpimtsoch.sos-ch-dk-2.exoscale-cdn.com/catalog/e/d/6/3/ed63c0616a72578552fd5ccc7879bc0ec0ee8aad_20250116_114059.jpg", "openstreetmap_id": "way/222237509"}, "geometry": {"type": "Point", "coordinates": ["9.283800345257692", "47.1943987"]}}, {"type": "Feature", "properties": {"identifier": "e6b4a1d1-0d50-490c-a0e4-b00a672ee956", "name": "Kafi-Egge Pluspunkt", "description": "Gem\u00fctlich Kaffee trinken und einander begegnen. Der Dorfladen Pluspunkt mitten in M\u00fchlr\u00fcti verf\u00fcgt \u00fcber eine kleine Kaffee-Ecke. Ge\u00f6ffnet w\u00e4hrend der Laden\u00f6ffnungszeiten.", "image": "https://ttpimtsoch.sos-ch-dk-2.exoscale-cdn.com/catalog/a/4/7/6/a4766a3c21d9bbaba61a4ea4f14875d0c76c7448_TT_Pluspunkt_M__hlr__ti_01.jpg", "openstreetmap_id": "node/2600460480"}, "geometry": {"type": "Point", "coordinates": ["8.98704", "47.37096"]}}, {"type": "Feature", "properties": {"identifier": "e81a458b-2303-4034-a48a-7fe5d6546a81", "name": "Restaurant National", "description": "M\u00f6glichkeit f\u00fcr Sitzungen, Anl\u00e4sse bis max. 35 Personen. Frische, regionale Produkte. Gem\u00fctliche Zimmer, mit Dusche und WC auf Etage, kein Fernseher, daf\u00fcr Erholung pur.", "url": "http://www.national-wattwil.ch/", "image": "https://ttpimtsoch.sos-ch-dk-2.exoscale-cdn.com/catalog/b/3/6/a/b36a2fd4227a634409dadab4e52315bc6c673379_2020_Wattwil_25.jpg", "openstreetmap_id": "node/3859151164"}, "geometry": {"type": "Point", "coordinates": ["9.0870704", "47.3007668"]}}, {"type": "Feature", "properties": {"identifier": "e9c8f50d-337a-4b53-be00-e81dcd061a99", "name": "Restaurant R\u00f6ssli H\u00fcsliberg", "description": "Ein k\u00f6stliches Abendessen, ein herzhafter Coupe oder einfach nur ein bisschen verweilen. Und dies alles bei einer wundersch\u00f6nen Aussicht. Geniessen Sie den  Blick vom Schindelberg, \u00fcber die sieben Churfirsten und den Speer, bis zum Ricken. Unser Restaurant bietet eine neue Sonnenterasse, eine Veranda, sowie auch den Restaurantbereich. F\u00fcr Vereine, Gesellschaften oder Hochzeiten bietet sich unser Saal mit Platz f\u00fcr bis zu 100 Personen optimal an. Ob f\u00fcrs geniessen auf der Terrasse oder auch gem\u00fctlich hinterm Haus unter dem Kirschbaum. Egal ob entspannte Sonntagsausfl\u00fcge, oder auch Wandertage, f\u00fcr jeden ist was dabei. \nDie Kinder k\u00f6nnen sich auf dem frisch renovierten Spielplatz nach Herzenslust austoben. Dabei haben die Eltern sie immer im Blick und k\u00f6nnen einen Kaffee unterm Kirschbaum geniessen.\nUnser sch\u00f6nes Restaurant ist in wenigen Minuten von Ebnat-Kappel her mit dem Auto oder T\u00f6ff zu erreichen, sowie auch \u00fcber s\u00e4mtliche Wander- und Bikerouten. \nUnser Team verw\u00f6hnt Sie gerne mit einheimischer und saisonaler K\u00fcche. Von Cordonbleues-Pommes \u00fcber Fitnessteller, oder kleineren Speisen, bis hin zu Schlorzifladen. Jeder wird f\u00fcndig. \nWir freuen und auf Ihren Besuch.", "url": "https://www.roessli-huesliberg.ch", "image": "https://ttpimtsoch.sos-ch-dk-2.exoscale-cdn.com/catalog/9/6/f/7/96f75b1c248ea99da2131bef44a5d55be5533b92_WhatsApp_Bild_2025_09_19_um_15.22.38_e56383d2.jpg", "openstreetmap_id": "node/2859106508"}, "geometry": {"type": "Point", "coordinates": ["9.132492542266847", "47.27229195025512"]}}, {"type": "Feature", "properties": {"identifier": "eacbec32-2d5e-4285-89d9-08d1dc93c69f", "name": "Toggenburger Brothandwerk Wildhaus", "description": "<p>Tradition, Genuss, Handwerk und manchmal etwas verr&uuml;ckte Zutaten. Entdecken Sie die Welt des echten Toggenburger Brothandwerks! In unserer Backstube verbinden wir traditionelle Rezepte mit regionalen Zutaten und moderner Handwerkskunst. Besucherinnen und Besucher k&ouml;nnen bei F&uuml;hrungen, Backkursen und Degustationen hautnah erleben, wie aus Mehl, Wasser und Leidenschaft ein unvergleichlicher Brotgenuss entsteht. Ein authentisches Erlebnis f&uuml;r Feinschmecker, Familien und Kulturinteressierte &ndash; mitten im Herzen des Toggenburgs.</p>", "url": "https://brothandwerk.ch", "image": "https://ttpimtsoch.sos-ch-dk-2.exoscale-cdn.com/catalog/a/1/3/c/a13c298c2d7e1cd462a8959d6ba0565fe801e253_IMG_8836.jpg", "openstreetmap_id": "way/223857167"}, "geometry": {"type": "Point", "coordinates": ["9.3445284", "47.2022145"]}}, {"type": "Feature", "properties": {"identifier": "f3a3ac7a-efaf-414d-8d42-7ec7f871bdff", "name": "Loipenkafi S\u00e4ntisloipe", "description": "<p>Freiwillige Helfer und Mitglieder unseres Vereins sind (fast) t&auml;glich f&uuml;r dich vor Ort. Sie servieren dir gerne ein warmes Getr&auml;nk, ein Glas Wein, ein k&uuml;hles Bier. Wolldecken sind vorhanden. Nat&uuml;rlich sind auch Nicht-Langl&auml;ufer herzlich willkommen. Wir f&uuml;hren eine grosse Auswahl an kalten und warmen Getr&auml;nken. Auch f&uuml;r eine kleine Verpflegung ist gesorgt &ndash; zum Beispiel hausgemachter&sbquo; Schlorzifladen vom nahegelegenen Bauernhof. Jeden Winter bieten wir an ausgew&auml;hlten Wochenenden bei sch&ouml;nem Wetter Suppe mit Wienerli an.</p>", "image": "https://ttpimtsoch.sos-ch-dk-2.exoscale-cdn.com/catalog/7/1/3/e/713ea1e6f2715c17fe6db3d91bc78090a555528e_loipenkafi_aussen1800x100_50.jpg", "openstreetmap_id": "node/2130961167"}, "geometry": {"type": "Point", "coordinates": ["9.23628866672516", "47.24417361147864"]}}, {"type": "Feature", "properties": {"identifier": "f9306689-f765-4542-a95e-6391956f1a0d", "name": "Cafe Thurbeck Nesslau", "description": "Mit Stolz und grosser Leidenschaft sorgt das Thurbeck Team, das von Roger und Rahel Wichser gef\u00fchrt wird seit 2013 f\u00fcr Dein Genuss. Dich tagt\u00e4glich mit unseren frischen K\u00f6stlichkeiten gl\u00fccklich zu machen, ist unser oberstes Ziel. Wir beliefern Firmenkunden, st\u00e4rken Sch\u00fcler sowie Angestellte von regionalen Unternehmen mit unserem Zn\u00fcni-Service, organisieren Deinen Ap\u00e9ro oder bedienen Dich mit grosser Freude in unserem Ladenlokal in Wattwil. NACHHALTIGKEIT und REGIONALIT\u00c4T wird bei uns grossgeschrieben. So verarbeiten wir ausschliesslich nat\u00fcrliche und gesunde Rohstoffe aus dem Toggenburg und verzichten auf chemische Zusatzstoffe. Als innovatives Team entwickeln wir uns stetig weiter und erachten Kundenw\u00fcnsche als wertvollen Input.", "url": "https://www.thurbeck.ch/", "image": "https://ttpimtsoch.sos-ch-dk-2.exoscale-cdn.com/catalog/a/7/6/c/a76c477ed06a1d5bec5ad872b9a20c672236c16a_FA9ED693_5C6C_4E2E_B6B4_61ADE92D2C61.jpeg", "openstreetmap_id": "node/6942861807"}, "geometry": {"type": "Point", "coordinates": ["9.199265506107833", "47.2257206"]}}, {"type": "Feature", "properties": {"identifier": "fb6ab962-790a-484f-be30-a3d32ce292be", "name": "Espel Pavillon", "description": "Direkt bei der Talstation der St\u00f6feli Bahn wurde 2017 der Espel Pavillon errichtet. Genau wie bei den vorherigen Projekten, dem Gipfelrestaurant und der St\u00f6feli Bahn, wurde das Architekturb\u00fcro Herzog & de Meuron f\u00fcr die Gestaltung beauftragt.\n\nDurch seinen rechteckigen Holzbau mit dem kurzen First ist der Pavillon im Landschaftsbild eingebettet und behauptet sich als eigener Bautypus, wo First und Fassade einen originellen Zusammenhang darstellen. Die Verwandtschaft zum Gipfelgeb\u00e4ude ist dank der Holzfassade gut erkennbar.\n\nMit seiner grossz\u00fcgigen Sonnenterrasse l\u00e4dt er zum Verweilen ein und bietet den G\u00e4sten Platz, Toggenburger Spezialit\u00e4ten direkt am Pistenrand zu geniessen. In der gem\u00fctlichen Gaststube bestehen weitere Pl\u00e4tze f\u00fcr das Entspannen und Geniessen an kalten und st\u00fcrmischen Wintertagen zur Verf\u00fcgung.", "url": "https://www.chaeserrugg.ch/de", "image": "https://ttpimtsoch.sos-ch-dk-2.exoscale-cdn.com/catalog/3/5/2/3/3523f40683799ef293287bd77fdd7f43ec993703_Bild_6_1K4A4347_Espel.JPG", "openstreetmap_id": "node/197929401"}, "geometry": {"type": "Point", "coordinates": ["9.320333003997805", "47.1842732038149"]}}]}