{"type": "FeatureCollection", "features": [{"type": "Feature", "properties": {"identifier": "0123985d-c254-4481-a7fb-0cc5659be44f", "name": "Ch\u00e4\u00e4sWelt Toggenburg", "description": "Mit \u00fcber 200 verschiedenen K\u00e4sesorten ist das Toggenburg die vielf\u00e4ltigste K\u00e4seregion im Alpenraum. Die Ch\u00e4\u00e4sWelt Toggenburg macht diese Vielfalt mit verschiedenen kulinarischen Angeboten erlebbar. \n\nOb auf dem FoodTrail - der genussvollen Schnitzeljagd, bei einer K\u00e4sereif\u00fchrung, einem Wurstkurs oder einem Backkurs in der Backstube oder einer K\u00e4sedegustation mit K\u00e4sesommelier - die kulinarische Vielfalt ist vielseitig erlebbar. Im 24-Stunden-Shop in Lichtensteig k\u00f6nnen Sie rund um die Uhr typische Toggenburger Kulinarik einkaufen.\n\nBuchen Sie jetzt Ihr genussvolles Erlebnis im Toggenburg.", "url": "https://chaeswelt.ch/de/", "image": "https://ttpimtsoch.sos-ch-dk-2.exoscale-cdn.com/catalog/7/b/a/5/7ba5d2c695578a3660eb2029b81756b5c3cb2319_Bild_Entdeckungsreise.jpg", "openstreetmap_id": "node/823332154"}, "geometry": {"type": "Point", "coordinates": ["9.08787", "47.32408"]}}, {"type": "Feature", "properties": {"identifier": "013a7b90-4749-42c2-84e1-61989352fa03", "name": "Sessel-/Gondelbahn Alt St. Johann \u2013 Sellamatt", "description": "<p>Mit der Kuppelbare Umlaufbahn mit 4er Sesseln und 4er Gondeln gelangen Sie auf die Alp Sellamatt, welche Ausganspunkt f&uuml;r den Klangweg und den Toggenburger Sagenweg ist. Die Alp Sellamatt bietet einen herrlichem Panoramablick auf Churfirsten, S&auml;ntis und Alpstein.</p><p>&nbsp;</p><p>Auskunft zur Zug&auml;nglichkeit:&nbsp;<a href=\"https://www.ginto.guide/entries/203dddcc-16b3-45ff-9f0a-111371092156?lnk_src=business\" target=\"_blank\" rel=\"noopener\">ginto</a></p>", "url": "https://www.chaeserrugg.ch/de", "image": "https://ttpimtsoch.sos-ch-dk-2.exoscale-cdn.com/catalog/9/4/4/c/944cb8530c2f0df72b2d967e9e5c7af3649b4720__I6A6188.jpg", "openstreetmap_id": "node/177950741"}, "geometry": {"type": "Point", "coordinates": ["9.287152", "47.193229"]}}, {"type": "Feature", "properties": {"identifier": "08241695-18a0-489f-9f9f-a0a4a52df766", "name": "Minigolf Wattwil", "description": "Die Minigolfanlage Wattwil direkt zwischen Sportanlage Rietwis und Schwimmbad bietet Freizeitspass f\u00fcr Gross und Klein. Und seit diesem Jahr pr\u00e4sentiert sie sich im komplett neuen Kleid.\nDie Minigolfanlage umfasst 18 Bahnen (betoniert, System Bogoni) und ist turniertauglich. Schl\u00e4ger und B\u00e4lle werden an der Kasse abgegeben. Ein Schl\u00e4ger berechtigt zu einem Parcoursrundgang. Weitere Rundg\u00e4nge m\u00fcssen bei der Kasse gel\u00f6st werden.\n\nAuch f\u00fcr Behinderte geeignet, verf\u00fcgt allerdings \u00fcber keine Behinderten-Toilette.", "url": "https://frezeit-wattwil.ch", "image": "https://ttpimtsoch.sos-ch-dk-2.exoscale-cdn.com/catalog/7/c/9/a/7c9a403b8d97540f117661269c1322f79ad9f600_IMG_20220602_WA0019.jpg", "openstreetmap_id": "node/1043468561"}, "geometry": {"type": "Point", "coordinates": ["9.0925", "47.29442"]}}, {"type": "Feature", "properties": {"identifier": "16186546-1a48-41cc-836d-bd2c1ab74a42", "name": "24 Stunden Shop Ch\u00e4\u00e4sWelt", "url": "https://chaeswelt.ch/de/", "image": "https://ttpimtsoch.sos-ch-dk-2.exoscale-cdn.com/catalog/1/5/e/2/15e2490c7e14111ed46a48d41199a8ca9603fa0d_IMG_20231022_164957.jpg", "openstreetmap_id": "node/8012759883"}, "geometry": {"type": "Point", "coordinates": ["9.0874804", "47.3238851"]}}, {"type": "Feature", "properties": {"identifier": "1762df3a-7875-415c-b97d-45f071eb45dc", "name": "T\u00f6shof", "description": "Der T\u00f6shof befindet sich an der Siggetschwilstrasse in Brunnadern unweit von Dorf und Bahnhof.\nAuf unserem Hof leben zurzeit 50 Freilandh\u00fchner, zw\u00f6lf Capra Grigia Ziegen, zwei Katzen und neun Islandpferde. \n In unserem kleinen Hofl\u00e4deli finden Sie fast alles, was das Herz begehrt; Teigwaren, Konfit\u00fcren, Curry Zucchetti, eingemachte Randen, Meringues, Bretzeli, verschiedene Sirup und T\u00f6shof Glace in vielen Variationen. Das Hofl\u00e4deli versteckt sich hinter zwei Kellerfenstern. Bedienen Sie sich w\u00e4hrend 24 Stunden an sieben Tagen mit Bezahlung Bar oder auch per Twint. \nBeim Glacek\u00fchler steht f\u00fcr Sie eine Sitzgelegenheit zu Verf\u00fcgung. Nehmen Sie Platz und geniessen Sie eine kleine Auszeit. \nAuf Bestellung stellen wir Ihnen auch gerne verschiedene Geschenktaschen und -K\u00f6rbe zusammen. Sie bestimmen den Inhalt und den Preis.", "url": "https://www.toeshof.ch/", "image": "https://ttpimtsoch.sos-ch-dk-2.exoscale-cdn.com/catalog/2/d/9/7/2d97b95e7d9ae913efbbe8d305df762c4f050b21_0001_.jpg", "openstreetmap_id": "way/177906381"}, "geometry": {"type": "Point", "coordinates": ["9.133469136184416", "47.33545785"]}}, {"type": "Feature", "properties": {"identifier": "19b70bef-3933-467c-be55-6b90e403a666", "name": "K\u00e4gi Gl\u00fccksshop in Lichtensteig", "description": "Unser Gl\u00fccksshop ist auch ein Paradies f\u00fcr Entdecker: Informative Videos zeigen dir einen Blick hinter die Kulissen der K\u00e4gi Manufaktur. In unserer kreativen Ecke gestaltest du an iPads deine eigene K\u00e4gi fret Verpackung \u2013 und druckst alles direkt vor Ort aus.\n\nUnsere Kaffeebar l\u00e4dt zu einer kleinen Entspannungspause ein. Bei einem Heissgetr\u00e4nk und einem unserer Spezialit\u00e4ten l\u00e4sst sich ganz in Ruhe die gl\u00fcckliche Atmosph\u00e4re geniessen.", "url": "https://www.kaegi.com/fabrikladen", "image": "https://ttpimtsoch.sos-ch-dk-2.exoscale-cdn.com/catalog/e/8/7/4/e874ad56264aaca7086ab82c431ca01ddb9300d7_DSC08502.JPG", "openstreetmap_id": "way/380584407"}, "geometry": {"type": "Point", "coordinates": ["9.085215290277034", "47.33037365"]}}, {"type": "Feature", "properties": {"identifier": "19efbcf1-f647-4c85-a61b-78084d3f7c02", "name": "Toggenburgshop Wattwil", "description": "Der Toggenburgshop ist dein Selbstbedienungsladen in Neu St. Johann, Ebnat-Kappel und Wattwil. Die L\u00e4den stehen dir w\u00e4hrend 24 Stunden am Tag zur Verf\u00fcgung. Du erh\u00e4ltst im Toggenburgshop viele Produkte f\u00fcr deinen t\u00e4glichen Bedarf \u2013 nat\u00fcrlich m\u00f6glichst aus dem Toggenburg.", "url": "https://www.toggenburgshop.ch/", "image": "https://ttpimtsoch.sos-ch-dk-2.exoscale-cdn.com/catalog/6/9/9/9/69999b3dd605ff75fa9e58faeeb29a454d281ec4_Toggenburgshop_in_Wattwil__3_.jpg", "openstreetmap_id": "node/9007646447"}, "geometry": {"type": "Point", "coordinates": ["9.0881377", "47.2977403"]}}, {"type": "Feature", "properties": {"identifier": "1dd0fc8b-e6a1-4677-8978-d492ca715cb1", "name": "Schwimmbad Wattwil", "description": "Die Badi Wattwil bietet Ihnen 1-, 3- und 5-Meter-Sprungturm, 50-Meter- Schwimmerbecken mit 6 Bahnen, Riesenrutschbahn, Str\u00f6mungskanal und Kinderplanschbecken, 1 Beachvolleyballfelder, einen Riesenspielplatz f\u00fcr Jugendliche mit Fussballplatz, Korbballeinwurf und Tischtennis. Der Liege- und Spielbereich bietet Ruhezonen f\u00fcr Familien ebenso wie Sandstrand und Kleinkinderparadies mit dem kindersicheren Spielplatz (Rondelle im Sand, Kinderrutschbahn mit H\u00fcttli, Schaukeln). \u2013 F\u00fcr Sport, Fitness und Spass den ganzen Tag ist gesorgt. Gehen Sie da im Sommer \u00fcberhaupt noch nach Hause?\n\nZugang m\u00f6glich f\u00fcr RollstuhlfahrerInnen; Behinderten-Toilette, Umkleidekabine mit Liege und Einstiegshilfe ins Bad sind vorhanden.", "url": "http://www.badi-wattwil.ch", "image": "https://ttpimtsoch.sos-ch-dk-2.exoscale-cdn.com/catalog/5/b/e/c/5bec7c2a31a13ad622144e1d7c798f4071230e09_IMG_20220602_WA0022.jpg", "openstreetmap_id": "48582358.0"}, "geometry": {"type": "Point", "coordinates": ["9.0925099", "47.2938006"]}}, {"type": "Feature", "properties": {"identifier": "245192c3-ec22-43fe-8a5c-a634507e05c3", "name": "Bauernhof Bohl", "description": "<div><p><strong>Ausstattung</strong></p><ul><li>Schlafzimmer mit Doppelbett</li><li>Schlafzimmer mit zwei Einzelbetten (f&uuml;r Erwachsene und Kinder geeignet)</li><li>Badezimmer mit Dusche</li><li>K&uuml;che mit Wohn- &amp; Essbereich und TV</li><li>Spiele f&uuml;r Kinder</li><li>Raclette- und Fonduegeschirr</li><li>Ruhige Lage mit sch&ouml;ner Aussicht</li></ul><p><strong>Aussenbereich</strong></p><ul><li>Gartensitzplatz mit Chemin&eacute;e</li><li>Kleiner Spielplatz</li><li>Spielsachen zur Mitbenutzung</li></ul><p><strong>Bauernhof</strong></p><ul><li>Besonders bei Kindern sehr beliebt</li><li>Milchk&uuml;he, K&auml;lblein, Katzen, Hasen</li><li>Gerne d&uuml;rft ihr bei uns im Stall vorbeischauen</li></ul><p><strong>Lage &amp; Umgebung</strong></p><ul><li>Gratis Aussenparkplatz direkt beim Haus</li><li>Dorf Stein in 2 Minuten zu Fuss erreichbar mit B&auml;ckerei und kleinem 24h-Shop</li><li>Katzensprung zum Fluss Thur (Thurweg und im Sommer wundersch&ouml;n zum Baden)</li><li>Einkaufsm&ouml;glichkeiten (Migros, Coop, Drogerie) in 5 Autominuten</li><li>Wander- und Skigebiet Ch&auml;serrugg mit dem &Ouml;V oder in 7 Autominuten erreichbar</li><li>Wander- und Skigebiet Wildhaus mit dem &Ouml;V oder in 12 Autominuten erreichbar</li><li>Wander- und Skigebiet Wolzenalp mit dem &Ouml;V oder in 10 Autominuten erreichbar</li><li>S&auml;ntis oder Schw&auml;galp in 15 Autominuten</li><li>Verschiedene Wanderungen vor der Haust&uuml;re, z.\u202fB. Thurweg, Stockberg, Goggeien, Speer (Europas h&ouml;chster Nagelfluh-Berg) und vieles mehr</li></ul><p><strong>Nahe gelegene St&auml;dte</strong></p><ul><li>St. Gallen: 49 min</li><li>Z&uuml;rich: 1 h 07 min</li><li>Luzern: 1 h 35 min</li><li>Chur: 54 min</li></ul><p><strong>Preis</strong><br>CHF 125.&ndash; pro Nacht, plus CHF 100.&ndash; f&uuml;r die Endreinigung.</p></div>", "image": "https://ttpimtsoch.sos-ch-dk-2.exoscale-cdn.com/catalog/8/f/b/d/8fbd0de7cb5ef73e78cebcbd47ebf7cb45173baf_IMG_2518.JPG", "openstreetmap_id": "node/2705315303"}, "geometry": {"type": "Point", "coordinates": ["9.22616215143497", "47.19726707848858"]}}, {"type": "Feature", "properties": {"identifier": "2cd33359-93fd-4ce0-96ee-ddbff46badf8", "name": "Toggenburgshop Neu St. Johann", "description": "Der Toggenburgshop ist dein Selbstbedienungsladen in Neu St. Johann, Ebnat-Kappel und Wattwil. Die L\u00e4den stehen dir w\u00e4hrend 24 Stunden am Tag zur Verf\u00fcgung. Du erh\u00e4ltst im Toggenburgshop viele Produkte f\u00fcr deinen t\u00e4glichen Bedarf \u2013 nat\u00fcrlich m\u00f6glichst aus dem Toggenburg.", "url": "https://www.toggenburgshop.ch/", "image": "https://ttpimtsoch.sos-ch-dk-2.exoscale-cdn.com/catalog/e/5/e/8/e5e8137c3892ed6fd329e0d1fffe81a9ed12beed_0R0A8859.jpg", "openstreetmap_id": "way/1157441709"}, "geometry": {"type": "Point", "coordinates": ["9.196200370788576", "47.228879613753"]}}, {"type": "Feature", "properties": {"identifier": "2e498174-7f81-4cc8-9990-401de20bb40b", "name": "Wildmanndli Sport", "description": "Sportgesch\u00e4ft in Nesslau", "image": "https://ttpimtsoch.sos-ch-dk-2.exoscale-cdn.com/catalog/b/7/a/3/b7a3b2b78753e86812a82ee6f1f3bc494ba01fff_Image__003_.jpeg", "openstreetmap_id": "node/3499725470"}, "geometry": {"type": "Point", "coordinates": ["9.1936544", "47.2299486"]}}, {"type": "Feature", "properties": {"identifier": "30c8c05c-08f4-42f0-9a15-8514c7c3dfe1", "name": "Badi Sch\u00f6nenbodensee", "description": "<div><p>Umringt von Bergen und Wiesen, Schilf und Wald liegt der Naturbadesee Sch&ouml;nenbodensee in Wildhaus. Direkt vor der Badi gibt es Parkpl&auml;tze. Mit dem &Ouml;V muss man jedoch einen etwa 30-min&uuml;tigen Fussmarsch auf sich nehmen, um zum See zu gelangen.</p><p>Der See ist mit mehreren Fl&ouml;ssen, einem Steg zum Einstieg in den Schwimmerbereich sowie einem abgegrenzten Nichtschwimmer- und Kinderbereich ausgestattet. Ebenfalls stehen zwei Pedalos zur Miete zur Verf&uuml;gung. Zugang auch f&uuml;r Rollstuhlfahrer/-innen m&ouml;glich. Eine Behinderten-Toilette sowie eine Behinderten-Umkleidekabine (mit Liegebett) sind vorhanden.</p><p><strong>Infos zum Zutritt:</strong><br>Der Zutritt zur Liegewiese ist kostenpflichtig &ndash; unabh&auml;ngig davon, ob eine Nutzung des Badebereichs erfolgt. Ein kostenloser Zugang ist ausschliesslich auf den Bereich des Badibeizlis beschr&auml;nkt.</p><p><strong>Mitnahme von Hunden:</strong><br>Aus R&uuml;cksicht auf alle G&auml;ste sind Hunde ausschliesslich im Eingangsbereich sowie im Badibeizli erlaubt. Auf der Liegewiese und im Badebereich ist das Mitf&uuml;hren von Hunden nicht gestattet.</p></div>", "url": "https://eggewaeldli.ch/oeffnungszeiten", "image": "https://ttpimtsoch.sos-ch-dk-2.exoscale-cdn.com/catalog/b/b/4/7/bb47321cae2a695f018e547cdbed1f552bb34df3_2021_TT_Badi_Sch__nenbodensee_58.jpg", "openstreetmap_id": "node/7798234730"}, "geometry": {"type": "Point", "coordinates": ["9.3660567", "47.2075564"]}}, {"type": "Feature", "properties": {"identifier": "3e3bdd75-7f88-44bb-be5e-faf6ea22b89f", "name": "Standseilbahn Unterwasser \u2013 Iltios", "description": "<p>Im Sommer wie im Winter bringt die traditionelle Standseilbahn die G\u00e4ste von Unterwasser auf den Iltios, 1350 m \u00fc. M. Die Bahn ist Kinderwagen- und Rollstuhlg\u00e4ngig. Der Iltios ist Knotenpunkt von verschiedenen Wanderwegen und Pisten. Hier befindet sich ausserdem das Bergrestaurant Iltios mit der eindr\u00fccklichen Aussicht auf die Churfirsten und den Alpstein. Ebenfalls auf dem Iltios kann der Gast auf die Luftseilbahn wechseln und bis zum Gipfel aufsteigen.</p><p>\u00a0</p><p>Auskunft zur Zug\u00e4nglichkeit: <a href=\"https://www.ginto.guide/entries/26951e57-9583-4760-bdad-e47b3559f3d7?lnk_src=business\" target=\"_blank\" rel=\"noopener\">ginto</a></p>", "url": "https://www.chaeserrugg.ch/de", "image": "https://ttpimtsoch.sos-ch-dk-2.exoscale-cdn.com/catalog/0/4/1/9/041924a066b08f34104e5823f5cb9f827951f1aa_standseilbahn.jpeg", "openstreetmap_id": "node/207468830"}, "geometry": {"type": "Point", "coordinates": ["9.308714", "47.194626"]}}, {"type": "Feature", "properties": {"identifier": "3e4532fe-74a7-4529-ba13-e67b1fa66a6e", "name": "Schlitteln Iltios", "description": "Die 3.4 km lange Strecke ist f\u00fcr Anf\u00e4nger und erfahrene Schlittler geeignet, die Einzel oder in der Gruppe zu Tale brausen.\u00a0Bequeme oder sportliche Schlitten stehen Ihnen bei der Bergstation Iltios zur Miete zur Verf\u00fcgung.\u00a0Bahnticket inkl. Schlittenvermietung bei der Talstation Unterwasser erh\u00e4ltlich. Nehmen Sie Ihren Schlitten auf dem Iltios in Empfang und geben Sie ihn bei der Talstation Unterwasser zur\u00fcck.", "url": "http://www.ch\u00e4serrugg.ch", "image": "https://ttpimtsoch.sos-ch-dk-2.exoscale-cdn.com/catalog/2/0/7/2/2072f2f458b7aa28d4d396852dd5c928232ba41f_TOGGI_schlitteln_RUPA_009.jpg", "openstreetmap_id": "node/243721697"}, "geometry": {"type": "Point", "coordinates": ["9.31254", "47.18516"]}}, {"type": "Feature", "properties": {"identifier": "438a7322-528b-4a99-9dd1-59a895e19a17", "name": "B\u00fccherpause", "description": "Die \u00abB\u00fccherpause\u00bb ist Wellness f\u00fcr die Seele, bietet ein kuscheliges Schlechtwetterprogramm und literarische Gipfelfl\u00fcge f\u00fcr die ganze Familie. \n\nSie ist eine gem\u00fctliche kleine Stube mitten in Unterwasser, bis zur Decke gef\u00fcllt mit sch\u00f6nen B\u00fcchern, haupts\u00e4chlich Bilderb\u00fcchern. Gross und Klein sind hier willkommen, zusammen oder ganz f\u00fcr sich B\u00fccher-Sch\u00e4tze zu entdecken. \nEin B\u00fcchertauschregal bietet Erwachsenen Nachschub, wenn der Lesestoff ausgegangen ist. \n\nDie B\u00fccherpause bringt Vertrauen entgegen und schafft Vertrauen. Sie ist Rund um die Uhr ge\u00f6ffnet. Der Schl\u00fcssel liegt im Milchkasten.", "url": "https://buecherpause.ch", "image": "https://ttpimtsoch.sos-ch-dk-2.exoscale-cdn.com/catalog/d/3/b/f/d3bf741408a0fd7cbdda44fe80814f47b5802d42_b82015f6_bd64_40a9_9a4e_16ffe3a060b5.jpg", "openstreetmap_id": "node/12098549382"}, "geometry": {"type": "Point", "coordinates": ["9.310049053589697", "47.1970153"]}}, {"type": "Feature", "properties": {"identifier": "4d68d365-8807-4108-9653-d051d168e922", "name": "Schweizer Langlaufschule Toggenburg", "description": "Wir bieten Ihnen Langlaufkurse f\u00fcr Anf\u00e4nger, Wiedereinsteiger & Fortgeschrittene an. Wir zeichnen uns durch sehr gut ausgebildete & qualifizierte Langlauflehrer*innen aus. Bei uns k\u00f6nnen Sie Privatstunden, Familien- und Gruppenunterricht sowie Firmenevents buchen.  Ob in Alt St. Johann oder Wildhaus, am Tag oder auf der Nachtloipe bei uns finden Sie ihr massgeschneidertes Angebot.", "url": "https://www.loipen-toggenburg.ch", "image": "https://ttpimtsoch.sos-ch-dk-2.exoscale-cdn.com/catalog/7/e/0/f/7e0f90770fe62a59a2464464fe6de7df7b8c14f6_DSC07371.JPG", "openstreetmap_id": "node/222237424"}, "geometry": {"type": "Point", "coordinates": ["9.287188947200777", "47.1940772731022"]}}, {"type": "Feature", "properties": {"identifier": "4e10470c-b4a6-4ee8-9ae0-b0b3730a6439", "name": "Toggenburg Tourismus", "description": "<p>Unser Tourist-Info in Wildhaus ist Ihre zentrale Anlaufstelle f\u00fcr alles rund um Ferien, Ausfl\u00fcge und Erlebnisse in der Ferienregion Toggenburg. Wir unterst\u00fctzen Sie mit Tipps zu Wanderungen, Veranstaltungen, Familienangeboten, Unterk\u00fcnften sowie den sch\u00f6nsten Natur- und Kulturerlebnissen. Sie erreichen uns direkt im Tourist-Info, per Telefon, E-Mail oder bequem \u00fcber unseren Live-Chat. Zudem sind wir auch auf Social Media aktiv und beantworten dort gerne Ihre Fragen. Unser Team freut sich darauf, Sie bei Ihrer Planung zu unterst\u00fctzen und Ihnen die vielseitige Region n\u00e4herzubringen. Bis Bald!</p><p>Auskunft zur Zug\u00e4nglichkeit: <a href=\"https://www.ginto.guide/entries/b1f59ba3-fabd-412e-90f2-b5e69f03dd6d?lnk_src=business\" target=\"_blank\" rel=\"noopener\">ginto</a></p><p>\u00a0</p>", "url": "http://www.toggenburg.swiss", "image": "https://ttpimtsoch.sos-ch-dk-2.exoscale-cdn.com/catalog/7/d/a/1/7da19d17384480afb2b065a84bfbfb60609affc7_Tourist_Info_Sommer_2019_3.jpg", "openstreetmap_id": "node/7242485561"}, "geometry": {"type": "Point", "coordinates": ["9.341716", "47.201655"]}}, {"type": "Feature", "properties": {"identifier": "500372ce-6f00-4617-b311-3075d1097d9a", "name": "Metzgerei Metzger AG / Ebnat Kappel", "description": "Die Metzgerei Metzger AG\u2026\n\u2026 ist die Toggenburger Traditionsmetzgerei seit 1932. \u00dcber 200 Fleisch- und Wurstprodukte stellen wir selber her. Meist nach altbew\u00e4hrten Rezepten. Fast alles Fleisch stammt von Tieren aus dem Toggenburg. Unsere Lieferanten kennen wir pers\u00f6nlich. Bei Hygiene und Zusatzstoffen orientieren wir uns an modernsten Grunds\u00e4tzen. Bis bald in unseren zwei besteingerichteten Verkaufsgesch\u00e4ften im Toggenburg! Oder bei den Verkaufswagen \u00fcberall im Z\u00fcrcherland.\n\nIm Unterschied zu Grossverteilern setzt die Metzgerei Metzger AG auf reine Handwerkskunst: Mitarbeitende mit teils jahrzehntelanger Erfahrung kontrollieren die Herstellung von der Fleischgewinnung bis zum Verkauf.\n\n-Zn\u00fc\u00fcni Hit: jeden Tag was von der warmen Theke f\u00fcr CHF 5.00 im B\u00fcrli\n- Geschenke und Mitbringsel\n- Catering; fragen Sie uns an: info@metzger-metzger.ch\n- Hausgemachte Fleisch und Wurstspezialit\u00e4ten\n- Toggenburger Fleischspezialit\u00e4ten; Stockbergspeck, Mostb\u00f6ckli, Birnenm\u00f6ckli usw.\n- extrawuerste.ch\n- Fleisch- und K\u00e4seplatten f\u00fcr jede Gelegenheit", "url": "https://metzger-metzger.ch", "image": "https://ttpimtsoch.sos-ch-dk-2.exoscale-cdn.com/catalog/a/5/7/8/a578448429330a60648811aefd1b73052caac9b6_IMG_20230208_WA0004.jpg", "openstreetmap_id": "4163301389"}, "geometry": {"type": "Point", "coordinates": ["9.1245813", "47.2612118"]}}, {"type": "Feature", "properties": {"identifier": "597b5b83-a1f6-4bee-b843-7677fa5ae1d1", "name": "Toggenburgshop Ebnat-Kappel", "description": "Der Toggenburgshop ist dein Selbstbedienungsladen in Ebnat-Kappel. Der Laden steht dir w\u00e4hrend 24 Stunden am Tag zur Verf\u00fcgung. Du erh\u00e4ltst im Toggenburgshop viele Produkte f\u00fcr deinen t\u00e4glichen Bedarf \u2013 nat\u00fcrlich m\u00f6glichst aus dem Toggenburg. Die Galerie Elf bietet im gleichen Ladenlokal Dekoration und Kunst an.", "url": "https://www.toggenburgshop.ch", "image": "https://ttpimtsoch.sos-ch-dk-2.exoscale-cdn.com/catalog/1/8/b/6/18b62703efee6363920d69e4de628349bd3c0e54_toggenburgshop_ebnat_kappel.jpg", "openstreetmap_id": "node/10781812605"}, "geometry": {"type": "Point", "coordinates": ["9.120744466781618", "47.26452400035863"]}}, {"type": "Feature", "properties": {"identifier": "5f539234-8a21-4a79-9cdd-9eaa037c325b", "name": "Beat Sport, Wildhaus", "description": "Ihr Fachgesch\u00e4ft f\u00fcr den Kauf und die Vermietung von Sportartikel. \n\nSkivermietung w\u00e4hrend Saison t\u00e4glich ge\u00f6ffnet", "url": "https://www.beat-sport.ch/locations/wildhaus", "image": "https://ttpimtsoch.sos-ch-dk-2.exoscale-cdn.com/catalog/1/8/0/f/180feb2cc38fd01406d7d2c5c5b3533b653d9dba_Beat_Sport_h.jpg", "openstreetmap_id": "node/8536359578"}, "geometry": {"type": "Point", "coordinates": ["9.3401349", "47.2015926"]}}, {"type": "Feature", "properties": {"identifier": "62103a72-114c-4167-b7ec-269fea97609b", "name": "Toggenburgshop Unterwasser", "description": "Der Toggenburgshop ist dein Selbstbedienungsladen in Unterwasser. Der Laden steht dir w\u00e4hrend 24 Stunden am Tag zur Verf\u00fcgung. Du erh\u00e4ltst im Toggenburgshop viele Produkte f\u00fcr deinen t\u00e4glichen Bedarf \u2013 nat\u00fcrlich m\u00f6glichst aus dem Toggenburg.", "url": "https://www.toggenburgshop.ch/", "image": "https://ttpimtsoch.sos-ch-dk-2.exoscale-cdn.com/catalog/0/1/8/f/018f308e76423b615bd051ed96a0d3374de0ba28_toggenburgshop_hoettli_unterwasser.jpg", "openstreetmap_id": "way/1368411531)"}, "geometry": {"type": "Point", "coordinates": ["9.3109667301178", "47.196620053991474"]}}, {"type": "Feature", "properties": {"identifier": "63cec007-112d-43b5-8313-85a4f385c0e9", "name": "Hofladen Adelbach-Hof", "description": "Neben unseren selbstgemachten Joghurt und Fleisch unserer Tiere bieten wir auch Pastmilch, Freilandeier und K\u00e4se von Partnerbetrieben der Region an. Auf jeden Fall einen Besuch wert, ebenfalls wunderbar mit einem Besuch bei der Kamerasau (www.kamerasau.ch) zu verbinden.", "url": "https://www.adelbach-hof.ch/", "image": "https://ttpimtsoch.sos-ch-dk-2.exoscale-cdn.com/catalog/b/7/9/a/b79a866eae7006d805270fab51e4a42ea538a73c_Dojana.jpg", "openstreetmap_id": "way/218081985"}, "geometry": {"type": "Point", "coordinates": ["9.1275410068259", "47.343055449999994"]}}, {"type": "Feature", "properties": {"identifier": "6481ce97-e3e9-4368-b50b-459c74592707", "name": "Langlauf Panorama-Loipe Scherb/Bendel (Hemberg - Ebnat-Kappel)", "description": "Beim Langlauf nicht nur etwas f\u00fcr die Fitness tun, sondern gleichzeitig Aussichten geniessen und spannende Hintergrundinformationen erhalten? Das ist auf der rund f\u00fcnf Kilometer langen Panorama-Loipe im Scherb/Bendel zwischen Hemberg und Ebnat-Kappel m\u00f6glich. Auf acht Tafeln werden die einmaligen Ausblicke auf die Churfirsten, den Alpstein, das Neckertal, die Chr\u00fczegg, den Stockberg, den Speer und Richtung Z\u00fcrichsee mit geschichtlichen, geografischen und weiteren Informationen n\u00e4her erkl\u00e4rt. Zus\u00e4tzlich sind alle Tafeln mit einem Kinderm\u00e4rchen erg\u00e4nzt. Das M\u00e4rchen vom Heinzelm\u00e4nnchen Speerli ist fortlaufend \u00fcber alle acht Tafeln geschrieben.", "url": "https://www.loipen-scspeer.ch/panoramaloipe/", "image": "https://ttpimtsoch.sos-ch-dk-2.exoscale-cdn.com/catalog/e/4/2/c/e42c4b0d4d03e2deeff73edaa2df7730fa0c1fa7_resized_650x365_origimage_691130.jpg", "openstreetmap_id": "node/1854816357"}, "geometry": {"type": "Point", "coordinates": ["9.163026809692385", "47.27713230427341"]}}, {"type": "Feature", "properties": {"identifier": "669cca08-ad58-48de-b9d2-9be537b743e2", "name": "K\u00f6nigs Ch\u00e4si", "description": "Die K\u00f6nigs Ch\u00e4si steht f\u00fcr ehrliches Handwerk, regionale Verbundenheit und gelebte K\u00e4sekultur im Toggenburg. Als junges, famili\u00e4r gef\u00fchrtes Unternehmen verbinden wir Tradition mit frischem Unternehmergeist \u2013 immer mit dem Fokus auf Qualit\u00e4t, Herkunft und Geschmack.\n\nUnsere K\u00e4se entstehen an zwei Standorten: In Nesslau produzieren wir sowohl unsere Appenzeller-Produkte als auch unseren charakterstarken Bergk\u00f6nig. Die Milch daf\u00fcr stammt von ausgew\u00e4hlten Bauern aus der Region, mit denen wir eng und partnerschaftlich zusammenarbeiten. Sorgfalt, Erfahrung und viel Herzblut pr\u00e4gen jeden einzelnen Produktionsschritt.\n\nDer Bergk\u00f6nig erh\u00e4lt seinen letzten Schliff in unserem externen Reifelager im Sch\u00f6nenberg. Dort reift er in aller Ruhe unter optimalen Bedingungen heran und entwickelt sein unverwechselbares Aroma \u2013 kr\u00e4ftig, ehrlich und mit alpinem Charakter.\n\nDie K\u00f6nigs Ch\u00e4si ist mehr als nur eine K\u00e4serei: Sie ist ein Ort, an dem Leidenschaft f\u00fcr das Handwerk, regionale Identit\u00e4t und die Liebe zum Produkt sp\u00fcrbar werden. Ein echtes St\u00fcck Toggenburg \u2013 zum Geniessen, Entdecken und Weitererz\u00e4hlen.", "url": "https://www.koenigs-chaesi.ch/", "image": "https://ttpimtsoch.sos-ch-dk-2.exoscale-cdn.com/catalog/3/6/9/8/3698815a980e3a98a7783cf5eec44b076332b88c_2S2A9798.jpg", "openstreetmap_id": "node/3499725480"}, "geometry": {"type": "Point", "coordinates": ["9.199011325836183", "47.22515717946661"]}}, {"type": "Feature", "properties": {"identifier": "6ae75ef8-3fb9-4950-9e5e-ec879b9039ae", "name": "Skillspark", "description": "Die Fahrtechnik kann auf Abschnitten unterschiedlicher Schwierigkeit ge\u00fcbt und verbessert werden. Insgesamt stehen rund 3km gekenntzeichnete \u00dcbungsabschnitte (blau, rot, schwarz) zur Verf\u00fcgung. Die Bike Academy Toggenburg bietet Fahrtechnikkurse an, in welchen die sichere Herangehensweise erkl\u00e4rt und ge\u00fcbt wird.", "url": "https://bikeacademy-toggenburg.ch/skillspark", "image": "https://ttpimtsoch.sos-ch-dk-2.exoscale-cdn.com/catalog/8/7/3/b/873becd5a617d2c3e34043fb76c94dda70c00f69_Bildschirmfoto_2026_07_14_um_14.27.39.png", "openstreetmap_id": "node/6074659261"}, "geometry": {"type": "Point", "coordinates": ["9.342820644378664", "47.200203329948586"]}}, {"type": "Feature", "properties": {"identifier": "6f11c76b-f6dd-4b94-9c11-812189705d9d", "name": "Schwimmbad Ebnat-Kappel", "description": "Nutzen Sie im Sommerhalbjahr das 50m-Becken, die Rutschbahn und das 1 und 3 Meter Sprungbrett f\u00fcr einen sch\u00f6nen Badetag. In unser sch\u00f6nen Planschbecken mit Rutschbahn und Attraktionen f\u00fchlen sich die Kleinsten sehr wohl. \nUnser Badi-Restaurant verw\u00f6hnt die G\u00e4ste mit Fitnesstellern,  mit feinen Hamburger mit knackigen Pommes, feinen Eis aus der Region, einem guten Kaffee und viel mehr. \nUmkleidekabnen und Schliessf\u00e4cher stehen gratis zur Verf\u00fcgung, wie die warmen Duschen. F\u00fcr Gross und Klein stehen auch Tischkickertische und Tischtennis zur Verf\u00fcgung. \nZugang m\u00f6glich f\u00fcr RollstuhlfahrerInnen; eine Behinderten-Toilette und Behinderten-Umkleidekabinen! Einstiegshilfe vorhanden.", "url": "http://www.ebnat-kappel.ch/de/lebensraum/freizeitmain/schwimmbad/", "image": "https://ttpimtsoch.sos-ch-dk-2.exoscale-cdn.com/catalog/a/2/9/b/a29bd26c58ed67609f8a32c36b3c912a3be25020_2020_Ebnat_Kappel_08.jpg", "openstreetmap_id": "59126799"}, "geometry": {"type": "Point", "coordinates": ["9.1229262", "47.2659037"]}}, {"type": "Feature", "properties": {"identifier": "7b96fe53-944c-4fb2-a879-b3fc1f441800", "name": "Toggenburger Kr\u00e4uterfrauen", "description": "Tauchen Sie in die Welt der Kr\u00e4uterfrauen ein und erfahren Sie auf einem Erlebnis-Rundgang selbst die Arbeit mit den farbintensiven und duftenden Kr\u00e4utern. Nach Lust und Laune d\u00fcrfen Sie Kr\u00e4uter von unserem Acker ernten und mit unseren Tipps eine eigene Teemischung zusammenstellen, die wir anschliessend f\u00fcr Sie trocknen. Auf unserer Website finden Sie noch weitere Angebote f\u00fcr Ihren Ausflug zu uns.", "url": "https://kraeuterfrauen.com", "image": "https://ttpimtsoch.sos-ch-dk-2.exoscale-cdn.com/catalog/9/b/8/e/9b8eb344cf666b5f6035ef0b5270e9d7834694b0_IMG_0242__2.jpg", "openstreetmap_id": "way/281748559"}, "geometry": {"type": "Point", "coordinates": ["9.16558835", "47.25783525"]}}, {"type": "Feature", "properties": {"identifier": "7cc542dc-c9e9-497c-856d-75406356a970", "name": "Wolzenalp", "description": "<p>G&auml;stescreens</p>", "image": "https://ttpimtsoch.sos-ch-dk-2.exoscale-cdn.com/catalog/6/9/2/e/692e69f99ee14aa760f5d2845375f6764e1b54b4_Winterwanderweg_Wolzenalp_Nesslau_Sesselbahn.jpg", "openstreetmap_id": "647467721"}}, {"type": "Feature", "properties": {"identifier": "7f101480-6382-4a08-8952-2a8ecef23dbf", "name": "Sesselbahn Krummenau \u2013 Wolzenalp", "description": "Von Krummenau aus k\u00f6nnen Sie sich mit der Sesselbahn Krummenau-Wolzenalp zum Rietbach hinauf fahren lassen und dabei das Tal der Thur aus luftiger H\u00f6he betrachten.\nNach einer sch\u00f6nen Wanderung, einer Rast bei einer Feuerstelle oder auf der Sonnnenterrasse des Restaurant Wolzenalp, haben Sie sicher wieder Energie getankt f\u00fcr den Abstieg ins Tal.\nKeine Behinderten-Toilette; nur bedingt geeignet f\u00fcr RollstuhlfahrerInnen.", "url": "https://wolzenalp.ch", "image": "https://ttpimtsoch.sos-ch-dk-2.exoscale-cdn.com/catalog/8/7/a/0/87a09bed94042ab1343e9e70d07817bdc60183d9_Sessel_Mami_und_Tochter_s.jpg", "openstreetmap_id": "node/628112148"}, "geometry": {"type": "Point", "coordinates": ["9.168820381164553", "47.24394410701422"]}}, {"type": "Feature", "properties": {"identifier": "838c65b3-d7a8-4e03-a783-4009445ffe18", "name": "Kino S\u00e4ntis Lodge", "description": "Das Kino S\u00e4ntis Lodge bietet zweimal t\u00e4glich verschiedene Filmvorf\u00fchrungen an. Die Vorstellungen finden jeweils um 16:30 Uhr und um 20 Uhr* statt und sind kostenlos. \nDas Kino kann ausserdem ebenfalls f\u00fcr individuelle Anl\u00e4sse, wie zum Beispiel Geburtstagspartys mit einem Wunschfilm und Pizzaplausch, benutzt werden. Familienfreundlich und gem\u00fctlich in Filme eintauchen geht nirgends besser als hier. \n\nWir freuen uns auf Ihren Besuch!\n\n*Bitte beachten Sie, dass der Zugang zum Film ab 20 Uhr nur auf Voranmeldung m\u00f6glich ist.<", "url": "https://bergundbett.ch/kinoprogramm/", "image": "https://ttpimtsoch.sos-ch-dk-2.exoscale-cdn.com/catalog/6/5/0/e/650e6ab8fce3560f1545a6f858051312fbfff8c4_62_Kino_S__ntisLodge.jpg", "openstreetmap_id": "way/222237524"}, "geometry": {"type": "Point", "coordinates": ["9.3133166", "47.1963286"]}}, {"type": "Feature", "properties": {"identifier": "85870804-f0a7-44ed-aa4f-2cb4fcb34197", "name": "Velo-Metzg GmbH", "description": "Ben\u00f6tigen Sie einen neuen Velohelm oder haben Sie noch gar keinen? Wir haben auch eine tolle Auswahl an Velobekleidung und vieles mehr f\u00fcr&#039;s und rund um&#039;s Bike.\n\nInfrastruktur f\u00fcr Zweir\u00e4der:\n- Mietstation\n- Servicestation/Shop", "url": "https://www.velometzg.ch", "image": "https://ttpimtsoch.sos-ch-dk-2.exoscale-cdn.com/catalog/c/3/4/a/c34a1ee249e1453b9cd48d9fdc8e2a6edf6d20b2_Velo_Metzg_Aussenansicht_1.JPG", "openstreetmap_id": "node/222237702"}, "geometry": {"type": "Point", "coordinates": ["9.309736", "47.197296"]}}, {"type": "Feature", "properties": {"identifier": "917ebc5d-1429-4ce7-a5bb-77e0492b2555", "name": "Klangsein: Wohltuende und regenerierende Entspannung durch Klang.", "description": "<p>Die Klangschalenmassage zeichnet sich durch obertonreiche Kl&auml;nge und feine Vibrationen aus, welche unser Nervensystem beruhigen. Die Klangschalen werden sowohl auf, als auch um den bekleideten K&ouml;rper positioniert und mit einem Filzschl&auml;gel sanft zum Klingen gebracht. Die harmonischen, obertonreichen Kl&auml;nge der verschiedenen Schalen erm&ouml;glichen Tiefenentspannung. Die feinen Vibrationen der Schalen bringen die Fl&uuml;ssigkeit im K&ouml;rper zum Schwingen und breiten sich im K&ouml;rper aus, vergleichbar mit den konzentrischen Wellen, die entstehen, wenn ein Stein ins Wasser f&auml;llt. Muskul&auml;re Verspannungen werden sanft gel&ouml;st, Faszien gelockert sowie Durchblutung und Lymphfluss angeregt. Die tiefe Entspannung beeinflusst Atmung, Herzkreislaufsystem, Stoffwechsel und Verdauungssystem positiv. Die Regenerationsf&auml;higkeit des K&ouml;rpers wird so gef&ouml;rdert. Das urspr&uuml;ngliche Vertrauen sowie die K&ouml;rper- und Selbstwahrnehmung werden gest&auml;rkt. Ein Gef&uuml;hl von Entspannung und Leichtigkeit wird erfahrbar &ndash; Wellness f&uuml;r K&ouml;rper, Seele und Geist.</p>", "url": "https://klangsein.ch", "image": "https://ttpimtsoch.sos-ch-dk-2.exoscale-cdn.com/catalog/7/9/9/1/7991e99eafa34c871e58fe1ce0f4e91d8a6f9d58_Klangsein_Klangschale_First_Churfirsten_Obertoggenburg.JPG", "openstreetmap_id": "node/2046854445"}, "geometry": {"type": "Point", "coordinates": ["9.30894", "47.20253"]}}, {"type": "Feature", "properties": {"identifier": "95fdee83-2c45-4a1e-b0a5-cbff71179b80", "name": "Hof Entenbach", "description": "Im 24h Selbstbedienungshofl\u00e4deli findest du saisonale Produkte vom Hof: Eier, \u00c4pfel, selbstgepresster Most, diverse Sirupe und vieles mehr. \n\nAuf Anfrage bietet der Hof Entenbach auch Fleisch-Mischpakete vom Beef oder Schwein an.\n\nNebst Lebensmittel werdet ihr auch f\u00fcndig, wenn ihr auf der Suche nach kleinen Geschenken sind. So gibt es hier zum Beispiel Scherenschnittkappen, Stirnb\u00e4nder und weitere selbstgen\u00e4hte Unikate.\n", "url": "https://www.hofentenbach.ch/", "image": "https://ttpimtsoch.sos-ch-dk-2.exoscale-cdn.com/catalog/b/7/6/8/b768b5b49b4aed3880aaa1f7c63f3cbe20f0525d_IMG_20220914_WA0021.jpg", "openstreetmap_id": "way/767480486"}, "geometry": {"type": "Point", "coordinates": ["8.984662592411043", "47.3719585767651"]}}, {"type": "Feature", "properties": {"identifier": "9876a553-9f64-4354-a43e-f529efa836c9", "name": "B\u00f6delil\u00e4deli", "description": "Hier verkaufen wir unsere Milch in einem Milchautomat. Ein Gef\u00e4ss zum Abf\u00fcllen bitte selber mitbringen. Weiter im Angebot haben wir: Eier, Jogurt, verschiedene K\u00e4se, Butter, Toggenburger Glace, Mehl, jeden Samstag Z\u00f6pfe, Birnenbrot, diverese Gonfi, Kr\u00e4utersalz und Sirup je nach Saison. Ein Besuch lohnt sich bestimmt!\nZahlung bar oder per Twint m\u00f6glich.", "url": "https://www.b\u00f6delil\u00e4deli.ch", "image": "https://ttpimtsoch.sos-ch-dk-2.exoscale-cdn.com/catalog/8/9/8/7/8987719e3f7e6f46565cae7790a284d40f8e265c_La__deli__2.jpeg", "openstreetmap_id": "node/2312187899"}, "geometry": {"type": "Point", "coordinates": ["9.307746769231155", "47.197282714546"]}}, {"type": "Feature", "properties": {"identifier": "98d7c75b-07dd-426d-b061-72924b108a07", "name": "Bike Academy Toggenburg", "description": "Du willst (e-) mountainbiken, bist aber unerfahren auf steilen Anstiegen und Abfahrten? Du bist es nicht gewohnt, auf unterschiedlichem Terrain zu biken?\nDann komm' zu uns - so werden deine Mountainbike-Erlebnisse Spass machen ... mit Sicherheit! Kids lernen bei uns spielend biken: der Spass ist garantiert.\nDie Bike Academy Toggenburg ist bis Oktober t\u00e4glich ge\u00f6ffnet - sende uns jetzt deine Reservationsanfrage.", "url": "http://www.bikeacademytoggenburg.ch/", "image": "https://ttpimtsoch.sos-ch-dk-2.exoscale-cdn.com/catalog/6/9/4/c/694ccd13a85e1d4a5238fd4d7069da037f8317ff_Bildschirmfoto_2026_07_14_um_11.22.32.png", "openstreetmap_id": "node/10011460406"}, "geometry": {"type": "Point", "coordinates": ["9.343051314353945", "47.200574813648"]}}, {"type": "Feature", "properties": {"identifier": "9deab758-e1a5-4e1e-b692-4161a9fecf9f", "name": "Bibliothek und Ludothek Nesslau", "description": "<p><strong>Entdecken Sie in der Bibliothek alles, was das Leserherz begehrt!</strong><br>Vom Krimi bis zum Liebesroman, vom Pappbilderbuch bis zum Sachbuch &ndash; hier finden Sie das passende Buch f&uuml;r die ganze Familie!</p>\n<p><strong>Nach einem Besuch in der Ludothek hat Langeweile bei Regenwetter keine Chance!</strong><br>Bei uns finden Sie ein grosses Sortiment an Gesellschaftsspielen, verschiedenen Spielsachen, H&ouml;rb&uuml;chern inkl. Tonies, Outdoorspielen und vielem mehr...</p>\n<p><strong>Fehlt etwas in der Ferienwohnung, z.\u202fB. ein Pizzaofen?</strong><br>Vielleicht finden Sie es in unserer Bibliothek der Dinge. Wir bieten die M&ouml;glichkeit von Einzelausleihen ohne Abo.</p>\n<p><strong>Parkplatz, Treppenlift und Behindertentoilette sind vorhanden.</strong></p>", "url": "https://www.bibliothek-nesslau.ch/", "image": "https://ttpimtsoch.sos-ch-dk-2.exoscale-cdn.com/catalog/c/4/0/c/c40c2b6cfb898a7487a728e31437729eb012a47d_IMG_20241207_084540_resized_20241207_094511701.jpg", "openstreetmap_id": "node/11306760191"}, "geometry": {"type": "Point", "coordinates": ["9.199032783508303", "47.228938230627655"]}}, {"type": "Feature", "properties": {"identifier": "9ec08e9f-723a-4120-822f-f5962dffc39a", "name": "Velo K\u00f6bi Nesslau", "description": "- Verkauf von Bikes und E-Bikes, Zubeh\u00f6r und Bekleidung\n- Service und Reparatur aller Marken (bei E-Bikes, sofern technisch m\u00f6glich)\n- Vermietung von E-Bikes", "url": "https://www.velokoebi.ch/", "image": "https://ttpimtsoch.sos-ch-dk-2.exoscale-cdn.com/catalog/d/c/1/4/dc14500cc5f82cbea114b4ab69f3969ee4473bd9_IMG_20220308_135825.jpg", "openstreetmap_id": "node/2865023051"}, "geometry": {"type": "Point", "coordinates": ["9.20292", "47.22287"]}}, {"type": "Feature", "properties": {"identifier": "a180b3f3-57d5-4d95-bbdb-5f9d5d769c37", "name": "24h k\u00f6stliche Vielfalt", "description": "Hereinspaziert in die Welt des Genusses! Unter den historischen Arkaden im Zentrum Lichtensteigs kannst du rund um die Uhr Spezialit\u00e4ten aus dem Toggenburg sowie Bier-Vielfalt aus aller Welt kaufen. Entdecke die kulinarischen Sch\u00e4tze aus dem Toggenburg und nimm die Spezialit\u00e4ten gleich mit nach Hause. Herzlich Willkommen!", "url": "https://www.9620.ch/", "image": "https://ttpimtsoch.sos-ch-dk-2.exoscale-cdn.com/catalog/c/b/a/a/cbaa17c07eb727a0e2f93d49fd6c23842da8eca6_IMG20211220141456__1_.jpg", "openstreetmap_id": "node/3904703662"}, "geometry": {"type": "Point", "coordinates": ["9.08765", "47.32278"]}}, {"type": "Feature", "properties": {"identifier": "a2e7f4e1-4e7f-4e64-bd10-593343538a3a", "name": "Haus am Rain Ski- und Ferienhaus", "description": "<div><p>Willkommen in unserem charmanten Gruppenhaus mit sieben einladenden Zimmern. Jedes Zimmer bietet Platz f&uuml;r bis zu vier Personen und verf&uuml;gt &uuml;ber ein eigenes Badezimmer.</p><p>Das Haus bietet grossz&uuml;gige Aufenthaltsr&auml;ume, die zum geselligen Beisammensein einladen, sowie eine voll ausgestattete Gastrok&uuml;che, die kulinarische Erlebnisse f&uuml;r gr&ouml;ssere Gruppen erm&ouml;glicht. F&uuml;r kleinere Gruppen steht zudem eine separate, gem&uuml;tliche K&uuml;che zur Verf&uuml;gung.</p><p>Die weitl&auml;ufige Terrasse mit Grill l&auml;dt zu unvergesslichen Grillabenden unter freiem Himmel ein &ndash; begleitet von einer atemberaubenden Aussicht auf die majest&auml;tischen Berge S&auml;ntis und Schafberg.</p><p>Dank der ruhigen und dennoch zentralen Lage, nur f&uuml;nf Minuten von den &ouml;ffentlichen Verkehrsmitteln und den Bergbahnen entfernt, ist das Haus der ideale Ausgangspunkt f&uuml;r Skifahrer, Wanderer und Biker.</p><p>Hier finden Sie den perfekten Ort, um zur Ruhe zu kommen, die Natur zu geniessen und neue Abenteuer zu erleben.</p></div>", "url": "https://hausamrain.ch", "image": "https://ttpimtsoch.sos-ch-dk-2.exoscale-cdn.com/catalog/2/3/5/4/23548e4a0f2abdf9b5d81305cea250849e9d8600_2.jpg", "openstreetmap_id": "way/222237321"}, "geometry": {"type": "Point", "coordinates": ["9.282629550000003", "47.190927599999995"]}}, {"type": "Feature", "properties": {"identifier": "a7669609-b863-4c5b-9c02-e2855b9ce7eb", "name": "Metzgerei Metzger AG / Extraw\u00fcrste.ch", "description": "\u2026 ist die Toggenburger Traditionsmetzgerei seit 1932. \u00dcber 200 Fleisch- und Wurstprodukte stellen wir selber her. Meist nach altbew\u00e4hrten Rezepten. Fast alles Fleisch stammt von Tieren aus dem Toggenburg. Unsere Lieferanten kennen wir pers\u00f6nlich. Bei Hygiene und Zusatzstoffen orientieren wir uns an modernsten Grunds\u00e4tzen. Bis bald in unseren zwei besteingerichteten Verkaufsgesch\u00e4ften im Toggenburg! Oder bei den Verkaufswagen \u00fcberall im Z\u00fcrcherland.\n\nIm Unterschied zu Grossverteilern setzt die Metzgerei Metzger AG auf reine Handwerkskunst: Mitarbeitende mit teils jahrzehntelanger Erfahrung kontrollieren die Herstellung von der Fleischgewinnung bis zum Verkauf.\n\n-Zn\u00fc\u00fcni Hit: jeden Tag was von der warmen Theke f\u00fcr CHF 5.00 im B\u00fcrli\n- Geschenke und Mitbringsel\n- Catering; fragen Sie uns an: info@metzger-metzger.ch\n- Hausgemachte Fleisch und Wurstspezialit\u00e4ten\n- Toggenburger Fleischspezialit\u00e4ten; Stockbergspeck, Mostb\u00f6ckli, Birnenm\u00f6ckli usw.\n- extrawuerste.ch\n- Fleisch- und K\u00e4seplatten f\u00fcr jede Gelegenheit", "url": "https://www.metzger-metzger.ch/", "image": "https://ttpimtsoch.sos-ch-dk-2.exoscale-cdn.com/catalog/e/a/1/0/ea1089b4a971157f6aee97315ac71fccd446b98b_20230209_164427.jpg", "openstreetmap_id": "3520052677"}, "geometry": {"type": "Point", "coordinates": ["9.1985037", "47.2278863"]}}, {"type": "Feature", "properties": {"identifier": "a7c02bf1-0e4d-4d47-aa78-cc197eea4ec4", "name": "Yoga in der Trefferei in Unterwasser", "description": "<p>Yoga bietet dir eine wertvolle Auszeit, in der wohltuende Bewegungen deinen K&ouml;rper und Geist st&auml;rken. Es f&ouml;rdert deine Kraft, Flexibilit&auml;t und verbindet Atmung mit Bewegung f&uuml;r ein harmonisches Wohlbefinden.</p>\n<p>&nbsp;</p>\n<p><a href=\"https://www.eversports.ch/scl/gesundheitszeit-gmbh\" target=\"_blank\" rel=\"noopener\">Buche hier dein Yoga-Erlebnis</a></p>", "url": "https://www.gesundheitszeit.com", "image": "https://ttpimtsoch.sos-ch-dk-2.exoscale-cdn.com/catalog/9/8/7/e/987e319b0fe667fe8055a1acae4ed5f5ee75f8bf_IMG_20250228_WA0054.jpg", "openstreetmap_id": "way/222237609"}, "geometry": {"type": "Point", "coordinates": ["9.307404756407534", "47.19817667222202"]}}, {"type": "Feature", "properties": {"identifier": "abe52916-cfb2-4264-9e1e-57eb7a584b04", "name": "Hasenb\u00fcel - Ferien auf dem Bauernhof", "description": "Oberhalb des Dorfes Dicken im Neckertal liegt unser Hof mit herrlicher Aussicht in die Bergwelt. Wir betreiben Milchwirtschaft und Schweinezucht. Nebenbei haben wir noch einen Hofladen mit Konfit\u00fcren, Sirup, Eingemachtes und Geschenksartikel. \n\nUm sich vom Alltag zu erholen, geniessen Sie die Ruhe bei uns. Idealer Ausgangspunkt f\u00fcr Ausfl\u00fcge ins Toggenburg und ins Appenzellerland. \n\nUnsere 5-Zimmer-Wohnung befindet sich im 3. Stock mit eigenem Eingang; K\u00fcche mit Esszimmer, Wohnzimmer, 2 Doppelzimmer, Dusche/WC. Eine Etage h\u00f6her: ein Doppelzimmer. Raumh\u00f6he 1,85 m. \n\nHerzlich willkommen - bei uns im Hasenb\u00fcel.", "url": "https://www.hasenbuel.ch", "image": "https://ttpimtsoch.sos-ch-dk-2.exoscale-cdn.com/catalog/e/3/b/d/e3bdc30ea2b0ecc0ca3a0bc1d3f2063d25c3b8ed_Hasenb__el.jpg", "openstreetmap_id": "way/177911518"}, "geometry": {"type": "Point", "coordinates": ["9.187876661075947", "47.33900375"]}}, {"type": "Feature", "properties": {"identifier": "ae0b3c2d-c8dc-4ff4-b37e-7af3f086a690", "name": "Ferien auf dem Bauernhof Halden", "description": "In der Wohnung gibt es Platz f\u00fcr 7 Personen. Nebst der K\u00fcche, Wohnzimmer und Badezimmer sind 2 Doppelzimmer sowie ein Schlafzimmer mit zwei Einzelbetten vorhanden.", "url": "https://115817000000.holidaybooking.ch/ferienwohnung/446033/halden-598-unterwasser-toggenburg-ostschweiz-schweiz/#bewertung", "image": "https://ttpimtsoch.sos-ch-dk-2.exoscale-cdn.com/catalog/5/9/7/c/597cd612ba47e7200af4c52bc4dab533c7522f95_IMG_20240929_WA0004.jpg", "openstreetmap_id": "way/626248835"}, "geometry": {"type": "Point", "coordinates": ["9.29376", "47.2022"]}}, {"type": "Feature", "properties": {"identifier": "b5e72065-c202-4039-91dd-1606604d2898", "name": "24 Stunden Shop Wildhaus by Metzger Metzger", "description": "Der 24-Stunden-Delikatessen-Shop der Metzgerei Metzger AG hat immer leckere Spezialit\u00e4ten aus der Region f\u00fcr sie bereit.\nDirekt an der Hauptstrasse in Wildhaus (ehemals Foto Forrer). Da gibt\u2019s Leckerbissen der Metzgerei Metzger und Toggenburger Spezialit\u00e4ten von der Bauernfrau bis zum K\u00e4ser. Frisch- und Trockenfleisch, K\u00e4se, Milch, Jogurt aus der Region, Geschenksartikel, ged\u00f6rrtes Obst direkt vom Bauer, Brot und s\u00fcsse vom Beck und allerlei gutes aus der Region f\u00fcr Proviant auf die Schneeschuhtour, auf den Grill und Herd in der Ferienwohnung oder einfach f\u00fcr zuhause.\nBezahlung erfolgt ganz unkompliziert mit Bargeld oder per TWINT. Eine Innovation der Metzgerei Metzger AG.", "url": "https://www.metzger-metzger.ch", "image": "https://ttpimtsoch.sos-ch-dk-2.exoscale-cdn.com/catalog/6/0/e/1/60e1ade86f70b07e3edf984ce98f5a4ac10696bd_1000005805.jpg", "openstreetmap_id": "way/25908283"}, "geometry": {"type": "Point", "coordinates": ["9.350298643112184", "47.20319972965781"]}}, {"type": "Feature", "properties": {"identifier": "b8cb451f-6ed9-446e-9515-1c682194c5c3", "name": "Wolzenalp", "description": "<p>Die Wolzenalp begeistert das ganze Jahr &uuml;ber als vielseitiges Ausflugsziel f&uuml;r Familien, Naturfreunde und Geniesser. Ob verschneite Winterlandschaft oder sonnige Bergtage &ndash; hier warten unvergessliche Erlebnisse in jeder Jahreszeit. Im Winter verwandelt sich die Wolzenalp in ein besonders familienfreundliches Schneesportgebiet. Das &uuml;berschaubare Skigebiet mit liebevoll gestaltetem Kinderland bietet ideale Bedingungen f&uuml;r die ersten Schw&uuml;nge im Schnee. In der Schneesportschule lernen Kinder und Erwachsene spielerisch Ski- und Snowboardfahren. Erg&auml;nzt wird das Winterangebot durch abwechslungsreiche Schlittelpisten, stimmungsvolle Schneeschuhtouren und sorgf&auml;ltig pr&auml;parierte Winterwanderwege, die die verschneite Bergwelt auf ruhige Weise erlebbar machen. Im Sommer zeigt sich die Wolzenalp von ihrer naturverbundenen Seite. Familien geniessen den grossz&uuml;gigen Kinderspielplatz, gem&uuml;tliche Grillstellen und spannende Themenwege wie den Klimaerlebnisweg und den Moorerlebnisweg, die Naturwissen mit Bewegung verbinden. F&uuml;r Aktive bieten sich vielseitige Bike-Strecken sowie zahlreiche Wanderwege mit herrlichem Panorama &uuml;ber das Toggenburg an. Ein besonderes Highlight ist das Bergrestaurant mit sonniger Terrasse, das nicht nur mit einer traumhaften Aussicht &uuml;berzeugt, sondern auch mit frischen, regionalen Spezialit&auml;ten aus der Umgebung. Die Verbindung aus authentischer Berggastronomie, herzlicher Atmosph&auml;re und naturnahem Freizeitangebot macht die Wolzenalp zu einem einzigartigen Ausflugsziel f&uuml;r jede Jahreszeit. Ihre Vorteile auf einen Blick: Ganzjahres-Erlebnis f&uuml;r die ganze Familie, besonders kinderfreundliches Freizeitangebot. Naturerlebnisse im Sommer und Winter, regionale K&uuml;che mit Panoramaterrasse. Erholung und Aktivit&auml;t an einem Ort vereint.<br><br>Auskunft zur Zug&auml;nglichkeit: <a href=\"https://www.ginto.guide/entries/BFB0F82C-C09A-4943-B79D-E0A5B5611EA7?lnk_src=business\">ginto</a></p>", "url": "https://www.wolzenalp.ch", "image": "https://ttpimtsoch.sos-ch-dk-2.exoscale-cdn.com/catalog/c/c/4/f/cc4f04a099bf78f822a020f69ba50a3523d083f0_Archivbild_mit_Logo_Wolzenalp.jpg", "openstreetmap_id": "647467721"}, "geometry": {"type": "Point", "coordinates": ["9.168841838836672", "47.243952753251826"]}}, {"type": "Feature", "properties": {"identifier": "c1605d07-bc69-43de-821a-59156c1603ab", "name": "Landwirtschaftsbetrieb RothMilch in Kengelbach", "description": "Wir stellen auf unserem Milchwirtschaftsbetrieb eigene pasteurisierte Vollmilch her. Die Milch kommt zu 100%  von unseren K\u00fchen und wird m\u00f6glichst nah am Naturprodukt gelassen.\nZus\u00e4tzlich stellen wir aus unsere feinen Milch auch verschieden Fruchtjoghurts und das Naturjoghurt her. Die Milch und die Joghurts werden in Glasflaschen und Joghurtgl\u00e4ser abgef\u00fcllt und danach wiederverwendet.", "url": "https://roth-milch.ch", "image": "https://ttpimtsoch.sos-ch-dk-2.exoscale-cdn.com/catalog/b/8/3/0/b8303dcac0b4f3127dc2081d2c362be05cb1ffbf_RothHof_200415_0348_ok.jpg", "openstreetmap_id": "way/216846144"}, "geometry": {"type": "Point", "coordinates": ["9.067711830139162", "47.33518668820797"]}}, {"type": "Feature", "properties": {"identifier": "c9380b25-0191-418b-a1ca-51db20bc61ac", "name": "Klettergarten Stoss", "description": "Der Klettergarten \u00abStoss\u00bb ist ab den geb\u00fchrenpflichtigen Parkplatz \u00abLaui\u00bb in ca. 1.5h Zustieg zu erreichen und bietet  bis zum Grad 6b aussichtsreiche Kletterrouten f\u00fcr die ganze Familie. \nFolgende Routen sind am Klettergarten \u00abStoss\u00bb anzutreffen: \n(Die Nummern in Klammern sind am Einstieg angeschrieben. Angaben ohne Gew\u00e4hr)\n\nRouten: \n- 0 / \u00abOlaf\u00bb / 4c / 15m\n- 1 / \u00abMicki\u00bb / 4b / 15m\n- 2 / \u00abGofi\u00bb / 3b / 15m\n- 3 / \u00abFred\u00bb / 4b / 15m\n- 4 / \u00abObelix\u00bb / 4c / 20m\n- 5 / \u00abAmore mio\u00bb / 4b / 40m\n- 6 / \u00abD\u00e4 Ahorn\u00bb / 5a / 40m \n- 7 (6a) / \u00ablauf zue\u00bb / 4b / 40m\n- 8 / \u00abSiloetta\u00bb / 5a / 40m\n- 9 (7) / \u00abBl\u00fcemli\u00bb / 5a / 40m\n- 10 (8) / \u00abSchlitzohr\u00bb / 4a / 40m\n- 11 (9) / \u00abLet`s Go\u00bb / 5a / 40m\n- 12 / \u00abMargeritha\u00bb / 5b / 40m\n- 13 (10) / \u00ab\u00e4s bitzeli gr\u00fcen\u00bb / 5c / 40m\n- 14 (11) / \u00abR-W\u00e4g\u00bb / 5c / 40m\n- 15 (12) / \u00abDi Ruch\u00bb / 4c / 40m\n- 16 / \u00abMamma mia\u00bb / 5c+ / 40m\n- 17 (13) / \u00abC\u00e4t\u00bb / 6a+ / 45m\n- 18 / (14) / \u00abTropf\u00bb / 5c+ / 45m \n- 19 / \u00abBilly\u00bb / 5c+ / 45m\n-20 (15) / \u00abIrrw\u00e4g\u00bb / 5c+\n- 21 (16) / \u00abBijou\u00bb / 5c / 45m\n- 22 / \u00abnamelos\u00bb / 5c+ / 20m\n- 23 (18) / \u00abTr\u00e4umli\u00bb / 6a+ / 20m\n- 23a (19) / \u00abSal\u00fc Koni\u00bb / 5c / 47m\n- 24 (20) / \u00abVia Andi\u00bb / 5c+ / 47m\n- 25 (21) / \u00abHeinz\u00bb / 5b+ / 47m\n- 26 (22) / \u00abSieba Dezi\u00bb / 6a+ / 47m\n- 27 (23) / \u00abNicoletta\u00bb / 5c+ / 47m\n- 28 (25) / \u00abCapretta/Top\u00bb / 5c / 47m\n- 29 (26) / \u00abWespi Riss\u00bb / 5b / 45m\n- 30 (27) / \u00abDe Sunnew\u00e4g\u00bb / 5c / 45m\n- 31 (28) / \u00abGang go luege\u00bb / 5b / 35m\n- 32 / \u00abProbiere muesch\u00bb / 5c+ / 35m\n- 33 / \u00abjetz oder nie\u00bb / 5a / 35m\n- 34 / \u00abAmeisew\u00e4g\u00bb / 6a / 35m\n- 35 / \u00abExtra liecht\u00bb / 4c / 35m\n- 36 / \u00abNo n\u00f6d schare\u00bb / 5b / 35m\n- 36a / \u00abPower isch gfragt\u00bb / 6b / 20m\n- 37 / \u00abErbetta\u00bb / 4b / 35m\n- 38 / \u00abMoretta\u00bb / 4a / 35m\n- 39 / \u00abBambi\u00bb / 3a / 15m\n- 40 / \u00abAngela\u00bb / 3a / 20m\n- 41 / \u00abNegretta\u00bb / 3b / 20m  \n\nWeitere Informationen zu den Routen finden Sie im \u00abSAC Kletterf\u00fchrer Alpstein\u00bb und in der Tourist Information Wildhaus.", "url": "https://toggenburg.swiss/de/berge-erleben.html", "image": "https://ttpimtsoch.sos-ch-dk-2.exoscale-cdn.com/catalog/0/f/e/9/0fe93c10b1c619a70295b1b14d8b2ef1e5c2e86e_TOOGI_KLETTERN_sept14_RUPA_477.jpg", "openstreetmap_id": "way/518287859"}, "geometry": {"type": "Point", "coordinates": ["9.314378499984743", "47.22880286400825"]}}, {"type": "Feature", "properties": {"identifier": "cca3ac1b-a5c3-4d66-ae0b-30aac7f490aa", "name": "Sport Shop Iltios", "description": "Auf dem Iltios finden Sie eine Auswahl an Skiausr\u00fcstungen f\u00fcr jedes Level: Ski, St\u00f6cke, Helme, Schuhe. F\u00fcr Einzelpersonen und Gruppen die ihren Skitag geniessen. Mitten im Gebiet unkompliziert probieren, fahren und wieder zur\u00fcckbringen. Weitere Accessoires k\u00f6nnen im Sport Shop Iltios gekauft werden: Helme, Brillen, Handschuhe\u2026", "url": "https://www.chaeserrugg.ch/de/Ausruestung_mieten.html", "image": "https://ttpimtsoch.sos-ch-dk-2.exoscale-cdn.com/catalog/2/9/3/9/2939caad6d992cef00e45aa6656e33e469ca9ad9_Iltios_4.jpg", "openstreetmap_id": "node/3617797478"}, "geometry": {"type": "Point", "coordinates": ["9.3127", "47.1851"]}}, {"type": "Feature", "properties": {"identifier": "ce0ec21c-a4bd-4d10-8393-4d9251dae1f6", "name": "24-Stunden-Shop Metzgerei Metzger in Stein SG", "description": "Direkt an der Hauptstrasse Nesslau\u2013Wildhaus in der alten Metzg im Dorf Stein SG. Da gibt\u2019s Leckerbissen der Metzgerei Metzger und Toggenburger Spezialit\u00e4ten von der Bauernfrau bis zum K\u00e4ser. Frisch- und Trockenfleisch, K\u00e4se, Milch, Jogurt aus der Region, Geschenksartikel, ged\u00f6rrtes Obst direkt vom Bauer, Brot und s\u00fcsse vom Beck und allerlei gutes aus der Region f\u00fcr Proviant auf die Schneeschuhtour, auf den Grill und Herd in der Ferienwohnung oder einfach f\u00fcr zuhause.\nBezahlung erfolgt ganz unkompliziert bar im Couvert wie fr\u00fcher, oder per TWINT. Eine Innovation der Metzgerei Metzger AG.", "url": "https://www.metzger-metzger.ch/", "image": "https://ttpimtsoch.sos-ch-dk-2.exoscale-cdn.com/catalog/d/e/7/3/de733762fdb9b08afb8dc49228d88859dde291dc_24_Stunden_Shop_01.jpg", "openstreetmap_id": "392854609"}, "geometry": {"type": "Point", "coordinates": ["9.2265659", "47.2003328"]}}, {"type": "Feature", "properties": {"identifier": "d0d5a764-a3f8-48e5-8fd5-92aaab7be114", "name": "Kegelbahn Hotel Restaurant Sternen Nesslau", "description": "Kegeln ist ein Spass f\u00fcr Kolleginnen und Kollegen, Freundinnen und Freunde oder f\u00fcr die ganze Familie. Bitte beachten Sie, dass eine Kegelpartie unbedingt vorreserviert werden soll, da der Keller gut besucht ist.", "url": "https://sternen-nesslau.ch", "image": "https://ttpimtsoch.sos-ch-dk-2.exoscale-cdn.com/catalog/7/1/7/5/71755595b53d77bdcfd9ffd26b481e0d062fbe12_VCE6pEiyUJmuuKTyjYsB.jpg", "openstreetmap_id": "node/9036296295"}, "geometry": {"type": "Point", "coordinates": ["9.19909179210663", "47.22382022634832"]}}, {"type": "Feature", "properties": {"identifier": "d0ecc36c-b0aa-4705-8cd1-078880e469e5", "name": "Luftseilbahn Iltios \u2013 Ch\u00e4serrugg", "description": "<p>Die Luftseilbahn Iltios \u2013 Ch\u00e4serrugg bringt ganzj\u00e4hrig die G\u00e4ste bequem auf den \u00f6stlichen Gipfel der sieben Churfirsten und zur\u00fcck auf den Iltios. W\u00e4hrend der Fahrt mit der Luftseilbahn schweift der Blick \u00fcber die Landschaft des Toggenburgs, den Alpstein und bietet eine spannende Perspektive auf die Nordseite des Gipfelgeb\u00e4udes. Des Weiteren k\u00f6nnen w\u00e4hrend der Fahrt oftmals G\u00e4mse in den vorbeiziehenden Felsb\u00e4ndern beobachtet werden, und die verschiedenen Gesteinsschichten treten eindrucksvoll zutage. Auf dem Ch\u00e4serrugg befindet sich das Gipfelrestaurant Ch\u00e4serrugg, wo Kulinarik und Architektur von Herzog & de Meuron eine harmonische Verbindung eingehen. Direkt am Gipfel schliesst die Hochebene Rosenboden mit dem Panoramarundweg an, der im Sommer wie auch im Winter begangen werden kann. Dabei bietet sich eine Aussicht auf \u00fcber 500 Berggipfel in sechs L\u00e4ndern, den Walensee und die umliegende Bergwelt. Im Winter bietet der Ch\u00e4serrugg die l\u00e4ngste Abfahrt im Obertoggenburg. Im Juni 2023 erhielt die Bahn zwei neue Kabinen, die in Zusammenarbeit mit den Architekten Herzog & de Meuron sowie Studio Noun entworfen wurden, um das G\u00e4steerlebnis zu unterstreichen.</p><p>\u00a0</p><p>Auskunft zur Zug\u00e4nglichkeit:\u00a0<a href=\"https://www.ginto.guide/entries/109623b1-b6e4-44db-87b2-865cf60efc9d?lnk_src=business\" target=\"_blank\" rel=\"noopener\">ginto</a></p>", "url": "https://www.chaeserrugg.ch/de", "image": "https://ttpimtsoch.sos-ch-dk-2.exoscale-cdn.com/catalog/a/7/a/6/a7a69920155a2ac3d4ad7dd913dad634fa2813d4_0000702_chaeserrugg_shooting_am_S_24.jpg", "openstreetmap_id": "node/197929400"}, "geometry": {"type": "Point", "coordinates": ["9.311814", "47.185046"]}}, {"type": "Feature", "properties": {"identifier": "d29a3491-9163-4dc2-8d56-dd3b8559dbf1", "name": "Massagetherapie Underm\u00fcli in Alt St. Johann", "description": "Schmerzen werden gelindert oder die Behandlung kann einfach eine Wohltat sein. \nIch habe eine \u00fcber 20-j\u00e4hrige Berufspraxis und bin \u00fcber die Zusatzversicherungen bei den meisten Krankenkassen anerkannt, spreche Deutsch, Franz\u00f6sisch und Englisch. Parkpl\u00e4tze vor dem Haus, auch mit \u00d6V gut erreichbar.\nInkludierte Leistungen: Med. Klassische Massage, Fussreflexzonenmassage\n \nTermin nach Vereinbarung\nDetails / Infos: www.wellmed.ch\nBuchbar unter: www.wellmed.ch oder 079 678 65 67", "url": "http://www.wellmed.ch", "image": "https://ttpimtsoch.sos-ch-dk-2.exoscale-cdn.com/catalog/5/3/d/b/53db3361a7a165e5306418b83ea7fd011322e036_Praxis.jpg", "openstreetmap_id": "node/2312187116"}, "geometry": {"type": "Point", "coordinates": ["9.280362725257875", "47.19370442653"]}}, {"type": "Feature", "properties": {"identifier": "d5ffd9f5-0110-4265-98eb-49eb929dd191", "name": "Hofladen Keller", "description": "Der Hofladen von der Familie Keller liegt direkt auf dem Chogelhuet. Dies ist ein kleiner Pass zwischen den Gemeinden Kirchberg und Mosnang. \n\nIm Laden gibt es je nach Saison Apfelsaft, verschiedene frische Beeren sowie verschiedenes Gem\u00fcse oder Eingemachtes und Konfit\u00fcre. \n\n", "image": "https://ttpimtsoch.sos-ch-dk-2.exoscale-cdn.com/catalog/2/f/8/b/2f8b796e71c2e9b606b4b5da2264580d9f2d4515_Hofladen.jpg", "openstreetmap_id": "node/498748192"}, "geometry": {"type": "Point", "coordinates": ["9.039376974105837", "47.38167484310615"]}}, {"type": "Feature", "properties": {"identifier": "d8a51b25-d80f-488e-8222-afdf8332dda6", "name": "Ayursana Yoga Shala", "description": "<p><strong>Ayursana Yoga &amp; Events &ndash; dein Ort f&uuml;r Bewegung, Entspannung und Begegnung </strong></p><p>Bei Ayursana Yoga &amp; Events findest du einen wohltuenden Raum f&uuml;r Yoga, Achtsamkeit und ganzheitliches Wohlbefinden. In ruhiger Atmosph&auml;re im Toggenburg erwarten dich vielseitige Workshops, Gruppenkurse oder Privatstunden, Vortr&auml;ge und besondere Veranstaltungen rund um Gesundheit, Bewegung und innere Balance. Ob Yoga, Atemarbeit, Entspannung oder inspirierende Impulse: Hier darfst du ankommen, auftanken und dir bewusst Zeit f&uuml;r dich nehmen. Ein besonderes Erlebnis ist Yoga &amp; Zmorge &ndash; sanfter Yoga Flow trifft auf reichhaltiges Zmorge Buffet &ndash; ayurvedisch &amp; vegan.&nbsp;</p><p><strong>Ayursana Yoga &amp; Events &ndash; Raum f&uuml;r dich, deine Gesundheit und dein Wohlbefinden.</strong>&nbsp;<br><br><strong>Aktueller Stundenplan: </strong></p><p>Dienstag 18:30 &ndash; 19:30 Hatha / Hatha Flow ausgleichend</p><p>Mittwoch 08:30 &ndash; 09:30 Stuhl Yoga ab 1.10.2026</p><p>Mittwoch 17:00 &ndash; 18:00 Stuhl Yoga</p><p>Mittwoch 19:00 &ndash; 20:00 Hatha / Hatha Flow ausgleichend</p><p>Mittwoch 20:15 &ndash; 21:15 Pfuus Guet Yoga entspannend (hybrid)</p><p>Samstag 09:00 &ndash; 10:00 Yoga am Fluss bis ca. 30.09.2026 Funcional Yoga ab 01.10.2026</p><p>Sonntag 18:00 &ndash; 19:00 Sunday Funday Flow Nur online</p>", "url": "https://www.ayursana.ch", "image": "https://ttpimtsoch.sos-ch-dk-2.exoscale-cdn.com/catalog/b/b/0/e/bb0e946c577da360652b29acf1226db424e7a1d0_1_WII_2369_comp30.jpg", "openstreetmap_id": "way/387151605"}, "geometry": {"type": "Point", "coordinates": ["9.0871589", "47.323174"]}}, {"type": "Feature", "properties": {"identifier": "e5a3aeb8-270d-4498-b003-6141186aa172", "name": "Abderhalden Drogerie AG", "description": "Heute stellt die Abderhalden Drogerie rund 500 Produkte selbst her. Sie werden mit R\u00fcckblick auf bew\u00e4hrte, traditionelle Rezepturen erstellt, wobei auf neue, wissenschaftliche Erkenntnisse schnell reagiert werden kann. ", "url": "https://abderhaldendrogerie.ch/", "image": "https://ttpimtsoch.sos-ch-dk-2.exoscale-cdn.com/catalog/f/4/0/9/f40968479106245a9da4dbd9f2fbeba4f37235e5_Drogerie_Abderhalden_Wattwil.jpg", "openstreetmap_id": "node/2342240610"}, "geometry": {"type": "Point", "coordinates": ["9.0866448", "47.3004792"]}}, {"type": "Feature", "properties": {"identifier": "e723ecde-97d6-4de9-a59c-f0df25547bc1", "name": "APODRO Drogerie Wildhaus", "description": "Bei der APODRO Drogerie Wildhaus stehen Natur und gute Beratung im Fokus. Angeboten wird neben klassischen Medikamenten eine grosse Palette an Naturheilmitteln wie Spagyrik, Sch\u00fcssler Salze, Bachbl\u00fcten, Aromatherapie, Hom\u00f6opathie und reine Phytotherapie wie Tee und Urtinkturen. Dabei stehen individuell auf die Kundschaft abgestimmte Mischungen stets im Vordergrund. Das Drogeriesortiment wird mit einem auserlesenen Angebot an Nahrungserg\u00e4nzungsmitteln, Kosmetik und Boutique Artikeln abgerundet. In Kombination mit biologischen Reformprodukten ergibt dies eine wunderbare Synergie.", "url": "https://www.apodro.ch/", "image": "https://ttpimtsoch.sos-ch-dk-2.exoscale-cdn.com/catalog/a/3/7/2/a37240c2687b34c11ac38e827b4e5761e89f5e9c_APODRO_Drogerie_Wildhaus.jpg", "openstreetmap_id": "node/248973324"}, "geometry": {"type": "Point", "coordinates": ["9.3399366", "47.201513"]}}, {"type": "Feature", "properties": {"identifier": "ebd0c2a5-6fdc-4670-a857-fce28504d1a0", "name": "Schererei", "description": "Angebote Haus Schererei\n\nLaden:\nSie finden auf rund 140m2 Verkaufsfl\u00e4che nebst einmaligen Originalbildern ein grosses Sortiment von Scherenschnitt-, Geschenks- und Gebrauchsartikel. \n\nF\u00fchrungen:\nPlanen Sie einen Vereinsausflug, Gruppenevent, Firmenanlass oder eine Familienfeier mit einem besonderen Erlebnis?\nEine F\u00fchrung durch die \"Schererei\" mit Pr\u00e4sentation des Kunsthandwerks ist immer interessant und eine Reise nach Mosnang wert.\n\nKurse: \nIn der Schererei finden immer wieder Kurse nach Vorlagen oder mit eigener Zeichnung statt. \n\nSilhouetten schneiden:\nDie Kunst von Silhouetten schneiden eignet sich bestens zur Auflockerung Ihres Events. Jolanda Br\u00e4ndle schneiden an Ihrem Anlass in wenigen Minuten Profile Ihrer G\u00e4ste detailgetreu aus schwarzem Papier - dank langj\u00e4hriger Erfahrung, ohne vorzuzeichnen.\n\nVermietung Saal und Parkanlage\nDer Schererei-Saal im 1. Obergeschoss kann gemietet werden und eignet sich ausgezeichnet f\u00fcr Kurse, Partys und andere Anl\u00e4sse. Es stehen 70m2 Saal und zus\u00e4tzlich 32m2 B\u00fchne zur Verf\u00fcgung. \nDer einladende, h\u00fcbsche Park vor der Schererei eignet sich hervorragend f\u00fcr Ap\u00e9ros oder kleinere Veranstaltungen.", "url": "https://www.schererei.ch/", "image": "https://ttpimtsoch.sos-ch-dk-2.exoscale-cdn.com/catalog/6/e/b/2/6eb293a7a5e64092a45ec24383454f3aea9cac73_Aussenansicht.jpg", "openstreetmap_id": "way/301487940"}, "geometry": {"type": "Point", "coordinates": ["9.039115072098214", "47.3627171"]}}, {"type": "Feature", "properties": {"identifier": "f5d3af54-a294-4e2c-b353-62a3c55b55bd", "name": "Kino Passerelle", "description": "Die Gru\u0308ndung der Genossenschaft Kino Passerelle ist dabei auf eine mutige Initiative aus den Reihen des ehemaligen Cine\u0301-Clubs zuru\u0308ckzufu\u0308hren. Nach der Schliessung des bisherigen &quot;Kino Speer&quot; 1987 konnte so mit der breiten Unterstu\u0308tzung der Bevo\u0308lkerung wieder ein Kino im Toggenburg seine Tu\u0308ren o\u0308ffnen.\n\nIm November 2002 konnten ein zweiter Saal und eine Kinobar ero\u0308ffnet werden. Da sich die Kinobranche in den letzten Jahren in einer starken Umbruchsphase befindet, sind auch im Kino Passerelle diverse Schritte unternommen worden, um die Zukunft zu sichern. Die Beschaffung der herko\u0308mmlichen 35mm-Filme gestaltete sich zunehmend als schwierig, weshalb 2012 die bisherigen Projektoren durch moderne Digitalprojektoren ersetzt wurden. \n\nAm 3. September 2016 konnte das Kino Passerelle schlussendlich auch eine komplett neue Saalbestuhlung der O\u0308ffentlichkeit pra\u0308sentieren. In Anwesenheit des Regisseurs Xavier Koller wurde \u201eDie Reise der Hoffnung\u201c gezeigt \u2013 der gleiche Film, der am 17. November 1990 als erster Film im Kino Passerelle vorgefu\u0308hrt worden war.\n\nDie Auswahl der Filme gestalten wir sehr bewusst und sehr vielfa\u0308ltig. Uns liegen kulturelle Studio- und Arthouse-Filme ebenso am Herzen wie anspruchsvolle Dokumentarfilme, regionales und schweizerisches Filmschaffen und Familienfilme. Durch verschiedene Spezialanla\u0308sse, auch in Zusammenarbeit mit anderen regionalen Institutionen, mo\u0308chten wir unserem Publikum ausserdem bestimmte Themen bewusst und auf attraktive Weise na\u0308herbringen.\n\nDurch eine lokale Verankerung, ein u\u0308berlegtes Filmprogramm und eine perso\u0308nliche Na\u0308he zu unseren Ga\u0308sten und Genossenschafter:innen mo\u0308chten wir so unserem Publikum das Tor zur weiten Welt des Films offenhalten.\n\nHinweis: Grosser Saal ist rollstuhlg\u00e4ngig; rollstuhlgerechte Toilette ist vorhanden.", "url": "http://kinopasserelle.ch", "image": "https://ttpimtsoch.sos-ch-dk-2.exoscale-cdn.com/catalog/2/f/0/0/2f006e19b41939c3b485689770f11e259fbcb74f_HUG_0510.png", "openstreetmap_id": "node/82951557"}, "geometry": {"type": "Point", "coordinates": ["9.08898", "47.29702"]}}]}