{"type": "FeatureCollection", "features": [{"type": "Feature", "properties": {"identifier": "04f3e90b-821c-476c-bfbe-70c67a67ec62", "name": "Hotel Swiss Views", "description": "Die neu definierte Gastfreundschaft, Spass und Abenteuer und die Spezialit\u00e4tenk\u00fcche kombiniert mit Getr\u00e4nken sind die besten Schweizer Aussichten, die Sie nirgendwo anders erleben k\u00f6nnen.\n\nSwiss Views bietet eine un\u00fcbertroffene Komfortzone mit allen erforderlichen Annehmlichkeiten, um Ihren Aufenthalt angenehm und unvergesslich zu machen.\n\nIn unserem Hotel finden Sie einen elegant eingerichteten Speisesaal, der bis zu 70 G\u00e4sten Platz bietet und mit einem beruhigenden Ambiente und einem malerischen Blick nach draussen besticht. Unsere Auswahl an exotischen indischen und europ\u00e4ischen Gerichten l\u00e4sst Ihren Gaumen eine ganz neue Geschmackswelt erleben. F\u00fcr ausgew\u00e4hlte Anl\u00e4sse steht auch ein Essbereich im Garten zur Verf\u00fcgung.\n\nBei uns finden Sie verschiedene \u00dcbernachtungsm\u00f6glichkeiten. \u00dcber eine Wohnung, ein Deluxe-Doppelzimmer, Doppelzimmer und Einzelzimmer. Mit eigener Dusche oder einem Gemeinschaftsbad.\n\nIn unserem Seminarraum S\u00e4ntis k\u00f6nnen Sie Ihren Geburtstag, Ihr Firmenmeeting oder Ihr Seminar abhalten. \n\nWir freuen uns \u00fcber Ihren Besuch. ", "url": "https://www.swiss-views.ch", "image": "https://ttpimtsoch.sos-ch-dk-2.exoscale-cdn.com/catalog/b/5/4/f/b54f09435710f374a5c055aa00e03a0eb6fc4773_Aussenansicht_2.jpg", "openstreetmap_id": "way/177884931"}, "geometry": {"type": "Point", "coordinates": ["9.17594425957066", "47.30147445"]}}, {"type": "Feature", "properties": {"identifier": "130a2eed-c701-4e31-89da-0f09dcb9e746", "name": "Bed and Breakfast Winzenberg", "description": "Das Haus ist f\u00fcr Familien mit Kindern genauso geeignet wie f\u00fcr jemanden, der etwas Ruhe und ein spezielles Ambiente sucht.\n\nSchnell ist man auf dem Winzenberg (von Z\u00fcrich ca. 45 Min, von St. Gallen ca. 30 Min) und doch f\u00fchlt man sich hier in einer anderen Welt\u2026\nIn authentischer landwirtschaftlicher Umgebung, nahe der wilden Flusslandschaften der Necker und der Thur, in denen man wunderbar baden kann, finden Sie hier viel Weitsicht. Ganz gleich, ob Sie zu Fuss oder mit dem Velo unterwegs sind (das Haus liegt an der E-Bike Herzroute und an einer sehr beliebten Velo- und T\u00f6ff-Panoramaroute).\n\nDie Wege und Pfade in der Umgebung sind noch nicht ganz so ausgetreten und die nahen Fl\u00fcsse und Wasserf\u00e4lle wildromantisch und sch\u00f6n. Die unz\u00e4hligen Wanderwege f\u00fchren Sie an viele vertr\u00e4umte Orte, zu alten Ruinen und kleinen Beizen und sind auch im Winter, mit oder ohne Schneeschuhe, immer eine Reise wert!\n\nIm Winter lockt eine vertr\u00e4umte unverdorbene Schneelandschaft, oft mit Sicht auf das Nebelmeer. Schlittelwege (K\u00f6belisberg, Hemberg) und viele einfache Skilifte (G\u00e4hwil, Mosnang, Oberhelfentschwil) finden Sie in der N\u00e4he.", "url": "https://bnbwinzenberg.ch/", "image": "https://ttpimtsoch.sos-ch-dk-2.exoscale-cdn.com/catalog/8/e/1/7/8e1791bce7b4d6189b613218b3a753e6688ba49f_airbnb_sara_9496.jpg", "openstreetmap_id": "node/7856028845"}, "geometry": {"type": "Point", "coordinates": ["9.1178562", "47.3949482"]}}, {"type": "Feature", "properties": {"identifier": "19281858-3712-4f9e-bb46-41bda6ccba39", "name": "Hotel Wolfensberg", "description": "Der Wolfensberg, auf 900 Metern gelegen, bietet die fantastische Kulisse f\u00fcr das Hotel, das von einer eigenen Parkanlage mit Biotop umgeben ist und rundum eine grossartige Aussicht in die voralpine Landschaft bietet. Es ist der idyllische Ausgangspunkt f\u00fcr lauschige Spazierg\u00e4nge in den umliegenden W\u00e4ldern, Wanderungen und Ausfl\u00fcge. Beispielsweise ins nahe gelegene St.Gallen, dessen Klosterviertel unter UNESCO-Schutz steht, oder ins Appenzellerland mit seinem einzigartigen Alpsteinmassiv.\n\nInfrastruktur f\u00fcr Zweir\u00e4der\n- Abschliessbare Garage\n- Stromanschluss direkt in der Garage\n- Werkinstrumente", "url": "http://www.wolfensberg.ch/", "image": "https://ttpimtsoch.sos-ch-dk-2.exoscale-cdn.com/catalog/6/0/7/5/6075eaa3bc07b0e9647eea66ad9d76c378a783dd_DSC_5792__3.jpg", "openstreetmap_id": "4616593943"}, "geometry": {"type": "Point", "coordinates": ["9.18335795402527", "47.37211901527186"]}}, {"type": "Feature", "properties": {"identifier": "20ccbfc8-a262-498e-b19f-df3c4aad5d62", "name": "Wohnmobil-Stellplatz Iddaburg G\u00e4hwil", "description": "Der ideale Ausgangspunkt f\u00fcr Wanderungen und Biketouren. Der Wallfahrtsort St. Iddaburg ist in einer wundersch\u00f6nen Wanderung durch idyllische Wege in ca. einer Stunde erreichbar. Ebenso sind viele sch\u00f6ne Wanderungen in sanfter H\u00fcgellandschaft direkt ab Platz m\u00f6glich. Das weitherum bekannte Kloster Fischingen ist in gut einer Stunde zu Fuss erreichbar. Die Umgebung von G\u00e4hwil eignet sich auch hervorragend f\u00fcr Biketouren oder zum Entspannen. F\u00fcr weitere Ausfl\u00fcge, z.B zur Altstadt Wil oder in die Kantonshauptstadt St.Gallen, befindet sich eine Bushaltestelle direkt beim Platz.\nPlatz sehr geeignet f\u00fcr grosse Wohnmobile.\nGen\u00fcgend Platz f\u00fcr Vereinstreffen oder Familientreffen.\nRestaurand R\u00f6ssli mit sch\u00f6ner Gartenwirtschaft f\u00fcr ein feines Essen oder zum gem\u00fctlichen zusammen sein.  300m \nTennisplatz Miet pro Std CHF. 20 inkl. Dusche\nReservationen sind m\u00f6glich per E-Mail oder Whatsapp", "url": "https://wohnmobil-stellplatz.ch/", "image": "https://ttpimtsoch.sos-ch-dk-2.exoscale-cdn.com/catalog/6/3/8/b/638b5e9bef2668af0b49f26f942463b6e9af6187_IMG_20200612_201149__2.jpg", "openstreetmap_id": "node/8883315186"}, "geometry": {"type": "Point", "coordinates": ["9.00166", "47.39552"]}}, {"type": "Feature", "properties": {"identifier": "245192c3-ec22-43fe-8a5c-a634507e05c3", "name": "Bauernhof Bohl", "description": "<div><p><strong>Ausstattung</strong></p><ul><li>Schlafzimmer mit Doppelbett</li><li>Schlafzimmer mit zwei Einzelbetten (f&uuml;r Erwachsene und Kinder geeignet)</li><li>Badezimmer mit Dusche</li><li>K&uuml;che mit Wohn- &amp; Essbereich und TV</li><li>Spiele f&uuml;r Kinder</li><li>Raclette- und Fonduegeschirr</li><li>Ruhige Lage mit sch&ouml;ner Aussicht</li></ul><p><strong>Aussenbereich</strong></p><ul><li>Gartensitzplatz mit Chemin&eacute;e</li><li>Kleiner Spielplatz</li><li>Spielsachen zur Mitbenutzung</li></ul><p><strong>Bauernhof</strong></p><ul><li>Besonders bei Kindern sehr beliebt</li><li>Milchk&uuml;he, K&auml;lblein, Katzen, Hasen</li><li>Gerne d&uuml;rft ihr bei uns im Stall vorbeischauen</li></ul><p><strong>Lage &amp; Umgebung</strong></p><ul><li>Gratis Aussenparkplatz direkt beim Haus</li><li>Dorf Stein in 2 Minuten zu Fuss erreichbar mit B&auml;ckerei und kleinem 24h-Shop</li><li>Katzensprung zum Fluss Thur (Thurweg und im Sommer wundersch&ouml;n zum Baden)</li><li>Einkaufsm&ouml;glichkeiten (Migros, Coop, Drogerie) in 5 Autominuten</li><li>Wander- und Skigebiet Ch&auml;serrugg mit dem &Ouml;V oder in 7 Autominuten erreichbar</li><li>Wander- und Skigebiet Wildhaus mit dem &Ouml;V oder in 12 Autominuten erreichbar</li><li>Wander- und Skigebiet Wolzenalp mit dem &Ouml;V oder in 10 Autominuten erreichbar</li><li>S&auml;ntis oder Schw&auml;galp in 15 Autominuten</li><li>Verschiedene Wanderungen vor der Haust&uuml;re, z.\u202fB. Thurweg, Stockberg, Goggeien, Speer (Europas h&ouml;chster Nagelfluh-Berg) und vieles mehr</li></ul><p><strong>Nahe gelegene St&auml;dte</strong></p><ul><li>St. Gallen: 49 min</li><li>Z&uuml;rich: 1 h 07 min</li><li>Luzern: 1 h 35 min</li><li>Chur: 54 min</li></ul><p><strong>Preis</strong><br>CHF 125.&ndash; pro Nacht, plus CHF 100.&ndash; f&uuml;r die Endreinigung.</p></div>", "image": "https://ttpimtsoch.sos-ch-dk-2.exoscale-cdn.com/catalog/8/f/b/d/8fbd0de7cb5ef73e78cebcbd47ebf7cb45173baf_IMG_2518.JPG", "openstreetmap_id": "node/2705315303"}, "geometry": {"type": "Point", "coordinates": ["9.22616215143497", "47.19726707848858"]}}, {"type": "Feature", "properties": {"identifier": "24e4c812-a0ea-4c51-abe8-feb34325a4d5", "name": "Bergnest Wildhaus", "description": "<p><strong>Eure Auszeit in der Wildhauser Bergwelt</strong><br>Unsere rauchfreien\u00a06 Doppelzimmer und 3 Einzelzimmer mit alpinem Charme verf\u00fcgen \u00fcber WC, Dusche, Lavabo, TV, WLAN und teilweise \u00fcber einen Balkon (Strassenseite).<br>Hier geniesst ihr eine entspannte Atmosph\u00e4re, atemberaubende Bergpanoramen und ein reichhaltiges regionales Fr\u00fchst\u00fcck, das euch perfekt in den Tag starten l\u00e4sst.<br>Die hervorragende Lage eignet sich bestens f\u00fcr Wanderungen, Skiausfl\u00fcge und Naturerlebnisse. Die Postauto- und Skibushaltestelle ist 200\u202fm entfernt.<br>Neben den Zimmern bieten wir auch zwei einfache, komplett eingerichtete 3.5- und 5.5-Zimmer-Ferienwohnungen an.</p>", "url": "https://www.bergnest-wildhaus.ch", "image": "https://ttpimtsoch.sos-ch-dk-2.exoscale-cdn.com/catalog/9/c/d/7/9cd756d310d43c7708bfcb6ca32d6809ce4daa64_Logo_Bergnest_farbig.jpg", "openstreetmap_id": "way/223856388"}, "geometry": {"type": "Point", "coordinates": ["9.3411086", "47.2018356"]}}, {"type": "Feature", "properties": {"identifier": "30b48340-99e7-4e47-85e4-afb593c19a90", "name": "Berg & Bett S\u00e4ntis Lodge", "description": "Die teilrenovierte Berg & Bett S\u00e4ntis Lodge ist Hotel und gleichzeitig auch Angebots- und Service-Hub f\u00fcr die Ferienh\u00e4user mit gemeinsamer Rezeption, Kino, Lounge, grossem Garten sowie einem familienfreundlichen Restaurant. \n\nOb Sie sich lieber im gem\u00fctlichen Doppel- oder Familienzimmer in die weiche Decke kuscheln oder die Bewegungsfreiheit im eigenen Appartement geniessen, in der Berg & Bett S\u00e4ntis Lodge finden Sie alles unter einem Dach.", "url": "https://bergundbett.ch/saentis-lodge/", "image": "https://ttpimtsoch.sos-ch-dk-2.exoscale-cdn.com/catalog/1/b/3/6/1b365f5e4d62e361854488e96efed569bd235ae3_TT_2023_S__ntisLodge_03.jpg", "openstreetmap_id": "node/222237524"}, "geometry": {"type": "Point", "coordinates": ["9.313292281436155", "47.196329839515"]}}, {"type": "Feature", "properties": {"identifier": "61fc66c9-2cbc-4974-a7f2-1eec1521d5fe", "name": "Hotel Friedegg Gasthaus B&B", "description": "Treten Sie ein in unser einmaliges Gasthaus, entschleunigen Sie, geniessen und erleben Sie pers\u00f6nlich unsere Leidenschaft f\u00fcr das Authentische und Aufrichtige. Dank der sanften Renovation vermischt sich in der Friedegg heute Altehrw\u00fcrdiges mit Modernem. Ein feines Fr\u00fchst\u00fcck erwartet Sie t\u00e4glich. Parkpl\u00e4tze, Velo- und Skiraum, schnelles WLAN und zus\u00e4tzliche Aufenthaltsr\u00e4ume stehen zur Verf\u00fcgung. Die kleine feine, hauseigene Bibliothek l\u00e4dt zum Verweilen. Von jedem Zimmer aus haben Sie Aussicht auf die faszinierende Bergwelt des Churfirsten- und Alpsteingebietes. Die Atmosph\u00e4re im Hotel ist ungezwungen, stilvoll und pers\u00f6nlich.", "url": "https://www.gasthaus-friedegg.ch", "image": "https://ttpimtsoch.sos-ch-dk-2.exoscale-cdn.com/catalog/c/9/e/6/c9e6d17fdc290b3b3bf87abbde983ab14843a810_IMG_20230621_194925.jpg", "openstreetmap_id": "node/7621925247"}, "geometry": {"type": "Point", "coordinates": ["9.3399175", "47.2007763"]}}, {"type": "Feature", "properties": {"identifier": "66e4bbef-a4d0-406f-b2e0-0bdd75b6a305", "name": "W\u00fclflingerhaus", "description": "<div><p>Unser zweckm&auml;ssig eingerichtetes Selbstkocherhaus befindet sich im Ortsteil Rain in Alt St. Johann, zehn Minuten von der Postautostation und dem Dorfladen entfernt. Zur Sellamatt\u2011Seilbahn sind es 15 Minuten; bei g&uuml;nstiger Schneelage kann man mit den Skiern direkt bis zum Haus abfahren.</p><p>Das Haus bietet insgesamt 31 Schlafpl&auml;tze in f&uuml;nf Zimmern, eingerichtet als Matratzenlager. Schlafsack und Fixleintuch sind mitzubringen.</p><p>Unsere Ski- und Wanderh&uuml;tte liegt im Ortsteil Rain in Alt St. Johann, rund zehn Gehminuten von der Postautostation und dem Dorfladen entfernt. In der &Uuml;bergangszeit und im Winter muss das Haus nach dem Vorheizen durch die H&uuml;ttenwartin mit Holz selbst beheizt werden.</p><p>In 15 Minuten erreichen Sie die Talstation der Sessel-/ und Kabinenbahn Sellamatt, die Sie im Sommer direkt ins Wandergebiet Churfirsten mit seinen gut erreichbaren Gipfeln bringt. Im Winter f&uuml;hrt die Skipiste bis ins Tal und eine Zufahrt direkt zum Haus ist m&ouml;glich. In schneearmen Wintern bringt Sie die Seilbahn direkt hinauf ins Skigebiet Ch&auml;serugg.</p><p>Zur An- und Abreise kann bis zum Haus gefahren werden; zum Parkieren steht unser Parkplatz in Gehdistanz zur Verf&uuml;gung.</p><p>Bitte beachten Sie:<br>&ndash; Unser Haus steht nicht allein. Die Durchf&uuml;hrung von Junggesellenabschieden, exzessiven Feiern oder anderen Veranstaltungen, die zu erheblicher L&auml;rmbel&auml;stigung der Nachbarn f&uuml;hren, ist nicht erlaubt.<br>&ndash; Hausreinigung durch die Mieter.<br>&ndash; Haustiere sind nicht erlaubt.<br>&ndash; Nichtraucherhaus.</p></div>", "url": "https://wuelflingerhaus.ch/", "image": "https://ttpimtsoch.sos-ch-dk-2.exoscale-cdn.com/catalog/0/2/2/a/022a6e7a9659fb7352de962f272ab4530d8a7f00_S__dansicht_Sommer.JPG", "openstreetmap_id": "node/223211128"}, "geometry": {"type": "Point", "coordinates": ["9.27925", "47.19078"]}}, {"type": "Feature", "properties": {"identifier": "6e59a02f-219c-4c37-9b6b-c8e5bf3c8757", "name": "Sternen Ennetb\u00fchl", "description": "Der Sternen befindet sich von Nesslau aus direkt am Dorfanfang von Ennetb\u00fchl.\n\nIn 4 verschiedenen Doppelzimmern mit Dusche und WC, mit Blick vom Balkon aus in die Berge steht der Erholung nichts mehr im Wege. Ebenfalls gibt es ein Einzelzimmer mit Dusche und WC ausserhalb vom Zimmer. Wer m\u00f6chte, kann sein Essen in einer einfachen K\u00fcche, auch selber kochen.\n\n- Fr\u00fchst\u00fcck nach Absprache\n- Hunde sind herzlich willkommen\n\nF\u00fcr eine saisonale und gut b\u00fcrgerliche K\u00fcche empfehlen die Gastgeber das Gasthaus Krone in Ennetb\u00fchl. Dies befindet sich zwei Gehminuten von der Unterkunft entfernt.", "url": "https://sternen-ennetbuehl.ch/", "image": "https://ttpimtsoch.sos-ch-dk-2.exoscale-cdn.com/catalog/c/b/2/b/cb2b549c272a7d25883efa57263d6c9d7589ec98_IMG_7738.JPG", "openstreetmap_id": "node/784003287"}, "geometry": {"type": "Point", "coordinates": ["9.20979", "47.24041"]}}, {"type": "Feature", "properties": {"identifier": "6ef76477-6711-46e3-a956-2761a056ec0b", "name": "Obern St\u00f6bli", "description": "Mit einem Willkommensgetr\u00e4nk k\u00f6nnen Sie sich im Pool zur\u00fccklehnen und im heissen Quellwasser K\u00f6rper und Seele baumeln lassen.\nAnschliessend besteht die M\u00f6glichkeit, sich in unserer Garderobe mit Dusche umzuziehen und frisch zu machen. Mit grossem Badehunger geht es weiter mit einem feinen Abendessen. In unsererm Obern St\u00f6bli werden Sie verw\u00f6hnt mit einheimischem Gaumenschmaus und heimeliger Atmosph\u00e4re\n\nSie sind auf der Suche nach einer einfachen, warmherzigen und gastfreundlicher Unterkunft? Dann sind Sie genau richtig bei uns.", "url": "http://www.fondue-baden.ch", "image": "https://ttpimtsoch.sos-ch-dk-2.exoscale-cdn.com/catalog/5/9/8/b/598ba39c31ad84fddef2861ebc7489970575aaba_2018_obere_stuebli_04.jpg", "openstreetmap_id": "node/7878874356"}, "geometry": {"type": "Point", "coordinates": ["9.19431", "47.25107"]}}, {"type": "Feature", "properties": {"identifier": "7beba2ea-e0c2-4dcb-b5a9-81c21e7584d4", "name": "Hotel Hirschen Wildhaus", "description": "<p>Der Hirschen Wildhaus blickt auf eine lange Geschichte als Familienbetrieb zur&uuml;ck. Heute wird das Hotel von Gesch&auml;ftsf&uuml;hrer Patrick Alpiger gef&uuml;hrt.&nbsp;</p>\n<p>Das Hotel bietet insgesamt 69 Zimmer: 49 davon im Haupthaus, 10 weitere im Guest-House-Village und 9 im neu er&ouml;ffneten Bellevue (seit 1. Juli 2025). Die Zimmer &uuml;berzeugen durch modernen Komfort und einen sch&ouml;nen Ausblick &ndash; entweder in die Toggenburger Bergwelt oder in den hoteleigenen Park. <br>Weiter umfasst das Raumangebot 9 grossz&uuml;gige und helle Seminar-, Tagungs- &amp; Bankettr&auml;ume f&uuml;r bis zu 120 Personen. Gruppenr&auml;ume sowie ein Platz im schattigen Hotelgarten stehen f&uuml;r Teamarbeit und Sitzungen ebenfalls zur Verf&uuml;gung.</p>\n<p>Ob Ferien oder Businessaufenthalt: Der Hirschen ist f&uuml;r beides bestens geeignet.<br>Der Wellnessbereich sorgt f&uuml;r wohltuende Entspannung nach einem aktiven Tag, und das Fr&uuml;hst&uuml;ck bietet eine reichhaltige Auswahl f&uuml;r einen genussvollen Start in den Tag.<br>Kulinarisch l&auml;dt die Hirschen Stube zu regionaler K&uuml;che mit hochwertigen Zutaten und einer grossen Weinauswahl ein. Direkt daneben erg&auml;nzt das Event- &amp; Fondue-Chalet Max das gastronomische Angebot mit sieben verschiedenen Ch&auml;s-Fondues &ndash; ge&ouml;ffnet jeweils in der Wintersaison.<br>Die All Bourbon &amp; Blues Bar &laquo;Chr&uuml;ter &amp; Choller&raquo; &uuml;berzeugt mit einer grossen Auswahl an Chr&uuml;ter, Single Malt Whiskeys und anderen Drinks. Eine Kegelbahn, Dart, ein Billardtisch, eine Smoking Lounge und ein Fussballkasten machen die Bar zum lebendigen Treffpunkt.</p>\n<p>Das Hotel ist bequem mit dem Auto oder dem &ouml;ffentlichen Verkehr erreichbar &ndash; die Postauto-Haltestelle liegt direkt vor dem Haus. Ausreichend Parkpl&auml;tze stehen zur Verf&uuml;gung.</p>", "url": "http://www.hirschen-wildhaus.ch/", "image": "https://ttpimtsoch.sos-ch-dk-2.exoscale-cdn.com/catalog/2/7/8/8/2788c1666a643847e0be60285272e75b2997201e_Hirschen_Aussenansicht_Sommer.JPG", "openstreetmap_id": "node/223857162"}, "geometry": {"type": "Point", "coordinates": ["9.34974", "47.203388"]}}, {"type": "Feature", "properties": {"identifier": "85a94fa1-4cba-498e-a6f6-27c45f91af61", "name": "Hotel R\u00f6ssli Tufertschwil", "description": "Der malerische Weiler Tufertschwil liegt in der beschaulichen Welt des unteren Toggenburg. Helle, modern eingerichtete R\u00e4ume bieten gen\u00fcgend Platz f\u00fcr Anl\u00e4sse und Seminare. Das ganze Hotel ist barrierefrei zug\u00e4nglich und die Parkpl\u00e4tze sind kostenfrei.\nVon unserem Restaurant haben Sie einen wunderbaren Blick in die Toggenburger Bergwelt mit den Churfirsten und dem S\u00e4ntis. In unserer idyllischen Gartenterrasse geniessen Sie einen erfrischenden Aperitif oder ein k\u00fchles St. Galler Bier, w\u00e4hrend Sie ihre Kinder, auf dem einzigartigen und grossen Spielplatz beobachten k\u00f6nnen. \nDie Erholung vom Alltag finden Sie in einem unserer absolut ruhigen Hotelzimmer mit Blick in die Natur.\n\nUnsere traditionelle Schweizer K\u00fcche bietet f\u00fcr jeden Geschmackstyp das passende Men\u00fc. Regionale und marktfrische Produkte werden mit viel Leidenschaft von unserem eingespielten K\u00fcchenteam zubereitet.\nDer Familienbetrieb setzt sich aus unkomplizierten und aufgestellten Menschen mit Begeisterung f\u00fcr ihren Beruf zusammen.\nWir servieren Lebensfreude und freuen uns auf Ihren Besuch!", "url": "http://www.roessli-tufertschwil.ch/", "image": "https://ttpimtsoch.sos-ch-dk-2.exoscale-cdn.com/catalog/a/1/c/2/a1c2ec7185fab105d9f468e22a90c67f013b7f3e_R__ssli_Tufertschwil_Drohne__4_.jpg", "openstreetmap_id": "node/3973987865"}, "geometry": {"type": "Point", "coordinates": ["9.0971459", "47.3933526"]}}, {"type": "Feature", "properties": {"identifier": "8a6ff308-01eb-40b8-8ebb-a6d04f7cd8fe", "name": "Frauenfelderhaus", "description": "Es bietet Platz f\u00fcr bis zu 45 Personen und weist einen hohen Ausbaustandard auf. Es eignet sich als Lagerhaus im Sommer wie im Winter f\u00fcr Schulklassen, Vereine und andere interessierte Gruppen.\n", "url": "https://www.frauenfelderhaus.ch/", "image": "https://ttpimtsoch.sos-ch-dk-2.exoscale-cdn.com/catalog/f/7/0/3/f70380d46517eba9aca6a4fc8559cf224fd4820d_Ansicht_S__d1.JPG", "openstreetmap_id": "node/222401761"}, "geometry": {"type": "Point", "coordinates": ["9.330574926155503", "47.19243335"]}}, {"type": "Feature", "properties": {"identifier": "8cfa26a1-3265-4df1-8f9c-c9bd201d77f4", "name": "Hotel Sonne", "description": "Das Bijou-Hotel im Dorfzentrum von Wildhaus verf\u00fcgt \u00fcber 26 heimelig eingerichtete Zimmer mit jeglichem Komfort. Die Mahlzeiten werden im gut b\u00fcrgerlichen Hotel Restaurant mit Sonnenterrasse serviert. Die gem\u00fctlichen Zimmer sind alle mit hellem F\u00f6hrenholz ausgekleidet und mit viel Liebe zum Detail eingerichtet. Die etwas kleineren Nordzimmer sind ruhig und zur Bergseite gelegen. Die S\u00fcdzimmer mit Balkon bieten Ausblicke auf den Schafberg und die Churfirsten-Kette.", "url": "https://www.sonne-wildhaus.ch/", "image": "https://ttpimtsoch.sos-ch-dk-2.exoscale-cdn.com/catalog/9/1/f/1/91f179cb939d29d529c16ed4a40711439785feea_Aussenansicht_Sonne_Sommer.png", "openstreetmap_id": "node/6316289213"}, "geometry": {"type": "Point", "coordinates": ["9.3513193", "47.2036413"]}}, {"type": "Feature", "properties": {"identifier": "8d5d52e5-061c-4896-818a-3bfe66987fa9", "name": "G\u00e4stehaus \"Landhaus an der Thur\"", "description": "<div>Das schmucke Haus befindet sich mitten im Dorf Alt St. Johann, an ruhiger Lage an der Thur. Zwei Gehminuten von der Bushaltestelle, dem Supermarkt, zwei Restaurants und den Bergbahnen entfernt. Bis zur &laquo;Klangschmiede&raquo; sind es gerade einmal f&uuml;nf Gehminuten. Sieben gem&uuml;tliche Zimmer, alle mit Bad oder Dusche/WC/F&ouml;n, TV und WIFI, teilweise mit Balkon, bieten Gew&auml;hr f&uuml;r einen angenehmen Aufenthalt. Eine Kaffee-Ecke mit kostenlosem Kaffee und Tee sowie einem K&uuml;hlschrank f&uuml;r pers&ouml;nliche Frischprodukte befindet sich im ersten Stock. Es sind gen&uuml;gend kostenlose Parkpl&auml;tze vorhanden.</div>", "url": "http://www.landhausanderthur.ch", "image": "https://ttpimtsoch.sos-ch-dk-2.exoscale-cdn.com/catalog/5/8/b/f/58bf5a8e28d535f9d3ff5a7f9e7be90868b120dd_IMG_5515.JPG", "openstreetmap_id": "node/2312187210"}, "geometry": {"type": "Point", "coordinates": ["9.284196063152864", "47.19413284962057"]}}, {"type": "Feature", "properties": {"identifier": "962497e4-503f-4272-8e19-dfbc26dae064", "name": "Gruppenhaus H\u00e4nis", "description": "Erleben Sie unvergessliche Tage in unserem modernen Skihaus auf der wundersch\u00f6nen Wolzenalp im Toggenburg. Ob exklusiv f\u00fcr Ihre Gruppe oder bettenweise \u2013 unser Haus bietet den perfekten R\u00fcckzugsort f\u00fcr Skifahrer, Wanderer und Naturliebhaber. Weitere Informationen finden Sie auf unserer Homepage (Skiclub Schaffhausen). \n\nUnser H\u00fcttenwart freut sich auf Ihre Anfrage.\n\nViele Gr\u00fcsse, Skiclub Schaffhausen", "url": "https://www.skiclubsh.ch/", "image": "https://ttpimtsoch.sos-ch-dk-2.exoscale-cdn.com/catalog/6/4/8/3/648388af3d216d16f513a70c5357e79e33630045_1e1f8d13_671d_4611_9e8b_c1781fd409af.jpeg", "openstreetmap_id": "node/11306768183"}, "geometry": {"type": "Point", "coordinates": ["9.156240820884706", "47.22270154234824"]}}, {"type": "Feature", "properties": {"identifier": "973c36ba-5db8-4271-854f-00ec2a4e5cb2", "name": "Alphaus Alp B\u00f6den", "description": "<p><span data-olk-copy-source=\"MessageBody\">Die H\u00fctte verf\u00fcgt \u00fcber eine K\u00fcche mit kaltem Wasser, eine gem\u00fctliche Stube, zwei Schlafr\u00e4ume, ein WC, eine Solardusche, einen Erdkeller sowie eine Grillstelle. Geheizt und gekocht wird mit Holz. Bei schneefreier Lage ist die H\u00fctte bequem mit dem Auto erreichbar. Die Preise betragen 30 CHF pro Person und Nacht ab 18 Jahren sowie 15 CHF pro Kind und Nacht bis 18 Jahren, Kinder bis 6 Jahre sind gratis. Zus\u00e4tzlich wird eine Depotgeb\u00fchr von 50 CHF erhoben, welche f\u00fcr ein allf\u00e4llig notwendiges Putzen verwendet wird.</span></p>", "image": "https://ttpimtsoch.sos-ch-dk-2.exoscale-cdn.com/catalog/6/1/7/0/6170d985172176b525f622bde1d887546ebfc07d_Alphaus_Alp_B__den_Krummenau.jpg", "openstreetmap_id": "node/397099486"}, "geometry": {"type": "Point", "coordinates": ["9.1376531124115", "47.23572636918493"]}}, {"type": "Feature", "properties": {"identifier": "9c35b1c0-5e3f-47c6-ace4-78262e14f513", "name": "Ferienheim Bodenweidli", "description": "Ideal f\u00fcr Schulklassen, Geburtstagsfest, Hochzeit, Lehrlingslager etc. Nebst gratis Internetanschluss stehen Ihnen ebenfalls Beamer, Leinwand, Musikanlage, ein hauseigener Fussballplatz, Volleyballfeld, Ping-Pong Tisch, T\u00f6ggelikasten und eine Feuerstelle zur Verf\u00fcgung. An einer Privatstrasse sind Sie frei vom Verkehr, jedoch sind es nur 100 Meter bis zur Skibushaltestelle.\nNeu k\u00f6nnen wir zudem einen top modern eingerichteteten Seminarraum anbieten.", "url": "https://www.bodenweidli.ch", "image": "https://ttpimtsoch.sos-ch-dk-2.exoscale-cdn.com/catalog/7/b/9/6/7b9643d86117731d4fa235edd0793eb92d959ea6_DSC_0398.JPG", "openstreetmap_id": "node/414880393"}, "geometry": {"type": "Point", "coordinates": ["9.358319100000015", "47.2079208"]}}, {"type": "Feature", "properties": {"identifier": "9ff3677e-a890-472d-b62c-cc9aeecae4ac", "name": "Gruppenhaus TV Schaffhausen", "description": "Das Ski- und Ferienhaus des TV Schaffhausen (1\u2019150 m.\u00fc.M.) in Unterwasser ist ein gem\u00fctliches und sch\u00f6n gelegenes Lagerhaus und bietet sowohl Gruppen und Schulklassen als auch grossen Familien Unterkunft. Die maximale Kapazit\u00e4t liegt bei 58 Personen. Wir empfehlen auf Grund der Platzverh\u00e4ltnisse in den allgemeinen R\u00e4umen sowie den sanit\u00e4ten Anlagen, das Haus mit nicht mehr als 40 Personen zu belegen.\n\nDas Haus ist im Sommer und im Winter mit dem Auto von Unterwasser (steile Zufahrt) oder einfacher von Wildhaus her erreichbar. Kostenfreie Parkpl\u00e4tze befinden sich unmittelbar vor dem Haus. Mit dem Reisecar ist die Zufahrt \u00fcber Wildhaus m\u00f6glich. Im Winter f\u00fchrt die Ski-Piste direkt am Haus vorbei.\n\nIm Sommer und im Herbst ist das Haus ein idealer Ausgangspunkt f\u00fcr Wanderungen zu den Churfirsten. 300 m vom Haus entfernt befindet sich der Schwendisee, der zum Baden einl\u00e4dt. Zum Haus geh\u00f6ren zudem eine Grillstelle und eine grossz\u00fcgige Spielwiese.\n\nDas Haus ist ein Selbstversorgerhaus. In der nahen Umgebung finden Sie zudem zwei \u00f6ffentliche Restaurants (Gade & Alpenrose).", "url": "https://bergundbett.ch/gruppenhaeuser/", "image": "https://ttpimtsoch.sos-ch-dk-2.exoscale-cdn.com/catalog/a/0/1/8/a018c55d745b27c6aa94a3ae3c5b674e8ec6ed16_TV_Schaffhausen_mit_Saentis_1_jpg__2.jpg", "openstreetmap_id": "way/222237416"}, "geometry": {"type": "Point", "coordinates": ["9.32665495", "47.19093905"]}}, {"type": "Feature", "properties": {"identifier": "a2e7f4e1-4e7f-4e64-bd10-593343538a3a", "name": "Haus am Rain Ski- und Ferienhaus", "description": "<div><p>Willkommen in unserem charmanten Gruppenhaus mit sieben einladenden Zimmern. Jedes Zimmer bietet Platz f&uuml;r bis zu vier Personen und verf&uuml;gt &uuml;ber ein eigenes Badezimmer.</p><p>Das Haus bietet grossz&uuml;gige Aufenthaltsr&auml;ume, die zum geselligen Beisammensein einladen, sowie eine voll ausgestattete Gastrok&uuml;che, die kulinarische Erlebnisse f&uuml;r gr&ouml;ssere Gruppen erm&ouml;glicht. F&uuml;r kleinere Gruppen steht zudem eine separate, gem&uuml;tliche K&uuml;che zur Verf&uuml;gung.</p><p>Die weitl&auml;ufige Terrasse mit Grill l&auml;dt zu unvergesslichen Grillabenden unter freiem Himmel ein &ndash; begleitet von einer atemberaubenden Aussicht auf die majest&auml;tischen Berge S&auml;ntis und Schafberg.</p><p>Dank der ruhigen und dennoch zentralen Lage, nur f&uuml;nf Minuten von den &ouml;ffentlichen Verkehrsmitteln und den Bergbahnen entfernt, ist das Haus der ideale Ausgangspunkt f&uuml;r Skifahrer, Wanderer und Biker.</p><p>Hier finden Sie den perfekten Ort, um zur Ruhe zu kommen, die Natur zu geniessen und neue Abenteuer zu erleben.</p></div>", "url": "https://hausamrain.ch", "image": "https://ttpimtsoch.sos-ch-dk-2.exoscale-cdn.com/catalog/2/3/5/4/23548e4a0f2abdf9b5d81305cea250849e9d8600_2.jpg", "openstreetmap_id": "way/222237321"}, "geometry": {"type": "Point", "coordinates": ["9.282629550000003", "47.190927599999995"]}}, {"type": "Feature", "properties": {"identifier": "a75f7b42-e360-49a6-ba8d-3a802da03072", "name": "Gasthof Ochsen", "description": "Der perfekte Ausgangspunkt um das Obertoggenburg zu erkunden. \nWir befinden uns genau im Zentrum zwischen S\u00e4ntis, Churfirsten, Gampl\u00fct, Wolzenalp und Speer. Egal wo Sie Ihre Wanderung oder Biketour hinf\u00fchrt, bei uns sind Sie am richtigen Ausgangspunkt.\n\nEine besondere Perle ist der Gasthof Ochsen f\u00fcr Fischer: Als Partner des FV-Obertoggenburg d\u00fcrfen wir unseren Hotelg\u00e4sten Patente f\u00fcr die Thur und ihre Nebenb\u00e4che f\u00fcr die Fischerei auf Bachforellen ausstellen.\n\nIn unserem Restaurant finden Sie ein vielf\u00e4ltiges und regionales Angebot, welches sich stets nach der aktuellen Saison richtet.", "url": "https://stein-ochsen.ch", "image": "https://ttpimtsoch.sos-ch-dk-2.exoscale-cdn.com/catalog/c/4/0/9/c409d9975d54870eec78c953466b5ad0527d20bf_AussenRegen.jpeg", "openstreetmap_id": "node/2961595138"}, "geometry": {"type": "Point", "coordinates": ["9.2267025", "47.1986052"]}}, {"type": "Feature", "properties": {"identifier": "abe52916-cfb2-4264-9e1e-57eb7a584b04", "name": "Hasenb\u00fcel - Ferien auf dem Bauernhof", "description": "Oberhalb des Dorfes Dicken im Neckertal liegt unser Hof mit herrlicher Aussicht in die Bergwelt. Wir betreiben Milchwirtschaft und Schweinezucht. Nebenbei haben wir noch einen Hofladen mit Konfit\u00fcren, Sirup, Eingemachtes und Geschenksartikel. \n\nUm sich vom Alltag zu erholen, geniessen Sie die Ruhe bei uns. Idealer Ausgangspunkt f\u00fcr Ausfl\u00fcge ins Toggenburg und ins Appenzellerland. \n\nUnsere 5-Zimmer-Wohnung befindet sich im 3. Stock mit eigenem Eingang; K\u00fcche mit Esszimmer, Wohnzimmer, 2 Doppelzimmer, Dusche/WC. Eine Etage h\u00f6her: ein Doppelzimmer. Raumh\u00f6he 1,85 m. \n\nHerzlich willkommen - bei uns im Hasenb\u00fcel.", "url": "https://www.hasenbuel.ch", "image": "https://ttpimtsoch.sos-ch-dk-2.exoscale-cdn.com/catalog/e/3/b/d/e3bdc30ea2b0ecc0ca3a0bc1d3f2063d25c3b8ed_Hasenb__el.jpg", "openstreetmap_id": "way/177911518"}, "geometry": {"type": "Point", "coordinates": ["9.187876661075947", "47.33900375"]}}, {"type": "Feature", "properties": {"identifier": "adc910c1-ecda-47ff-b7ed-8eb8b36f0641", "name": "Hotel Sternen", "description": "<p>Willkommen im Hotel Sternen im idyllischen Toggenburg &ndash; zentral gelegen und doch mitten in der Natur. Nur einen Katzensprung von Z&uuml;rich und St. Gallen entfernt, erwartet Sie bei uns ein Ort zum Durchatmen und Geniessen. Mit 51 charmanten Zimmern, zwei Restaurants, einer grossz&uuml;gigen Lobby mit Bar sowie hellen Seminar- und Bankettr&auml;umen ist der Sternen der ideale R&uuml;ckzugsort f&uuml;r Sportler, Familien, Seminarteilnehmer und alle, die eine kleine Auszeit suchen. Unsere einladende Lobby ist Treffpunkt und Wohlf&uuml;hlort zugleich: Spielzimmer, Billard, Tischfussball, B&uuml;cher, Spiele und gem&uuml;tliche Sitzecken laden ein, gemeinsam Zeit zu verbringen oder den Tag entspannt ausklingen zu lassen. Direkt vor der Haust&uuml;r warten Bergbahnen, das beheizte Freibad sowie Tennis- und Squashpl&auml;tze &ndash; und nat&uuml;rlich die unverf&auml;lschte Natur des Toggenburgs.</p><p>&nbsp;</p><p><span data-teams=\"true\">Auskunft zur Zug&auml;nglichkeit: <a href=\"https://www.ginto.guide/entries/42DCE771-99C3-4A2D-B7E6-1AAE765FFFF8?lnk_src=business\">ginto</a></span></p>", "url": "http://www.sternen.biz", "image": "https://ttpimtsoch.sos-ch-dk-2.exoscale-cdn.com/catalog/d/d/3/4/dd34fbfc1b95c668440985aef7db287b5fb9a6c6_Hotel_Sternen_Aussenansicht__16___2.jpg", "openstreetmap_id": "node/222237307"}, "geometry": {"type": "Point", "coordinates": ["9.311336874961855", "47.197075839004675"]}}, {"type": "Feature", "properties": {"identifier": "ae0b3c2d-c8dc-4ff4-b37e-7af3f086a690", "name": "Ferien auf dem Bauernhof Halden", "description": "In der Wohnung gibt es Platz f\u00fcr 7 Personen. Nebst der K\u00fcche, Wohnzimmer und Badezimmer sind 2 Doppelzimmer sowie ein Schlafzimmer mit zwei Einzelbetten vorhanden.", "url": "https://115817000000.holidaybooking.ch/ferienwohnung/446033/halden-598-unterwasser-toggenburg-ostschweiz-schweiz/#bewertung", "image": "https://ttpimtsoch.sos-ch-dk-2.exoscale-cdn.com/catalog/5/9/7/c/597cd612ba47e7200af4c52bc4dab533c7522f95_IMG_20240929_WA0004.jpg", "openstreetmap_id": "way/626248835"}, "geometry": {"type": "Point", "coordinates": ["9.29376", "47.2022"]}}, {"type": "Feature", "properties": {"identifier": "af3fc721-2443-4370-abf9-fc8225e140c0", "name": "Berg & Bett", "description": "Wir stehen f\u00fcr exklusive Ferienobjekte und ein rundum begeisterndes Ferienerlebnis, geb\u00fcndelt an zentraler Stelle in der S\u00e4ntis Lodge, mitten in der malerischen Ferienregion Toggenburg. Was unsere Angebote versprechen, das halten sie auch. Damit Sie mehr kostbare Zeit f\u00fcr sich haben und f\u00fcr das, was wesentlich ist.\n\nSeien Sie unser Gast. In der S\u00e4ntis Lodge (ehemaliges Hotel S\u00e4ntis) b\u00fcndeln wir das gesamte Angebot an G\u00e4stebetreuung - von der Ankunft bis zur Ihrer Abreise und allen H\u00f6hepunkten, die Sie dazwischen erleben. Oder geniessen Sie Ihren Urlaub in einer Ferienwohnung oder in einem Ferienhaus. Ob es der Wohnkomfort ist, der sonnenverw\u00f6hnte Balkon mit Aussicht, der rustikale Charme oder das Plus an Wellness-M\u00f6glichkeit - wir bereiten Ihr zeitweiliges Daheim f\u00fcr Sie vor. Treten Sie ein in Ihr Wunschobjekt.", "url": "https://bergundbett.ch/de/", "image": "https://ttpimtsoch.sos-ch-dk-2.exoscale-cdn.com/catalog/7/5/e/1/75e1ad743d20d37b529d9959395aa43842c3587f_LL_01271.jpg", "openstreetmap_id": "node/222237524"}, "geometry": {"type": "Point", "coordinates": ["9.313160777091982", "47.19638775140969"]}}, {"type": "Feature", "properties": {"identifier": "b04f6d0c-8bca-4312-99e8-3a6bac9931aa", "name": "Gasthaus Sch\u00f6nenboden", "description": "<p>Freuen Sie sich auf eine Auszeit in der ruhigen Wildhauser Natur. Abschalten und auftanken. Neben den gem&uuml;tlichen Zimmern erwarten Sie einladende Aufenthaltsr&auml;ume zum Verweilen sowie eine Terrasse mit traumhaftem Panoramablick. Eine traditionelle indische Massage rundet Ihren Entspannungsurlaub perfekt ab. <br>Wichtige Facts: Gratis WLAN von (6-23 Uhr) und Parkplatz, Gedeckter Sandkasten f&uuml;r Kinder im Garten, Grillstelle, Gemeinschaftsk&uuml;che, Bibliothek. Skibushaltestelle vor der Haust&uuml;r.</p>", "url": "https://www.schoenenboden.ch", "image": "https://ttpimtsoch.sos-ch-dk-2.exoscale-cdn.com/catalog/6/7/5/9/67599619e19e5008845965e2b6d196a62dd51a37_Haus_su__d_ost_Kopie_3.jpg", "openstreetmap_id": "node/2327135093"}, "geometry": {"type": "Point", "coordinates": ["9.369074106216432", "47.205196359419475"]}}, {"type": "Feature", "properties": {"identifier": "b7252647-4a70-4f27-ac86-f0030f540d32", "name": "Hotel Restaurant  R\u00f6ssli", "description": "<p>Die Zimmer sind im modernen Stil eingerichtet und die Familien und Comfort-Zimmer verf&uuml;gen &uuml;ber eine Smart-Home-Steuerung. Sie verf&uuml;gen &uuml;ber qualitativ hochstehende und gepflegte Inneneinrichtung mit einem Sitzbereich. Die Zimmer sind alle mit IP-TV, eigenem Bad und Swiss Made Kosmetikartikel ausgestattet. Wir bieten kostenloses WLAN und der Personen Lift bringt Sie bequem in alle Etagen. Im eigenen Restaurant verw&ouml;hnen wir Sie mit ausgesuchten, regionalen und saisonalen Spezialit&auml;ten.</p><p>&nbsp;</p><p>Auskunft zur Zug&auml;nglichkeit:&nbsp;<a href=\"https://www.ginto.guide/entries/15620305-1440-4cc4-b086-e093ed212bbb?lnk_src=business\" target=\"_blank\" rel=\"noopener\">ginto</a></p>", "url": "http://www.roessli-toggenburg.ch/", "image": "https://ttpimtsoch.sos-ch-dk-2.exoscale-cdn.com/catalog/9/0/3/b/903b3173b43dc45299ec4b9ba8acf60fca1f86d4_Ansicht.jpeg", "openstreetmap_id": "node/222237618"}, "geometry": {"type": "Point", "coordinates": ["9.284566", "47.193733"]}}, {"type": "Feature", "properties": {"identifier": "bd8530f1-b1a8-44a5-8e69-ee5bbda9ccba", "name": "Adonia-Gruppenhaus Schweizerhof", "description": "<div>Das Haus eignet sich f&uuml;r Jung und Alt, f&uuml;r Schulverlegungen, Wintersportwochen, f&uuml;r Kirchgemeinden sowie f&uuml;r Seminare, Retraiten, Freizeiten oder Wochenenden. Das Haus wird ab 2019 nach individuellen W&uuml;nschen vermietet, sei es f&uuml;r Selbstkochergruppen &ndash; HP/VP auf Anfrage &ndash; mit eigener Schlussreinigung oder mit Reinigung durch uns. Je nach Budget kann selbst entschieden werden, welche Dienstleistungen in Anspruch genommen werden m&ouml;chten.</div>", "url": "https://www.adonia.ch", "image": "https://ttpimtsoch.sos-ch-dk-2.exoscale-cdn.com/catalog/9/6/1/4/961470d3deda68c2bef613acf17996a9e30f2f43_Schweizerhof_imFr__hling.jpg", "openstreetmap_id": "node/96410252"}, "geometry": {"type": "Point", "coordinates": ["9.28346", "47.19351"]}}, {"type": "Feature", "properties": {"identifier": "bf51fa23-704e-4014-a991-eb6981ec2e57", "name": "Bergh\u00fctte Ski Club Neuhausen", "description": "Trotz des von aussen rustikalen Aussehens, erwartet Sie drinnen eine moderne K\u00fcche mit elektrischem Herd und Backofen sowie zwei K\u00fchlschr\u00e4nken und Kaffeemaschinen (Kapseln &amp; Filter). Dabei b\u00fcssen Sie jedoch nichts des Bergh\u00fctten-Flairs ein, denn die Holzstruktur und der mit Holz befeuerte Kachelofen werden Sie warm und entspannt halten. F\u00fcr kalte N\u00e4chte sind alle Schlafr\u00e4ume mit elektrischen Heizungen ausgestattet.\n\nF\u00fcr die Bewegungsfreudigen gibt es im Winter Ski- und Schlittelpisten in unmittelbarer N\u00e4he. F\u00fcr den Sommer haben Sie den Schwendisee sowie diverse Wanderungen in kurzer Distanz (350m) zu dieser Bergh\u00fctte. \nDa Verpflegung nicht von den Jahreszeiten abh\u00e4ngig ist, finden Sie in der N\u00e4he das Oberguet-St\u00fcbli, in welchem Sie frische Produkte des angrenzenden Hofs zubereiten d\u00fcrfen. Richtige Restaurants gibt's nat\u00fcrlich auch, das Restaurant GADE und Stump's Alpenrose befinden sich in Spaziergangdistanz.&nbsp;", "url": "https://www.scneuhausen.ch", "image": "https://ttpimtsoch.sos-ch-dk-2.exoscale-cdn.com/catalog/5/9/8/8/5988e742f4b80c7973dbb72aa298d855cd1dd12d_WhatsApp_Bild_2025_02_02_um_18.11.31_3b1e8a5c.jpg", "openstreetmap_id": "way/236139813"}, "geometry": {"type": "Point", "coordinates": ["9.322403853263046", "47.18863851251206"]}}, {"type": "Feature", "properties": {"identifier": "c33a2377-8af6-40ad-8c37-872edb168ac0", "name": "Chesa Clavazzin", "description": "Es erwarten Sie drei stilvoll eingerichtete Zimmer mit S\u00e4ntisblick. Jedes Zimmer kann einzeln oder doppelt belegt werden. Ein gemeinsames Bad mit Dusche mit allem Komfort steht auf der gleichen Etage zur Verf\u00fcgung, sowie ein Aufenthaltsraum. Fr\u00fchst\u00fcck ist inbegriffen.", "url": "https://giallegra.ch", "image": "https://ttpimtsoch.sos-ch-dk-2.exoscale-cdn.com/catalog/6/9/1/0/69101d614830d6dbe74a893142c0b32cd36814dd_20250710_110812__3.jpg", "openstreetmap_id": "way/40946875"}, "geometry": {"type": "Point", "coordinates": ["9.1309857", "47.3320539"]}}, {"type": "Feature", "properties": {"identifier": "cc083554-77ad-4efb-b96b-68b41507cea8", "name": "Hofgenuss", "description": "Unsere Podhouses sind heimelige Holziglus und bieten Platz f\u00fcr 2 bis 4 Personen. Sie haben Ihr Schlafzimmer mit bequemen Betten in der freien Natur, wo Sie morgens h\u00f6chstens von Vogelgezwitscher geweckt werden. Auf Komfort m\u00fcssen Sie nicht verzichten, wir bieten Ihnen auch einen gem\u00fctlichen Aufenthaltsraum mit Kiosk und Kochgelegenheit. Zudem verw\u00f6hnen wir Sie am Morgen mit einem reichhaltigen Fr\u00fchst\u00fcck mit vielen hofeigenen Bioprodukten.", "url": "https://hofgenuss.ch/", "image": "https://ttpimtsoch.sos-ch-dk-2.exoscale-cdn.com/catalog/c/7/a/b/c7ab12536c03b7d5f6dbfa66e25d4a7284d2478b_Podhouse__2.jpg", "openstreetmap_id": "node/2228955687"}, "geometry": {"type": "Point", "coordinates": ["9.08175", "47.36332"]}}, {"type": "Feature", "properties": {"identifier": "cc118e99-a8ee-4a8b-87a6-82fa0751a322", "name": "Ferienhaus Salomonstempel Hemberg", "description": "<div><p>Das Brugger Ferienhaus Salomonstempel liegt oberhalb von Hemberg im Toggenburg (Kanton St. Gallen, Schweiz) auf rund 1138 m &uuml;. M. und begeistert mit einem weiten Blick auf das Alpsteinmassiv und die sanfte H&uuml;gellandschaft des Neckertals. Hier erlebst du Natur, Ruhe und Gemeinschaft &ndash; ideal f&uuml;r Gruppen, Schulklassen, Vereine oder Familienlager.</p><p>Das Haus bietet Platz f&uuml;r bis zu 55 Personen in Zweier-, Dreier- und Viererzimmern sowie einem praktischen Leiterbereich mit eigener Dusche und WC. Die gastfreundliche Infrastruktur umfasst eine moderne und gut ausgestattete K&uuml;che, einen grossz&uuml;gigen Aufenthalts- und Essraum, einen separaten Spiel- und Freizeitraum sowie eine helle, gem&uuml;tliche Atmosph&auml;re f&uuml;r gemeinsame Stunden.</p><p>Rund ums Haus warten Tischtennis, T&ouml;ggelikasten, Grillstelle, Spielwiese und viel Platz zum Austoben &ndash; perfekt f&uuml;r Aktivit&auml;ten und Spass im Freien. Das Areal ist verkehrsfrei und sicher, umgeben von Wald und gr&uuml;nen Weiden.</p><p>Die Region Hemberg bietet dir zu jeder Jahreszeit abwechslungsreiche M&ouml;glichkeiten: Im Sommer laden zahlreiche Wanderwege und Bike-Routen zu Naturabenteuern ein &ndash; ob gem&uuml;tlich &uuml;ber die H&uuml;gel oder sportlich in Richtung Alpstein. Im Winter erreichst du Skilifte und Langlaufloipen schnell und kannst Schneevergn&uuml;gen in einer idyllischen Landschaft geniessen.</p><p>Ob Lager, Outdoor-Wochenende, Vereinsreise oder entspannte Familienzeit &ndash; hier findest du einen Ort, an dem Gemeinschaft und Natur an erster Stelle stehen und jeder Tag unvergesslich wird. Die Unterkunft wird immer nur an eine Gruppe gleichzeitig vermietet.</p><p><strong>Zuk&uuml;nftig neu:</strong> In K&uuml;rze werden die Betten ersetzt und anschliessend wird &laquo;nordisch schlafen&raquo; angeboten.</p></div>", "url": "https://www.salomonstempel-hemberg.ch", "image": "https://ttpimtsoch.sos-ch-dk-2.exoscale-cdn.com/catalog/3/a/5/3/3a538890abb0dd6af0b898a37e3cd0545ece4ddc_IMG_7081.jpeg", "openstreetmap_id": "way/177884642"}, "geometry": {"type": "Point", "coordinates": ["9.1547654", "47.2830088"]}}, {"type": "Feature", "properties": {"identifier": "d46e2d2a-0851-4980-860b-86d332a07fd4", "name": "Stump's Alpenrose", "description": "<p>Auf dem sonnenbeschienenen Hochplateau am Schwendisee heisst Sie die Gastgeberfamilie Stump in 5. Generation herzlich Willkommen. Der Klangweg f&uuml;hrt im Sommer zum Ch&auml;serrugg und weiter zu den Churfirsten, w&auml;hrend der Alpstein mit uneingeschr&auml;nkten Wanderungen an der Thur und bis zum S&auml;ntis lockt. Sonnenterrasse mit Kinderspielplatz und Trampolin laden zum Verweilen. Einzel-, Doppel- und Familienzimmer mit allem Komfort sind nach S&uuml;den ausgerichtet, Wellness mit Sauna, Dampfbad, Whirlpool und Fitnessraum sorgen f&uuml;r Entspannung wie Erholung. Stump&rsquo;s Frischk&uuml;che mit regionalen Culinarium-Produkten und Wild aus einheimischer Jagd sowie das Fr&uuml;hst&uuml;ck mit lokalen Broten und K&auml;se von den Alpen bietet viel Hausgemachtes. Im Winter f&uuml;hren die Skipisten direkt vom Hotel zu den Bergbahnen und zur Skischule. Ein Hotelbus macht die Anbindung ans Tal, zur Eisbahn, Curling-Center, Schwimmbad, Einkaufsm&ouml;glichkeiten sowie Kulturveranstaltungen. Herzlich Willkommen am Fuss des Ch&auml;serrugg bei Stump&rsquo;s in der Alpenrose.</p><p>&nbsp;</p><p><span data-teams=\"true\">Auskunft zur Zug&auml;nglichkeit</span>:&nbsp;<a href=\"https://www.ginto.guide/entries/541e1873-6d3c-437d-8284-c160c980487e?lnk_src=business\" target=\"_blank\" rel=\"noopener\">ginto</a></p>", "url": "http://www.stumps-alpenrose.ch", "image": "https://ttpimtsoch.sos-ch-dk-2.exoscale-cdn.com/catalog/3/4/a/a/34aabb3bf4aa2338704bbd9c55613f2ac773186d_SwissPano_Alpenrose_20170626_115756_00635_Panorama.jpg", "openstreetmap_id": "node/2312186188"}, "geometry": {"type": "Point", "coordinates": ["9.3285822", "47.190065"]}}, {"type": "Feature", "properties": {"identifier": "d944e7a2-672c-4f18-8055-4c9c32b7dfef", "name": "B&B Laui Ennetb\u00fchl", "description": "<div>Das Haus aus der Mitte des 19. Jahrhunderts wurde mit viel Sachverstand und handwerklichem Geschick restauriert und renoviert. Die drei G&auml;stezimmer (1 Einzelzimmer und 2 Doppelzimmer) sind liebevoll eingerichtet, mit einem charmanten Mix aus Design- und Antikm&ouml;beln. Wir verw&ouml;hnen Sie in der urspr&uuml;nglichen G&auml;stestube mit einem reichhaltigen Fr&uuml;hst&uuml;ck aus selbstgemachten und regionalen Produkten. Parkplatz und WLAN vorhanden. Mit dem &Ouml;V in 15 Minuten erreichbar. Kein TV, Raumh&ouml;he 196\u202fcm. Wanderwege direkt vor dem Haus, Langlaufloipe in n&auml;chster N&auml;he. Preise inkl. Fr&uuml;hst&uuml;ck und Kurtaxe pro Person und Nacht: Fr.\u202f80.&ndash; (ab der 2. Nacht Fr.\u202f70.&ndash;).</div>", "url": "http://www.laui-ennetbuehl.ch/", "image": "https://ttpimtsoch.sos-ch-dk-2.exoscale-cdn.com/catalog/2/e/f/0/2ef05d432323b4a99a3265b5c1dab050758636c5_Laui_190_Bild_Chris_Iseli___Sandra_Ardizzone__2.jpg", "openstreetmap_id": "node/2130961172"}, "geometry": {"type": "Point", "coordinates": ["9.22271079999996", "47.2445859"]}}, {"type": "Feature", "properties": {"identifier": "df470d09-9321-41a2-89ec-fe8b2aa4e071", "name": "Gasthaus L\u00f6wen Hemberg", "description": "<p>Der L&ouml;wen in Hemberg hat eine traditionsbehaftete Geschichte: In den 50er Jahren war das Gasthaus eine weitherum bekannte Metzgerei, Gastst&auml;tte und Milit&auml;runterkunft. Dann wurde es Ende des letzten Jahrhunderts etwas ruhiger um das stattliche Geb&auml;ude. Inzwischen ist der L&ouml;wen mit sehr viel Liebe und Sorgfalt renoviert worden, ohne dabei seinen urspr&uuml;nglichen Charme zu verlieren. Seit Winter 2018 f&uuml;hren wir als gastronomische Quereinsteiger das Gasthaus L&ouml;wen. Unsere Vorstellung einer heimeligen und urchigen Beiz, vereint mit einer regionalen und kulinarisch hochstehenden K&uuml;che, k&ouml;nnen wir hier jeden Tag verwirklichen! Dabei hilft die ganze Familie mit, vom Koch &uuml;ber die Grafikerin bis zur Kafiguezli-Lieferantin sind fast alle Angestellten aus dem famili&auml;ren Umkreis. Auch musikalische Anl&auml;sse sind ein fester Bestandteil der L&ouml;wen-Philosophie. Monatlich stattfindende L&auml;ndlerkonzerte sind f&uuml;r uns als Gastgeberfamilie H&ouml;hepunkte im Wirtealltag.</p><p>&nbsp;</p><p>Auskunft zur Zug&auml;nglichkeit:&nbsp;<a href=\"https://www.ginto.guide/entries/97cd4b31-5ed9-4e9e-aef0-567e7cb02988?lnk_src=business\" target=\"_blank\" rel=\"noopener\">ginto</a></p>", "url": "https://www.loewen-hemberg.ch/", "image": "https://ttpimtsoch.sos-ch-dk-2.exoscale-cdn.com/catalog/1/7/8/2/17828566200af3b968c05042dd5afde6da226207_DSC_2200__4_.JPG", "openstreetmap_id": "node/177884639"}, "geometry": {"type": "Point", "coordinates": ["9.1753376", "47.3003699"]}}, {"type": "Feature", "properties": {"identifier": "df530289-9b39-42fa-8961-96b191803f60", "name": "JENNYHAUS", "description": "<div>Das Jennyhaus verf\u00fcgt \u00fcber 16 Zimmer, die in Zwei- und Vierbettzimmer aufgeteilt sind, und bietet komfortable Schlafm\u00f6glichkeiten f\u00fcr bis zu 50 G\u00e4ste. Das historische Geb\u00e4ude wurde komplett renoviert und \u00f6ffnete im Juni 2025 seine T\u00fcren. Bei den Renovationsarbeiten wurde besonderer Wert auf einen hohen Ausbaustandard und die Bewahrung der historischen Elemente gelegt, die das Jennyhaus und die Toggenburger Bauweise auszeichnen. F\u00fcr Musikliebhaber ist das nahegelegene Klanghaus, das im Mai 2025 er\u00f6ffnet wurde, ein Highlight, ebenso wie der im Jahr 2024 neu er\u00f6ffnete Klangweg, der grosse und kleine Besucher begeistert. Auch bei nassem Wetter gibt es viel zu erleben: Das Resonanzzentrum Peter Roth ist nur f\u00fcnf Gehminuten entfernt und l\u00e4dt zu einer faszinierenden Klangreise ein. Sportbegeisterte finden in Unterwasser eine Tennis-, Boulder- und Badmintonhalle. Weitere Ausflugsziele wie die Klangschmiede in Alt St. Johann, das Curlingzentrum in Wildhaus oder das Reka-Hallenbad bieten zus\u00e4tzliche Abwechslung und Unterhaltung. Das Haus kann sowohl als Selbstkocherhaus als auch mit einem Cateringangebot gemietet werden.</div>", "url": "https://bergundbett.ch/gruppenhaeuser/", "image": "https://ttpimtsoch.sos-ch-dk-2.exoscale-cdn.com/catalog/5/1/0/6/51065ba618a0bef80e6ba2fdb463622f4b2874be_20250402_JENNYHAUS_232_Bearbeitet__2.jpg", "openstreetmap_id": "way/222401732"}, "geometry": {"type": "Point", "coordinates": ["9.334794801457827", "47.18926745"]}}, {"type": "Feature", "properties": {"identifier": "e6532349-7431-4f52-8a2d-9c2ab47e3eba", "name": "Ski- und Clubhaus Pfungen", "description": "<p>Das Haus befindet sich im Toggenburg auf 1050 m \u00fc. M., in einem sch\u00f6nen Ski- und Wandergebiet, direkt an der Skipiste des Skilifts Tanzboden, mit Blick auf das S\u00e4ntis-Massiv. Seit 1948 dient es dem Ski-Club Pfungen als Vereinshaus. \u00a0<br>Der gem\u00fctliche Aufenthalts- und Speiseraum bietet Platz f\u00fcr etwa 20 Personen. \u00a0<br>Die K\u00fcche ist praktisch eingerichtet und gross. \u00a0<br>Im Keller sind gen\u00fcgend Abstell- und Lagerm\u00f6glichkeiten vorhanden. \u00a0<br>Sch\u00f6ne, gem\u00fctliche Schlafr\u00e4ume in verschiedenen Gr\u00f6ssen: \u00a0<br>1 \u00d7 6er-Zimmer (Kaj\u00fctbetten) \u00a0<br>1 \u00d7 8er-Zimmer (Kaj\u00fctbetten und Massenlager) \u00a0<br>1 \u00d7 12er-Massenlager \u00a0<br>1 \u00d7 Leiterst\u00fcbli (4er-Zimmer) mit Tisch und St\u00fchlen, 2 Kaj\u00fctbetten und 2 Einzelbetten \u00a0<br>Waschr\u00e4ume: je einer f\u00fcr Damen und Herren. \u00a0<br>WC: je 2 f\u00fcr Damen und Herren. \u00a0<br>Dusche: je eine f\u00fcr Damen und Herren.</p>", "url": "https://www.sc-pfungen.ch/", "image": "https://ttpimtsoch.sos-ch-dk-2.exoscale-cdn.com/catalog/b/c/f/9/bcf97281c43b06635aef2fdc566662f70b71e83d_Pfungen_3.jpg", "openstreetmap_id": "node/2810121952"}, "geometry": {"type": "Point", "coordinates": ["9.11277", "47.24676"]}}, {"type": "Feature", "properties": {"identifier": "ea5e2c37-de76-446c-a852-e49a20a8ef09", "name": "BnB Alpenblick", "description": "<p>Im 10 km von Wil entfernten L&uuml;tisburg bietet Ihnen das BnB Alpenblick eine sch&ouml;ne Sonnenterrasse sowie einen h&uuml;bschen Garten. Das WLAN im gesamten Geb&auml;ude und die Privatparkpl&auml;tze am Haus nutzen Sie kostenfrei. Die Zimmer verf&uuml;gen &uuml;ber einen Sitzbereich mit einem Flachbild-Kabel-TV. Geniessen Sie das reichhaltige, leckere Fr&uuml;hst&uuml;ck mit nat&uuml;rlichen Produkten. Das n&auml;chste Restaurant und ein Lebensmittelgesch&auml;ft befinden sich 600 m entfernt. St. Gallen erreichen Sie mit dem Auto nach 30 Minuten. Der Bahnhof L&uuml;tisburg befindet sich 2,5 km und die Bushaltestelle 200 m von der Unterkunft entfernt. Infrastruktur f&uuml;r Zweir&auml;der: - Steckdose f&uuml;r Ladeger&auml;t E-Bike - Veloraum.</p><p>&nbsp;</p><p><span data-teams=\"true\">Auskunft zur Zug&auml;nglichkeit: <a id=\"menurdvq\" class=\"fui-Link ___1q1shib f2hkw1w f3rmtva f1ewtqcl fyind8e f1k6fduh f1w7gpdv fk6fouc fjoy568 figsok6 f1s184ao f1mk8lai fnbmjn9 f1o700av f13mvf36 f1cmlufx f9n3di6 f1ids18y f1tx3yz7 f1deo86v f1eh06m1 f1iescvh fhgqx19 f1olyrje f1p93eir f1nev41a f1h8hb77 f1lqvz6u f10aw75t fsle3fq f17ae5zn\" href=\"https://www.ginto.guide/entries/1f506cf9-0416-433e-b973-06be0699591c?lnk_src=business\" target=\"_blank\" rel=\"noopener\" aria-label=\"Link OK:GO\">ginto</a></span></p>", "url": "https://bnb-alpenblick.business.site", "image": "https://ttpimtsoch.sos-ch-dk-2.exoscale-cdn.com/catalog/4/d/2/7/4d27de6cdc667988b4e17d8908da0f80eb57e07a_Dreier_Z_Hauptbild__2.jpg", "openstreetmap_id": "node/2384619564"}, "geometry": {"type": "Point", "coordinates": ["9.084014", "47.397894"]}}, {"type": "Feature", "properties": {"identifier": "f4c24e03-e6f0-4b81-a8ec-de90811c6502", "name": "Campingplatz Schafbergblick", "description": "<p>Unser Campingplatz bietet 64 Ganzjahrespl&auml;tze, 10 Winterstandpl&auml;tze und eine grosse Zeltwiese. Ein gem&uuml;tliches Beizli und ein einladender Aufenthaltsraum sorgen f&uuml;r das Wohl unserer G&auml;ste.</p><p>&nbsp;</p><p>Auskunft zur Zug&auml;nglichkeit:&nbsp;<a href=\"https://www.ginto.guide/entries/58cb6fe4-0dc2-4672-a523-61f6c5d8dd32?lnk_src=business\" target=\"_blank\" rel=\"noopener\">ginto</a></p>", "url": "http://www.schafbergblick.ch/", "image": "https://ttpimtsoch.sos-ch-dk-2.exoscale-cdn.com/catalog/d/6/4/f/d64f3d840209c3c2c5ce42f28047dcce61e5e15e_DJI_0033.JPG", "openstreetmap_id": "node/414879499"}, "geometry": {"type": "Point", "coordinates": ["9.360909499999934", "47.2001869"]}}, {"type": "Feature", "properties": {"identifier": "fa1c2d69-bab3-479f-af44-fe5458a37f62", "name": "Ursula's B&B", "description": "<div>Ursula&rsquo;s B&amp;B ist ein charmantes Bed &amp; Breakfast im Neckertal mit einem G&auml;stezimmer &ndash; ideal f&uuml;r alle, die eine pers&ouml;nliche, ruhige und naturnahe Unterkunft im Toggenburg suchen. G&auml;ste geniessen eine sch&ouml;ne Aussicht auf die sanften H&uuml;gel des Neckertals, w&auml;hrend Wanderwege und Velorouten direkt vor der Haust&uuml;re beginnen. Zentral gelegen zwischen Bodensee, Z&uuml;richsee und Walensee ist das B&amp;B der perfekte Ausgangspunkt f&uuml;r Wanderferien in der Schweiz, Ausfl&uuml;ge zu den Churfirsten, in den Alpstein mit dem S&auml;ntis sowie f&uuml;r Tagestrips ins nahe Deutschland, &Ouml;sterreich oder Liechtenstein.</div>", "url": "https://www.toggenburg-ferien.com", "image": "https://ttpimtsoch.sos-ch-dk-2.exoscale-cdn.com/catalog/1/d/5/4/1d54ed46107bfb72eeb8d5de025ce8374f41e467_BNB_B__chli__Schlafzimmer__6_.jpg", "openstreetmap_id": "way/177886142"}, "geometry": {"type": "Point", "coordinates": ["9.1933638", "47.3046261"]}}, {"type": "Feature", "properties": {"identifier": "ff87469d-1d47-41ff-b2ee-6655f11cb24c", "name": "Wohnmobil-Stellplatz Parkplatz Wolzenalp", "description": "Der Stellplatz befindet sich mitten im ruhigen Dorf Krummenau mit idealer Ausgangslage f\u00fcr Ausfl\u00fcge in die Natur der Ferienregion Toggenburg. G\u00e4ste \u00fcbernachten am Ufer der Thur auf dem grossz\u00fcgigen, ganztags besonnten Parkplatz, nur einen Steinwurf entfernt zur Talstation der Bergbahn, die bequem ins Naturerlebnis Wolzenalp bef\u00f6rdert. Zum Dorfzentrum (Restaurants, \u00f6V und kleine Einkaufsm\u00f6glichkeit) sind es wenige Gehminuten.\nDer Stellplatz kommt vorerst ohne weitere Infrastuktur aus und eignet sich ideal f\u00fcr spontane G\u00e4ste und Weiterreisende. Der Stellplatz steht ganzj\u00e4hrig zur Verf\u00fcgung.\n\nEin Stellplatz wird ausschliesslich bequem online vor Ort gebucht.", "url": "http://www.wolzenalp.ch", "image": "https://ttpimtsoch.sos-ch-dk-2.exoscale-cdn.com/catalog/7/7/1/4/7714f322d3ad8c8c13a6625bd167fac502a0d9bf_Stellplatz_Handyfoto.jpg", "openstreetmap_id": "node/8890479454"}, "geometry": {"type": "Point", "coordinates": ["9.16994", "47.24632"]}}]}