{"type": "FeatureCollection", "features": [{"type": "Feature", "properties": {"identifier": "0417e454-794c-42ef-954e-7e65b4efa2bd", "name": "Alpk\u00e4serei Gampl\u00fct", "description": "Mit viel Liebe und handwerklichem K\u00f6nnen stellen wir Alpk\u00e4se in unserer eigenen K\u00e4serei her.", "url": "https://alpkaeserei-gampluet.ch", "image": "https://ttpimtsoch.sos-ch-dk-2.exoscale-cdn.com/catalog/c/a/5/d/ca5dba0c5dc6a7b58c910a95bb257f5d1bd7a395_AKGT_Outdoor_DSC07183_web.jpg", "openstreetmap_id": "node/12244544768"}, "geometry": {"type": "Point", "coordinates": ["9.344427287578585", "47.21196041275878"]}}, {"type": "Feature", "properties": {"identifier": "22b054bd-d244-4aee-9aca-df658f8fbfca", "name": "Wildhaus, Gamserrugg", "image": "https://ttpimtsoch.sos-ch-dk-2.exoscale-cdn.com/catalog/6/6/e/8/66e8e5d2ce3d49395f1eab530d308aa60b2b59ac_wildhaus.png", "openstreetmap_id": "node/255016211"}, "geometry": {"type": "Point", "coordinates": ["9.337892531912077", "47.1594984480759"]}}, {"type": "Feature", "properties": {"identifier": "3a18be77-edde-45b0-a7fc-dfd64d78bc36", "name": "Mogelsberg, Baumwipfelpfad", "image": "https://ttpimtsoch.sos-ch-dk-2.exoscale-cdn.com/catalog/e/9/1/f/e91f87a7f88e85e95d5c6c717c25548662e4a162_webcam_baumwipfelpfad_bild.jpg", "openstreetmap_id": "way/562472394"}, "geometry": {"type": "Point", "coordinates": ["9.14341986179352", "47.358107367856924"]}}, {"type": "Feature", "properties": {"identifier": "63a1c040-5ca2-4691-8959-4732391badbc", "name": "Reitschule f\u00fcr Kinder und Erwachsene / gef\u00fchrte Ausritte im Toggenburg", "description": "<p>Auf unserem modernen Sandplatz in Dietfurt SG bieten wir pferdebegeisterten Kindern und Erwachsenen Reitstunden auf gut ausgebildeten Schulpferden an.<br>Zudem k&ouml;nnen auch gef&uuml;hrte Ausritte ins Gel&auml;nde oder Bodenarbeitskurse gebucht werden.</p>\n<p>Weitere Informationen zu unseren Angeboten, Preisen und Kursen finden Sie auf unserer Website unter:<br><a href=\"https://kutschenfahrten-scherrer.ch/Reitschule/\">www.kutschenfahrten-scherrer.ch</a>, Rubrik&nbsp;<strong>Reitschule</strong>.</p>", "url": "https://www.kutschenfahrten-scherrer.ch", "image": "https://ttpimtsoch.sos-ch-dk-2.exoscale-cdn.com/catalog/a/7/9/0/a7906dbbea0c570d696618fede823cc15555fdc5_Gel__nderitt1.jpg", "openstreetmap_id": "way/272177472"}, "geometry": {"type": "Point", "coordinates": ["9.0767387", "47.3438857"]}}, {"type": "Feature", "properties": {"identifier": "63f1cef3-073b-4d9e-9557-92f0874b6144", "name": "S\u00e4ntisloipe", "image": "https://ttpimtsoch.sos-ch-dk-2.exoscale-cdn.com/catalog/4/1/e/7/41e7b7901bdc7e8f36f3149951ab371c09178042_langlauf.jpg", "openstreetmap_id": "way/39161823"}, "geometry": {"type": "Point", "coordinates": ["9.2339398", "47.2440338"]}}, {"type": "Feature", "properties": {"identifier": "70ac280f-a9d1-4809-960f-b0438de93f1c", "name": "Grillstelle und Badestelle M\u00fcndung Thur und Necker", "description": "Den Ausflug an den wundersch\u00f6nen, ruhig gelegenen Badeplatz muss man sich verdienen. Ein kleiner Fussmarsch ist unumg\u00e4nglich, wer das Flussufer erreichen will. Von der Hauptstrasse, die L\u00fctisburg und Ganterschwil verbindet, f\u00fchren gekieste Str\u00e4sschen hinunter zum Fluss. Besser gesagt: zu den Fl\u00fcssen. Denn hier m\u00fcndet der wilde Necker in die breite Thur. An deren Ufer gibt es etliche Pl\u00e4tze zum Verweilen, zum Br\u00e4teln. Wenn die Fl\u00fcsse nicht viel Wasser f\u00fchren, ist das Bett breit und einfach zug\u00e4nglich. \nAuf dem Weg zum Fluss liegt die historische Holzbr\u00fccke Letzibr\u00fccke. Hier befinden sich eine Grillstelle und M\u00fclleimer, oft wird im Sommer ein mobiles Toilettenh\u00e4uschen aufgestellt. Infotafeln geben Auskunft \u00fcber das Naturschutzgebiet. Respekt und R\u00fccksichtnahme auf die sch\u00f6ne Natur sind eine Selbstverst\u00e4ndlichkeit.", "url": "https://toggenburg.swiss", "image": "https://ttpimtsoch.sos-ch-dk-2.exoscale-cdn.com/catalog/4/d/9/b/4d9ba8bab50fa30816286112369e31e891c2f162_Bilder_Eisenring_165.jpg", "openstreetmap_id": "node/224012796"}, "geometry": {"type": "Point", "coordinates": ["9.08172", "47.39095"]}}, {"type": "Feature", "properties": {"identifier": "8b381667-e759-4f2f-8b6e-287f239a572d", "name": "Naturb\u00fchne Holzegg", "description": "<p>Aus heimischem Holz gefertigt, liegt diese Plattform entlang des Thur- und Neckerwegs frei im Landschaftsraum. Sie schafft eine klare, einfache Fl&auml;che im Freien &ndash; offen f&uuml;r das, was entstehen will.<br><br>Die B&uuml;hne kann spontan genutzt oder reserviert werden. Ob allein, zu zweit oder in einer kleinen Gruppe &ndash; hier entsteht Raum f&uuml;r Austausch, f&uuml;r Proben oder Trainings, Kurse und Workshops, kleine Vorf&uuml;hrungen oder f&uuml;r Team-Meetings &laquo;mal anders&raquo;. Die Naturb&uuml;hne bietet einen besonderen Rahmen f&uuml;r gemeinsame Momente in neuer Umgebung. Alternativ dient sie als Platz f&uuml;rs Picknick oder den Lunch am Mittag.</p>", "url": "https://thurundneckerweg.ch", "image": "https://ttpimtsoch.sos-ch-dk-2.exoscale-cdn.com/catalog/7/a/0/6/7a0697bd96e92750eb54ce8af2e3e8a0e5243b1e_Naturb__hne_Holzegg__Nesslau.jpeg", "openstreetmap_id": "way/276919702"}, "geometry": {"type": "Point", "coordinates": ["9.185694", "47.226778"]}}, {"type": "Feature", "properties": {"identifier": "917ebc5d-1429-4ce7-a5bb-77e0492b2555", "name": "Klangsein: Wohltuende und regenerierende Entspannung durch Klang.", "description": "<p>Die Klangschalenmassage zeichnet sich durch obertonreiche Kl&auml;nge und feine Vibrationen aus, welche unser Nervensystem beruhigen. Die Klangschalen werden sowohl auf, als auch um den bekleideten K&ouml;rper positioniert und mit einem Filzschl&auml;gel sanft zum Klingen gebracht. Die harmonischen, obertonreichen Kl&auml;nge der verschiedenen Schalen erm&ouml;glichen Tiefenentspannung. Die feinen Vibrationen der Schalen bringen die Fl&uuml;ssigkeit im K&ouml;rper zum Schwingen und breiten sich im K&ouml;rper aus, vergleichbar mit den konzentrischen Wellen, die entstehen, wenn ein Stein ins Wasser f&auml;llt. Muskul&auml;re Verspannungen werden sanft gel&ouml;st, Faszien gelockert sowie Durchblutung und Lymphfluss angeregt. Die tiefe Entspannung beeinflusst Atmung, Herzkreislaufsystem, Stoffwechsel und Verdauungssystem positiv. Die Regenerationsf&auml;higkeit des K&ouml;rpers wird so gef&ouml;rdert. Das urspr&uuml;ngliche Vertrauen sowie die K&ouml;rper- und Selbstwahrnehmung werden gest&auml;rkt. Ein Gef&uuml;hl von Entspannung und Leichtigkeit wird erfahrbar &ndash; Wellness f&uuml;r K&ouml;rper, Seele und Geist.</p>", "url": "https://klangsein.ch", "image": "https://ttpimtsoch.sos-ch-dk-2.exoscale-cdn.com/catalog/7/9/9/1/7991e99eafa34c871e58fe1ce0f4e91d8a6f9d58_Klangsein_Klangschale_First_Churfirsten_Obertoggenburg.JPG", "openstreetmap_id": "node/2046854445"}, "geometry": {"type": "Point", "coordinates": ["9.30894", "47.20253"]}}, {"type": "Feature", "properties": {"identifier": "a0d2c242-070e-4e2f-836b-4feb51c63968", "name": "Toggenburg-Guides", "description": "Willkommen bei unserer Gemeinschaft von Bergf\u00fchrern und Wanderleitern im Toggenburg.\nBei uns findest du Touren und Erlebnisse, die von erfahrenen Profis geplant und begleitet werden.\nGemeinsam entdecken wir die Sch\u00f6nheit der Berge - ob sanft oder anspruchsvoll.\nWir nehmen dich mit hinaus in die Natur: sicher, authentisch und genau so, wie es zu dir passt.", "url": "https://www.toggenburg-guides.ch", "image": "https://ttpimtsoch.sos-ch-dk-2.exoscale-cdn.com/catalog/4/7/8/3/47832aab2c2b561185152a45c93b99259953dc69_01_Logo_Toggenburg_Guides600.png", "openstreetmap_id": "node/11289740047"}, "geometry": {"type": "Point", "coordinates": ["9.25304174423218", "47.185727089944905"]}}, {"type": "Feature", "properties": {"identifier": "b7e3cdba-d614-48dc-9f29-ec1c7e805efd", "name": "Themenparcours Alder + Eisenhut", "description": "Rund um das knapp 30'000 m2 grosse Areal der Firma Alder + Eisenhut befinden sich 13 verschiedene Posten, welche die Turnger\u00e4tefabrikation, die Geschichte der Firma, die Natur rundherum und die Menschen dahinter vorstellen. Mit den Posten zum Felsenstein und der Rotfarbfabrik beleuchtet der Themenparcours auch einen Teil der Textilgeschichte Ebnat-Kappels.\n\nDie Informationen dieser Posten k\u00f6nnen via QR-Code bzw. mit der Fixfinder-APP gelesen werden. Das Postennetz ist eine Erg\u00e4nzung zur Ausstellung im Turnger\u00e4te-Museum und kann auch ausserhalb der \u00d6ffnungszeiten besucht werden.", "url": "https://www.alder-eisenhut.ch/", "image": "https://ttpimtsoch.sos-ch-dk-2.exoscale-cdn.com/catalog/0/0/5/f/005f072629c6efdbf03faec9d3d9fb7c971a32fa_alder_und_eisenhut.JPG", "openstreetmap_id": "way/282363012"}, "geometry": {"type": "Point", "coordinates": ["9.115742400845049", "47.265513299999995"]}}, {"type": "Feature", "properties": {"identifier": "bbe801fe-5f7b-4517-b74b-99b0cf9aa51b", "name": "B\u00e4nkli-Fitness-Weg", "description": "<div><p>Regelm&auml;ssiges Training beziehungsweise k&ouml;rperliche Aktivit&auml;t ist in jedem Alter wichtig. F&uuml;r &auml;ltere Menschen stellt es eine wesentliche Grundlage f&uuml;r ein selbstbestimmtes Leben dar. F&uuml;r Jugendliche und Breitensportler ist Bewegung ein fester Bestandteil sozialer Begegnungen, des Wohlbefindens und der Steigerung der Fitness. Die Lebensqualit&auml;t kann dadurch deutlich verbessert werden.</p><p>Eine Kombination aus Kraft- und Gleichgewichtstraining ist besonders effektiv. Gezieltes Gleichgewichtstraining verbessert die Standstabilit&auml;t und unterst&uuml;tzt eine kontrollierte K&ouml;rperhaltung. Auch die Maximalkraft der Haltemuskulatur wird durch Gleichgewichtstraining gest&auml;rkt. Im Alter kann dies zu einer Verringerung der Sturzgefahr f&uuml;hren.</p><p>Bewegung st&auml;rkt zudem das Immunsystem und f&ouml;rdert die Sauerstoffaufnahme. Das Herz-Kreislauf-System wird gest&auml;rkt, und sowohl die Regeneration als auch die psychische Verfassung profitieren davon. K&ouml;rperliche Aktivit&auml;t unterst&uuml;tzt das K&ouml;rper- und Selbstbewusstsein, verbessert den Schlafrhythmus und tr&auml;gt zum Stressabbau bei.</p><p>Nebst einem gezielten Training ist die Freude an der Bewegung wichtig &ndash; Training soll Spass machen. Und gemeinsames Training macht doppelt Freude.</p></div>", "image": "https://ttpimtsoch.sos-ch-dk-2.exoscale-cdn.com/catalog/5/0/9/d/509d39fd9c9ca1f3613d7419bc7d1b49c5ba7b03_IMG_2249.jpg", "openstreetmap_id": "way/460349509"}, "geometry": {"type": "Point", "coordinates": ["9.348828792572023", "47.20351976581697"]}}, {"type": "Feature", "properties": {"identifier": "c5853b89-4674-4cd4-ac31-8f9d86b574e8", "name": "Unterwasser, Ch\u00e4serrugg", "image": "https://ttpimtsoch.sos-ch-dk-2.exoscale-cdn.com/catalog/0/e/f/2/0ef2180cedd3f484955e3534bb0c661cf9185ac8_Ch__serrugg.png", "openstreetmap_id": "node/2081243713"}, "geometry": {"type": "Point", "coordinates": ["9.312157606283439", "47.15498056683987"]}}, {"type": "Feature", "properties": {"identifier": "d29a3491-9163-4dc2-8d56-dd3b8559dbf1", "name": "Massagetherapie Underm\u00fcli in Alt St. Johann", "description": "Schmerzen werden gelindert oder die Behandlung kann einfach eine Wohltat sein. \nIch habe eine \u00fcber 20-j\u00e4hrige Berufspraxis und bin \u00fcber die Zusatzversicherungen bei den meisten Krankenkassen anerkannt, spreche Deutsch, Franz\u00f6sisch und Englisch. Parkpl\u00e4tze vor dem Haus, auch mit \u00d6V gut erreichbar.\nInkludierte Leistungen: Med. Klassische Massage, Fussreflexzonenmassage\n \nTermin nach Vereinbarung\nDetails / Infos: www.wellmed.ch\nBuchbar unter: www.wellmed.ch oder 079 678 65 67", "url": "http://www.wellmed.ch", "image": "https://ttpimtsoch.sos-ch-dk-2.exoscale-cdn.com/catalog/5/3/d/b/53db3361a7a165e5306418b83ea7fd011322e036_Praxis.jpg", "openstreetmap_id": "node/2312187116"}, "geometry": {"type": "Point", "coordinates": ["9.280362725257875", "47.19370442653"]}}, {"type": "Feature", "properties": {"identifier": "d3184543-d322-4865-8753-76e89a28773a", "name": "Klettergarten Zwinglipass", "description": "In der n\u00e4heren und weiteren Region um die H\u00fctte gibt es viele sch\u00f6ne Klettergebiete im besten Kalk: G\u00e4tterifirst, Kreuzberge, Dreifaltigkeit, F\u00e4lent\u00fcrm und ganz besonders am Hausberg der Zwinglipassh\u00fctte, dem Altmann, dem zweith\u00f6chsten Berg des Alpsteins. \n\nDer Klettergarten \u00abZwinglipass\u00bb ist ab der Talstation der Bergbahn Gampl\u00fct in einer ca. 3-st\u00fcndigen Wanderung zu erreichen. \n\nEr bietet Routen in verschiedensten Schwierigkeitsgraden von 2a (Schaffhauser Kamin) bis 6c+ (Via Hacky Sack) an, welche \u00fcber die verschiedenen Grate oder durch die S\u00fcdwand auf den Gipfel des Altmanns f\u00fchren. \n\nDer Kletterf\u00fchrer liegt in der H\u00fctte auf.\n\nWeitere Informationen zu den Routen finden Sie im \u00abSAC Kletterf\u00fchrer Alpstein\u00bb und in der Tourist Information Wildhaus.", "url": "https://toggenburg.swiss", "image": "https://ttpimtsoch.sos-ch-dk-2.exoscale-cdn.com/catalog/6/a/6/6/6a66bdff6b09c6c34abfe2c7233d56ea91d37b8b_TOOGI_KLETTERN_sept14_RUPA_392.jpg", "openstreetmap_id": "node/600083987"}, "geometry": {"type": "Point", "coordinates": ["9.37485694885254", "47.23658824304505"]}}, {"type": "Feature", "properties": {"identifier": "ddf5e3fa-59cb-4775-8873-7823dea323d2", "name": "Wildhaus, Gampl\u00fct", "image": "https://ttpimtsoch.sos-ch-dk-2.exoscale-cdn.com/catalog/b/2/e/6/b2e617efe081e9805a0280e6c85831fead93396e_gampl__t.png", "openstreetmap_id": "node/7242485563"}, "geometry": {"type": "Point", "coordinates": ["9.343510865946884", "47.213138794267074"]}}, {"type": "Feature", "properties": {"identifier": "ec43829d-772d-42de-8e32-251d5fb0d468", "name": "Unterwasser, Iltios", "image": "https://ttpimtsoch.sos-ch-dk-2.exoscale-cdn.com/catalog/1/a/b/9/1ab9f65016f42ae112ea6c489988f913cff844f4_Screenshot_2025_11_14_165128.png", "openstreetmap_id": "node/2081243753"}, "geometry": {"type": "Point", "coordinates": ["9.312238097190859", "47.185286613728024"]}}, {"type": "Feature", "properties": {"identifier": "f4d4d8fb-3560-4159-a74e-534903a99467", "name": "Ferienhaus Undereggli", "description": "INNENBEREICH\n\nDas gem\u00fctlich eingerichtete 4 Zimmerhaus Undereggli erstreckt sich \u00fcber 2 Etagen. Im Erdgeschoss befindet sich neben dem grossz\u00fcgigen Eingang der Wohnraum mit einem Speicherofen und angrenzend eine grossz\u00fcgige K\u00fcche. Weiter hat es ein Badezimmer mit Dusche, Badewanne und Waschmaschine. Im Obergeschoss finden Sie ein separates WC, zwei Doppelzimmer und ein Wohnzimmer mit ausziehbarer Couch.\n\nAUSSENBEREICH\nMitten in der Landwirtschaftszone stehen verschiedene m\u00f6blierte Sitzpl\u00e4tze mit wunderbarer Weitsicht auf S\u00e4ntis, Stockberg, Churfirsten und Speergebiet zur Verf\u00fcgung.", "image": "https://ttpimtsoch.sos-ch-dk-2.exoscale-cdn.com/catalog/c/4/9/f/c49f5e199a83a6fdd31f78de3ef95c7def73db4e_a7ca3cb5d3f0974af2b6ecb620a549415a1aa3de_image.jpg", "openstreetmap_id": "node/2091089033"}, "geometry": {"type": "Point", "coordinates": ["9.198608720464183", "47.240642884066"]}}, {"type": "Feature", "properties": {"identifier": "f5d3af54-a294-4e2c-b353-62a3c55b55bd", "name": "Kino Passerelle", "description": "Die Gru\u0308ndung der Genossenschaft Kino Passerelle ist dabei auf eine mutige Initiative aus den Reihen des ehemaligen Cine\u0301-Clubs zuru\u0308ckzufu\u0308hren. Nach der Schliessung des bisherigen &quot;Kino Speer&quot; 1987 konnte so mit der breiten Unterstu\u0308tzung der Bevo\u0308lkerung wieder ein Kino im Toggenburg seine Tu\u0308ren o\u0308ffnen.\n\nIm November 2002 konnten ein zweiter Saal und eine Kinobar ero\u0308ffnet werden. Da sich die Kinobranche in den letzten Jahren in einer starken Umbruchsphase befindet, sind auch im Kino Passerelle diverse Schritte unternommen worden, um die Zukunft zu sichern. Die Beschaffung der herko\u0308mmlichen 35mm-Filme gestaltete sich zunehmend als schwierig, weshalb 2012 die bisherigen Projektoren durch moderne Digitalprojektoren ersetzt wurden. \n\nAm 3. September 2016 konnte das Kino Passerelle schlussendlich auch eine komplett neue Saalbestuhlung der O\u0308ffentlichkeit pra\u0308sentieren. In Anwesenheit des Regisseurs Xavier Koller wurde \u201eDie Reise der Hoffnung\u201c gezeigt \u2013 der gleiche Film, der am 17. November 1990 als erster Film im Kino Passerelle vorgefu\u0308hrt worden war.\n\nDie Auswahl der Filme gestalten wir sehr bewusst und sehr vielfa\u0308ltig. Uns liegen kulturelle Studio- und Arthouse-Filme ebenso am Herzen wie anspruchsvolle Dokumentarfilme, regionales und schweizerisches Filmschaffen und Familienfilme. Durch verschiedene Spezialanla\u0308sse, auch in Zusammenarbeit mit anderen regionalen Institutionen, mo\u0308chten wir unserem Publikum ausserdem bestimmte Themen bewusst und auf attraktive Weise na\u0308herbringen.\n\nDurch eine lokale Verankerung, ein u\u0308berlegtes Filmprogramm und eine perso\u0308nliche Na\u0308he zu unseren Ga\u0308sten und Genossenschafter:innen mo\u0308chten wir so unserem Publikum das Tor zur weiten Welt des Films offenhalten.\n\nHinweis: Grosser Saal ist rollstuhlg\u00e4ngig; rollstuhlgerechte Toilette ist vorhanden.", "url": "http://kinopasserelle.ch", "image": "https://ttpimtsoch.sos-ch-dk-2.exoscale-cdn.com/catalog/2/f/0/0/2f006e19b41939c3b485689770f11e259fbcb74f_HUG_0510.png", "openstreetmap_id": "node/82951557"}, "geometry": {"type": "Point", "coordinates": ["9.08898", "47.29702"]}}, {"type": "Feature", "properties": {"identifier": "fc6cd66a-1b85-453e-9df7-3e73ac3d12b6", "name": "Naturb\u00fchne Hohenrain", "description": "<p>Aus heimischem Holz gefertigt, liegt diese Plattform entlang des Thur- und Neckerwegs frei im Landschaftsraum. Sie schafft eine klare, einfache Fl&auml;che im Freien &ndash; offen f&uuml;r das, was entstehen will.<br><br>Die B&uuml;hne kann spontan genutzt oder reserviert werden. Ob allein, zu zweit oder in einer kleinen Gruppe &ndash; hier entsteht Raum f&uuml;r Austausch, f&uuml;r Proben oder Trainings, Kurse und Workshops, kleine Vorf&uuml;hrungen oder f&uuml;r Team-Meetings &laquo;mal anders&raquo;. Die Naturb&uuml;hne bietet einen besonderen Rahmen f&uuml;r gemeinsame Momente in neuer Umgebung. Alternativ dient sie als Platz f&uuml;rs Picknick oder den Lunch am Mittag.</p>", "url": "https://thurundneckerweg.ch", "image": "https://ttpimtsoch.sos-ch-dk-2.exoscale-cdn.com/catalog/f/3/3/1/f331c639b424ea69c0f5b71aba9549f8dbaa7e37_Neckertagl_Hohenrain.jpg", "openstreetmap_id": "node/10311584386"}, "geometry": {"type": "Point", "coordinates": ["9.126694", "47.352194"]}}]}