{"type": "FeatureCollection", "features": [{"type": "Feature", "properties": {"identifier": "25537821-dc60-4980-8c6d-b86da557bbb3", "name": "AUTODROMO Toggenburg", "description": "<div>Rennfeeling f&uuml;r Gross und Klein: Das AUTODROMO Toggenburg ist eine 39 Meter lange, vierspurige Slotcar-Piste mit elektronischer Zeitmessung. Erlebe den Nervenkitzel des Wettkampfs mit deinen Freunden auf der Rennstrecke des AUTODROMO Toggenburg.</div>", "url": "https://autodromotoggenburg.ch", "image": "https://ttpimtsoch.sos-ch-dk-2.exoscale-cdn.com/catalog/2/8/9/a/289a32d94c1bbc5970536da466b8f95075738fd4_IMG_8243.jpeg", "openstreetmap_id": "node/12414061454"}, "geometry": {"type": "Point", "coordinates": ["9.0811109", "47.3447138"]}}, {"type": "Feature", "properties": {"identifier": "5b0d24ae-4156-4298-9c74-6f3174daca11", "name": "Gleitschirm Tandemflug beim Ch\u00e4serrugg", "description": "Der 15 bis 20-min\u00fctige Panoramaflug ist t\u00e4glich bei gutem Wetter m\u00f6glich und der 30 bis 45-min\u00fctige Thermikflug ist t\u00e4glich von April bis August m\u00f6glich. Oder wie w\u00e4re es mit unserem DUO-Gleitschirmflug zu zweit parallel an zwei Gleitschirmen? Du hast auch die M\u00f6glichkeit, einen halben Tag mit Privatpilot zu buchen mit bis zu 3 Fl\u00fcgen. Wir bieten ebenfalls Gruppenevents und Schnupperkurse f\u00fcr gr\u00f6ssere Gruppen oder Firmenausfl\u00fcge an.\n\nInkludierte Leistungen: Gesamte Ausr\u00fcstung, Pilot, exkl. Bergfahrt\nkeine Vorkenntnisse erforderlich, ab 8 Jahren", "url": "https://www.passagierflug.ch/", "image": "https://ttpimtsoch.sos-ch-dk-2.exoscale-cdn.com/catalog/3/9/5/1/39519b576dc7a4f3be42f07a88320256b1d0746e_Thermikflug_Ch__erugg.jpg", "openstreetmap_id": "node/243721699"}, "geometry": {"type": "Point", "coordinates": ["9.312185537778436", "47.15518373298394"]}}, {"type": "Feature", "properties": {"identifier": "7624847b-b5ed-4a65-8205-2c38a3b5abad", "name": "Alpaka Appenzell", "description": "Der Betrieb liegt auf 1000 m.\u00fc.M, am Jakobsweg auf dem H\u00fcgel Arnig und umfasst 18 ha plus 6 ha Wald.\n\nAuf unserem Hof sind viele Tiere zuhause. Neben der 60-k\u00f6pfigen Alpaka-Familie, die seit 2004 bei uns ihr Zuhause gefunden hat geh\u00f6ren Mutterschweine, Mastschweine, Bienen, Katzen, ein Hund und 21 Brown Swiss K\u00fche zu unserem Milchwirtschaftsbetrieb. \n\nSeit 2015 verkaufen wir all unsere hochstehenden Alpaka Produkte in unserem eigenen Hofladen Alparama. Verschaffen Sie sich bei einem Besuch selbst einen Einblick in unser grosses Sortiment. \n\nIn einer Betriebsf\u00fchrung geben wir gerne Einblick in unseren Alltag. Die Tiere kennenlernen, den Kuhglocken lauschen und dem Summer der Alpakas zuh\u00f6ren, w\u00e4hrendem wir einen Ap\u00e9ro servieren. \n\nNeu erstellen wir mit unserem Tiermist Terra-Preta N\u00e4hrhumus und produzieren unsere eigene Pflanzenkohle. Auf Wunsch erl\u00e4utern wir den Herstellungsvorgang w\u00e4hrend dem Sie mit genauem Auge die Abl\u00e4ufe verfolgen k\u00f6nnen.\n\nUnser Alpaka Hof gibt viele Eindr\u00fccke in unser Wirken. Wir freuen uns \u00fcber Ihren Besuch. \n\nAp\u00e9ro ab 6 Personen:\n1) Alparama Apero: Alpaka-Fleisch, Schweine-Fleisch, K\u00e4seplatte, Mineral und Orangensaft: CHF 25 / Person  ( Kinder: CHF 1.50 pro Alter des Kindes)\n2) Arnig Apero: Schweine-Fleisch (Ohne Alpaka-Fleisch), K\u00e4seplatte, Mineral und Orangensaft: CHF 18 / Person (Kinder: CHF 1.00 pro Alter des Kindes)\n*** Wein und Bier: Separat \n \n\u200b\nHoff\u00fchrung mit Vortrag Pauschal (bis 20 Personen, ab 20 Personen auf Anfrage):\na) Ganze Hofbesichtigung: Alpakas, Schweine, K\u00fche, Terra-Preta N\u00e4hrhumus, Pflanzenkohle = CHF 250.-\nb) Tier Besichtigung: Alpakas, Schweine, K\u00fche = CHF 200.-\nc) Alpaka Besichtigung: nur Alpakas mit Hand F\u00fctterung = CHF 150.-", "url": "http://www.alpaka-appenzell.ch/", "image": "https://ttpimtsoch.sos-ch-dk-2.exoscale-cdn.com/catalog/2/9/5/9/29597bc2db547baf7e01f996a495373f0f39ed83_TOGGI_Tiere_mai16_RUPA_718.jpg", "openstreetmap_id": "node/3666869209"}, "geometry": {"type": "Point", "coordinates": ["9.213699102401735", "47.33557855044936"]}}, {"type": "Feature", "properties": {"identifier": "9be96916-483a-4e55-9a0b-93862787dd62", "name": "Eulengl\u00fcck", "description": "<p>Wir bieten folgende Erlebnisse mit unseren Eulen an:<br><br><strong>Erlebnisspaziergang mit Eulen</strong><br>Wir gehen mit Ihnen durch die Landschaft und zeigen Ihnen den Lebensraum der Eulen. Alternativrouten f&uuml;r Personen mit Handicap sind m&ouml;glich.<br><br><strong>Relaxprogramm mit Eulen</strong><br>Ausspannen und den Alltag vergessen?<br>Lassen Sie sich von unseren Eulen dabei helfen.<br>Bei einem Getr&auml;nk und einer Eule auf der Hand einfach den Augenblick geniessen!<br><br><strong>Naturfotoshooting mit Eulen<br></strong>Brauchen Sie f&uuml;r Ihren Fotokurs ein besonderes Motiv?<br>M&ouml;chten Sie eine Eule in der Natur fotografieren?</p>", "url": "https://www.eulenglueck.ch/", "image": "https://ttpimtsoch.sos-ch-dk-2.exoscale-cdn.com/catalog/3/e/0/0/3e00a2ff80b128dc44cacb57143634d1e228a9f6_IMG_20210911_WA0043.jpg", "openstreetmap_id": "relation/1683945"}, "geometry": {"type": "Point", "coordinates": ["9.206514736418168", "47.196959808576"]}}]}