{"type": "FeatureCollection", "features": [{"type": "Feature", "properties": {"identifier": "2f5f5cb5-a1fc-45d1-b41d-99f194742d1d", "name": "Freestyle in Wildhaus \u2013 unsere Funparks", "description": "Actionhungrige Familien finden bei uns Funparks mit einfachen Hindernissen und kleinen Spr\u00fcngen, ideal f\u00fcr Anf\u00e4nger und fortgeschrittene Freestyler. Das Angebot an Spr\u00fcngen und Rails wird im Laufe des Winters, nach M\u00f6glichkeit, kontinuierlich erweitert, sodass Adrenalin, Abwechslung und Spass garantiert sind!\n\nDie Parks sind, sofern es die Schnee- und Wetterbedingungen zulassen, t\u00e4glich in Betrieb und werden jeden Abend f\u00fcr euch pr\u00e4pariert. Der Schnee- und Pistenbericht informiert stets aktuell \u00fcber die ge\u00f6ffneten Lines und die ber\u00fchmte Klangslope!\n\nWir w\u00fcnschen euch viel Spass beim Ausprobieren \u2013 send it!", "url": "http://www.wildhaus.ch/", "image": "https://ttpimtsoch.sos-ch-dk-2.exoscale-cdn.com/catalog/2/1/f/0/21f011345dcb31b0697e35570544cf3c7eb9f6cc_20250129_120534.jpg", "openstreetmap_id": "node/8137301493"}, "geometry": {"type": "Point", "coordinates": ["9.3457831", "47.1875871"]}}, {"type": "Feature", "properties": {"identifier": "a0d2c242-070e-4e2f-836b-4feb51c63968", "name": "Toggenburg-Guides", "description": "Willkommen bei unserer Gemeinschaft von Bergf\u00fchrern und Wanderleitern im Toggenburg.\nBei uns findest du Touren und Erlebnisse, die von erfahrenen Profis geplant und begleitet werden.\nGemeinsam entdecken wir die Sch\u00f6nheit der Berge - ob sanft oder anspruchsvoll.\nWir nehmen dich mit hinaus in die Natur: sicher, authentisch und genau so, wie es zu dir passt.", "url": "https://www.toggenburg-guides.ch", "image": "https://ttpimtsoch.sos-ch-dk-2.exoscale-cdn.com/catalog/4/7/8/3/47832aab2c2b561185152a45c93b99259953dc69_01_Logo_Toggenburg_Guides600.png", "openstreetmap_id": "node/11289740047"}, "geometry": {"type": "Point", "coordinates": ["9.25304174423218", "47.185727089944905"]}}, {"type": "Feature", "properties": {"identifier": "bbe801fe-5f7b-4517-b74b-99b0cf9aa51b", "name": "B\u00e4nkli-Fitness-Weg", "description": "<div><p>Regelm&auml;ssiges Training beziehungsweise k&ouml;rperliche Aktivit&auml;t ist in jedem Alter wichtig. F&uuml;r &auml;ltere Menschen stellt es eine wesentliche Grundlage f&uuml;r ein selbstbestimmtes Leben dar. F&uuml;r Jugendliche und Breitensportler ist Bewegung ein fester Bestandteil sozialer Begegnungen, des Wohlbefindens und der Steigerung der Fitness. Die Lebensqualit&auml;t kann dadurch deutlich verbessert werden.</p><p>Eine Kombination aus Kraft- und Gleichgewichtstraining ist besonders effektiv. Gezieltes Gleichgewichtstraining verbessert die Standstabilit&auml;t und unterst&uuml;tzt eine kontrollierte K&ouml;rperhaltung. Auch die Maximalkraft der Haltemuskulatur wird durch Gleichgewichtstraining gest&auml;rkt. Im Alter kann dies zu einer Verringerung der Sturzgefahr f&uuml;hren.</p><p>Bewegung st&auml;rkt zudem das Immunsystem und f&ouml;rdert die Sauerstoffaufnahme. Das Herz-Kreislauf-System wird gest&auml;rkt, und sowohl die Regeneration als auch die psychische Verfassung profitieren davon. K&ouml;rperliche Aktivit&auml;t unterst&uuml;tzt das K&ouml;rper- und Selbstbewusstsein, verbessert den Schlafrhythmus und tr&auml;gt zum Stressabbau bei.</p><p>Nebst einem gezielten Training ist die Freude an der Bewegung wichtig &ndash; Training soll Spass machen. Und gemeinsames Training macht doppelt Freude.</p></div>", "image": "https://ttpimtsoch.sos-ch-dk-2.exoscale-cdn.com/catalog/5/0/9/d/509d39fd9c9ca1f3613d7419bc7d1b49c5ba7b03_IMG_2249.jpg", "openstreetmap_id": "way/460349509"}, "geometry": {"type": "Point", "coordinates": ["9.348828792572023", "47.20351976581697"]}}]}