{"type": "FeatureCollection", "features": [{"type": "Feature", "properties": {"identifier": "26959043-325b-49ad-8cb1-f8cd56f19993", "name": "S\u00e4ntis Schwebebahn", "image": "https://ttpimtsoch.sos-ch-dk-2.exoscale-cdn.com/catalog/6/8/4/c/684c431eff8c906d5b128d66f0d1bb4cb6554fa3_Saentisfahne_210300dpi5___Kopie.jpg"}}, {"type": "Feature", "properties": {"identifier": "582dc67c-de32-40a4-a1e5-4c84a4b9f3cb", "name": "Selunbahn", "image": "https://ttpimtsoch.sos-ch-dk-2.exoscale-cdn.com/catalog/2/6/d/6/26d63202467876aa00c0e025afb557e4baa4ad11_TT_2025_Selunbahn_143.jpg"}}, {"type": "Feature", "properties": {"identifier": "ca7a990c-7442-448d-bbdb-f4c42c9d16eb", "name": "Bergbahnen Wildhaus", "image": "https://ttpimtsoch.sos-ch-dk-2.exoscale-cdn.com/catalog/a/a/1/a/aa1a38d9258c2132872ad03a11e47d3fadbb035a_TT_2025_Familienskifahren_Wildhaus_040.jpg"}}, {"type": "Feature", "properties": {"identifier": "dad79cf1-1a45-4786-999e-494781682f35", "name": "Toggenburg Bergbahnen", "image": "https://ttpimtsoch.sos-ch-dk-2.exoscale-cdn.com/catalog/2/f/9/4/2f94be7335f429fa1477d902dda4a0e4fba75426_MZ_2023_Sonnenaufgang_Ch__serrugg_30.jpg"}}, {"type": "Feature", "properties": {"identifier": "e5729b0a-95bc-4e8d-a65e-ec22c361edc2", "name": "Gondelbahn Gampl\u00fct", "image": "https://ttpimtsoch.sos-ch-dk-2.exoscale-cdn.com/catalog/a/e/0/6/ae06e8827b60dc7510c4be501269cb543edb0448_TT_2022_Familie_Gampl__t_Wildhaus_002.jpg"}}]}